<?xml version="1.0" encoding="utf-8"?><TrainingCenterDatabase
xsi:schemaLocation="https://www.garmin.com/xmlschemas/TrainingCenterDatabase/v2 https://www.garmin.com/xmlschemas/TrainingCenterDatabasev2.xsd"
xmlns:ns5="https://www.garmin.com/xmlschemas/ActivityGoals/v1"
xmlns:ns3="https://www.garmin.com/xmlschemas/ActivityExtension/v2"
xmlns:ns2="https://www.garmin.com/xmlschemas/UserProfile/v2"
xmlns="https://www.garmin.com/xmlschemas/TrainingCenterDatabase/v2"
xmlns:xsi="https://www.w3.org/2001/XMLSchema-instance" xmlns:ns4="https://www.garmin.com/xmlschemas/ProfileExtension/v1">
<Activities>
<Activity Sport="Other">
  <Id>2026-09-28T08:35:36Z</Id>
    <Lap StartTime="2026-09-28T08:35:36Z ">
      <TotalTimeSeconds>684.7</TotalTimeSeconds>
      <DistanceMeters>2000</DistanceMeters>
      <MaximumSpeed>3.43</MaximumSpeed>
      <Calories>104</Calories>
      <Intensity>Active</Intensity>
      <TriggerMethod>Manual</TriggerMethod>
      <Track>
        <Trackpoint>
          <Time>2026-09-28T08:35:37Z</Time>
          <DistanceMeters>2.1</DistanceMeters>
          <Cadence>0</Cadence>
          <SensorState>Present</SensorState>
          <Extensions>
            <TPX xmlns="https://www.garmin.com/xmlschemas/ActivityExtension/v2">
              <Watts>17</Watts>
            </TPX>
          </Extensions>
        </Trackpoint>
        <Trackpoint>
          <Time>2026-09-28T08:35:40Z</Time>
          <DistanceMeters>8.9</DistanceMeters>
          <Cadence>19</Cadence>
          <SensorState>Present</SensorState>
          <Extensions>
            <TPX xmlns="https://www.garmin.com/xmlschemas/ActivityExtension/v2">
              <Watts>25</Watts>
            </TPX>
          </Extensions>
        </Trackpoint>
        <Trackpoint>
          <Time>2026-09-28T08:35:43Z</Time>
          <DistanceMeters>17</DistanceMeters>
          <Cadence>19</Cadence>
          <SensorState>Present</SensorState>
          <Extensions>
            <TPX xmlns="https://www.garmin.com/xmlschemas/ActivityExtension/v2">
              <Watts>25</Watts>
            </TPX>
          </Extensions>
        </Trackpoint>
        <Trackpoint>
          <Time>2026-09-28T08:35:47Z</Time>
          <DistanceMeters>26.3</DistanceMeters>
          <Cadence>17</Cadence>
          <SensorState>Present</SensorState>
          <Extensions>
            <TPX xmlns="https://www.garmin.com/xmlschemas/ActivityExtension/v2">
              <Watts>35</Watts>
            </TPX>
          </Extensions>
        </Trackpoint>
        <Trackpoint>
          <Time>2026-09-28T08:35:51Z</Time>
          <DistanceMeters>35.8</DistanceMeters>
          <Cadence>16</Cadence>
          <SensorState>Present</SensorState>
          <Extensions>
            <TPX xmlns="https://www.garmin.com/xmlschemas/ActivityExtension/v2">
              <Watts>42</Watts>
            </TPX>
          </Extensions>
        </Trackpoint>
        <Trackpoint>
          <Time>2026-09-28T08:35:55Z</Time>
          <DistanceMeters>45.6</DistanceMeters>
          <Cadence>17</Cadence>
          <SensorState>Present</SensorState>
          <Extensions>
            <TPX xmlns="https://www.garmin.com/xmlschemas/ActivityExtension/v2">
              <Watts>49</Watts>
            </TPX>
          </Extensions>
        </Trackpoint>
        <Trackpoint>
          <Time>2026-09-28T08:35:58Z</Time>
          <DistanceMeters>54.2</DistanceMeters>
          <Cadence>17</Cadence>
          <SensorState>Present</SensorState>
          <Extensions>
            <TPX xmlns="https://www.garmin.com/xmlschemas/ActivityExtension/v2">
              <Watts>49</Watts>
            </TPX>
          </Extensions>
        </Trackpoint>
        <Trackpoint>
          <Time>2026-09-28T08:36:02Z</Time>
          <DistanceMeters>65</DistanceMeters>
          <Cadence>15</Cadence>
          <SensorState>Present</SensorState>
          <Extensions>
            <TPX xmlns="https://www.garmin.com/xmlschemas/ActivityExtension/v2">
              <Watts>53</Watts>
            </TPX>
          </Extensions>
        </Trackpoint>
        <Trackpoint>
          <Time>2026-09-28T08:36:06Z</Time>
          <DistanceMeters>76</DistanceMeters>
          <Cadence>15</Cadence>
          <SensorState>Present</SensorState>
          <Extensions>
            <TPX xmlns="https://www.garmin.com/xmlschemas/ActivityExtension/v2">
              <Watts>59</Watts>
            </TPX>
          </Extensions>
        </Trackpoint>
        <Trackpoint>
          <Time>2026-09-28T08:36:10Z</Time>
          <DistanceMeters>86.4</DistanceMeters>
          <Cadence>16</Cadence>
          <SensorState>Present</SensorState>
          <Extensions>
            <TPX xmlns="https://www.garmin.com/xmlschemas/ActivityExtension/v2">
              <Watts>59</Watts>
            </TPX>
          </Extensions>
        </Trackpoint>
        <Trackpoint>
          <Time>2026-09-28T08:36:13Z</Time>
          <DistanceMeters>96.7</DistanceMeters>
          <Cadence>16</Cadence>
          <SensorState>Present</SensorState>
          <Extensions>
            <TPX xmlns="https://www.garmin.com/xmlschemas/ActivityExtension/v2">
              <Watts>58</Watts>
            </TPX>
          </Extensions>
        </Trackpoint>
        <Trackpoint>
          <Time>2026-09-28T08:36:17Z</Time>
          <DistanceMeters>107.9</DistanceMeters>
          <Cadence>16</Cadence>
          <SensorState>Present</SensorState>
          <Extensions>
            <TPX xmlns="https://www.garmin.com/xmlschemas/ActivityExtension/v2">
              <Watts>58</Watts>
            </TPX>
          </Extensions>
        </Trackpoint>
        <Trackpoint>
          <Time>2026-09-28T08:36:21Z</Time>
          <DistanceMeters>118.3</DistanceMeters>
          <Cadence>16</Cadence>
          <SensorState>Present</SensorState>
          <Extensions>
            <TPX xmlns="https://www.garmin.com/xmlschemas/ActivityExtension/v2">
              <Watts>74</Watts>
            </TPX>
          </Extensions>
        </Trackpoint>
        <Trackpoint>
          <Time>2026-09-28T08:36:25Z</Time>
          <DistanceMeters>129.1</DistanceMeters>
          <Cadence>16</Cadence>
          <SensorState>Present</SensorState>
          <Extensions>
            <TPX xmlns="https://www.garmin.com/xmlschemas/ActivityExtension/v2">
              <Watts>55</Watts>
            </TPX>
          </Extensions>
        </Trackpoint>
        <Trackpoint>
          <Time>2026-09-28T08:36:28Z</Time>
          <DistanceMeters>138.5</DistanceMeters>
          <Cadence>17</Cadence>
          <SensorState>Present</SensorState>
          <Extensions>
            <TPX xmlns="https://www.garmin.com/xmlschemas/ActivityExtension/v2">
              <Watts>55</Watts>
            </TPX>
          </Extensions>
        </Trackpoint>
        <Trackpoint>
          <Time>2026-09-28T08:36:32Z</Time>
          <DistanceMeters>148.7</DistanceMeters>
          <Cadence>16</Cadence>
          <SensorState>Present</SensorState>
          <Extensions>
            <TPX xmlns="https://www.garmin.com/xmlschemas/ActivityExtension/v2">
              <Watts>55</Watts>
            </TPX>
          </Extensions>
        </Trackpoint>
        <Trackpoint>
          <Time>2026-09-28T08:36:36Z</Time>
          <DistanceMeters>158.8</DistanceMeters>
          <Cadence>16</Cadence>
          <SensorState>Present</SensorState>
          <Extensions>
            <TPX xmlns="https://www.garmin.com/xmlschemas/ActivityExtension/v2">
              <Watts>54</Watts>
            </TPX>
          </Extensions>
        </Trackpoint>
        <Trackpoint>
          <Time>2026-09-28T08:36:40Z</Time>
          <DistanceMeters>169.3</DistanceMeters>
          <Cadence>15</Cadence>
          <SensorState>Present</SensorState>
          <Extensions>
            <TPX xmlns="https://www.garmin.com/xmlschemas/ActivityExtension/v2">
              <Watts>52</Watts>
            </TPX>
          </Extensions>
        </Trackpoint>
        <Trackpoint>
          <Time>2026-09-28T08:36:44Z</Time>
          <DistanceMeters>179.3</DistanceMeters>
          <Cadence>16</Cadence>
          <SensorState>Present</SensorState>
          <Extensions>
            <TPX xmlns="https://www.garmin.com/xmlschemas/ActivityExtension/v2">
              <Watts>53</Watts>
            </TPX>
          </Extensions>
        </Trackpoint>
        <Trackpoint>
          <Time>2026-09-28T08:36:47Z</Time>
          <DistanceMeters>188.4</DistanceMeters>
          <Cadence>19</Cadence>
          <SensorState>Present</SensorState>
          <Extensions>
            <TPX xmlns="https://www.garmin.com/xmlschemas/ActivityExtension/v2">
              <Watts>59</Watts>
            </TPX>
          </Extensions>
        </Trackpoint>
        <Trackpoint>
          <Time>2026-09-28T08:36:50Z</Time>
          <DistanceMeters>198</DistanceMeters>
          <Cadence>17</Cadence>
          <SensorState>Present</SensorState>
          <Extensions>
            <TPX xmlns="https://www.garmin.com/xmlschemas/ActivityExtension/v2">
              <Watts>58</Watts>
            </TPX>
          </Extensions>
        </Trackpoint>
        <Trackpoint>
          <Time>2026-09-28T08:36:54Z</Time>
          <DistanceMeters>207.6</DistanceMeters>
          <Cadence>17</Cadence>
          <SensorState>Present</SensorState>
          <Extensions>
            <TPX xmlns="https://www.garmin.com/xmlschemas/ActivityExtension/v2">
              <Watts>57</Watts>
            </TPX>
          </Extensions>
        </Trackpoint>
        <Trackpoint>
          <Time>2026-09-28T08:36:57Z</Time>
          <DistanceMeters>216.3</DistanceMeters>
          <Cadence>18</Cadence>
          <SensorState>Present</SensorState>
          <Extensions>
            <TPX xmlns="https://www.garmin.com/xmlschemas/ActivityExtension/v2">
              <Watts>55</Watts>
            </TPX>
          </Extensions>
        </Trackpoint>
        <Trackpoint>
          <Time>2026-09-28T08:37:01Z</Time>
          <DistanceMeters>225.8</DistanceMeters>
          <Cadence>17</Cadence>
          <SensorState>Present</SensorState>
          <Extensions>
            <TPX xmlns="https://www.garmin.com/xmlschemas/ActivityExtension/v2">
              <Watts>55</Watts>
            </TPX>
          </Extensions>
        </Trackpoint>
        <Trackpoint>
          <Time>2026-09-28T08:37:04Z</Time>
          <DistanceMeters>235.2</DistanceMeters>
          <Cadence>17</Cadence>
          <SensorState>Present</SensorState>
          <Extensions>
            <TPX xmlns="https://www.garmin.com/xmlschemas/ActivityExtension/v2">
              <Watts>55</Watts>
            </TPX>
          </Extensions>
        </Trackpoint>
        <Trackpoint>
          <Time>2026-09-28T08:37:08Z</Time>
          <DistanceMeters>244.7</DistanceMeters>
          <Cadence>17</Cadence>
          <SensorState>Present</SensorState>
          <Extensions>
            <TPX xmlns="https://www.garmin.com/xmlschemas/ActivityExtension/v2">
              <Watts>55</Watts>
            </TPX>
          </Extensions>
        </Trackpoint>
        <Trackpoint>
          <Time>2026-09-28T08:37:11Z</Time>
          <DistanceMeters>254.2</DistanceMeters>
          <Cadence>17</Cadence>
          <SensorState>Present</SensorState>
          <Extensions>
            <TPX xmlns="https://www.garmin.com/xmlschemas/ActivityExtension/v2">
              <Watts>55</Watts>
            </TPX>
          </Extensions>
        </Trackpoint>
        <Trackpoint>
          <Time>2026-09-28T08:37:15Z</Time>
          <DistanceMeters>263.7</DistanceMeters>
          <Cadence>17</Cadence>
          <SensorState>Present</SensorState>
          <Extensions>
            <TPX xmlns="https://www.garmin.com/xmlschemas/ActivityExtension/v2">
              <Watts>55</Watts>
            </TPX>
          </Extensions>
        </Trackpoint>
        <Trackpoint>
          <Time>2026-09-28T08:37:18Z</Time>
          <DistanceMeters>273.2</DistanceMeters>
          <Cadence>17</Cadence>
          <SensorState>Present</SensorState>
          <Extensions>
            <TPX xmlns="https://www.garmin.com/xmlschemas/ActivityExtension/v2">
              <Watts>57</Watts>
            </TPX>
          </Extensions>
        </Trackpoint>
        <Trackpoint>
          <Time>2026-09-28T08:37:22Z</Time>
          <DistanceMeters>282.9</DistanceMeters>
          <Cadence>18</Cadence>
          <SensorState>Present</SensorState>
          <Extensions>
            <TPX xmlns="https://www.garmin.com/xmlschemas/ActivityExtension/v2">
              <Watts>58</Watts>
            </TPX>
          </Extensions>
        </Trackpoint>
        <Trackpoint>
          <Time>2026-09-28T08:37:25Z</Time>
          <DistanceMeters>292.6</DistanceMeters>
          <Cadence>18</Cadence>
          <SensorState>Present</SensorState>
          <Extensions>
            <TPX xmlns="https://www.garmin.com/xmlschemas/ActivityExtension/v2">
              <Watts>58</Watts>
            </TPX>
          </Extensions>
        </Trackpoint>
        <Trackpoint>
          <Time>2026-09-28T08:37:29Z</Time>
          <DistanceMeters>302.3</DistanceMeters>
          <Cadence>18</Cadence>
          <SensorState>Present</SensorState>
          <Extensions>
            <TPX xmlns="https://www.garmin.com/xmlschemas/ActivityExtension/v2">
              <Watts>60</Watts>
            </TPX>
          </Extensions>
        </Trackpoint>
        <Trackpoint>
          <Time>2026-09-28T08:37:32Z</Time>
          <DistanceMeters>312.1</DistanceMeters>
          <Cadence>17</Cadence>
          <SensorState>Present</SensorState>
          <Extensions>
            <TPX xmlns="https://www.garmin.com/xmlschemas/ActivityExtension/v2">
              <Watts>62</Watts>
            </TPX>
          </Extensions>
        </Trackpoint>
        <Trackpoint>
          <Time>2026-09-28T08:37:36Z</Time>
          <DistanceMeters>322</DistanceMeters>
          <Cadence>17</Cadence>
          <SensorState>Present</SensorState>
          <Extensions>
            <TPX xmlns="https://www.garmin.com/xmlschemas/ActivityExtension/v2">
              <Watts>62</Watts>
            </TPX>
          </Extensions>
        </Trackpoint>
        <Trackpoint>
          <Time>2026-09-28T08:37:39Z</Time>
          <DistanceMeters>331.1</DistanceMeters>
          <Cadence>17</Cadence>
          <SensorState>Present</SensorState>
          <Extensions>
            <TPX xmlns="https://www.garmin.com/xmlschemas/ActivityExtension/v2">
              <Watts>62</Watts>
            </TPX>
          </Extensions>
        </Trackpoint>
        <Trackpoint>
          <Time>2026-09-28T08:37:43Z</Time>
          <DistanceMeters>341.9</DistanceMeters>
          <Cadence>17</Cadence>
          <SensorState>Present</SensorState>
          <Extensions>
            <TPX xmlns="https://www.garmin.com/xmlschemas/ActivityExtension/v2">
              <Watts>63</Watts>
            </TPX>
          </Extensions>
        </Trackpoint>
        <Trackpoint>
          <Time>2026-09-28T08:37:46Z</Time>
          <DistanceMeters>351</DistanceMeters>
          <Cadence>17</Cadence>
          <SensorState>Present</SensorState>
          <Extensions>
            <TPX xmlns="https://www.garmin.com/xmlschemas/ActivityExtension/v2">
              <Watts>63</Watts>
            </TPX>
          </Extensions>
        </Trackpoint>
        <Trackpoint>
          <Time>2026-09-28T08:37:50Z</Time>
          <DistanceMeters>361.5</DistanceMeters>
          <Cadence>16</Cadence>
          <SensorState>Present</SensorState>
          <Extensions>
            <TPX xmlns="https://www.garmin.com/xmlschemas/ActivityExtension/v2">
              <Watts>60</Watts>
            </TPX>
          </Extensions>
        </Trackpoint>
        <Trackpoint>
          <Time>2026-09-28T08:37:53Z</Time>
          <DistanceMeters>371.3</DistanceMeters>
          <Cadence>16</Cadence>
          <SensorState>Present</SensorState>
          <Extensions>
            <TPX xmlns="https://www.garmin.com/xmlschemas/ActivityExtension/v2">
              <Watts>60</Watts>
            </TPX>
          </Extensions>
        </Trackpoint>
        <Trackpoint>
          <Time>2026-09-28T08:37:57Z</Time>
          <DistanceMeters>381.2</DistanceMeters>
          <Cadence>17</Cadence>
          <SensorState>Present</SensorState>
          <Extensions>
            <TPX xmlns="https://www.garmin.com/xmlschemas/ActivityExtension/v2">
              <Watts>61</Watts>
            </TPX>
          </Extensions>
        </Trackpoint>
        <Trackpoint>
          <Time>2026-09-28T08:38:00Z</Time>
          <DistanceMeters>391.7</DistanceMeters>
          <Cadence>17</Cadence>
          <SensorState>Present</SensorState>
          <Extensions>
            <TPX xmlns="https://www.garmin.com/xmlschemas/ActivityExtension/v2">
              <Watts>64</Watts>
            </TPX>
          </Extensions>
        </Trackpoint>
        <Trackpoint>
          <Time>2026-09-28T08:38:04Z</Time>
          <DistanceMeters>402.3</DistanceMeters>
          <Cadence>17</Cadence>
          <SensorState>Present</SensorState>
          <Extensions>
            <TPX xmlns="https://www.garmin.com/xmlschemas/ActivityExtension/v2">
              <Watts>61</Watts>
            </TPX>
          </Extensions>
        </Trackpoint>
        <Trackpoint>
          <Time>2026-09-28T08:38:08Z</Time>
          <DistanceMeters>412.1</DistanceMeters>
          <Cadence>17</Cadence>
          <SensorState>Present</SensorState>
          <Extensions>
            <TPX xmlns="https://www.garmin.com/xmlschemas/ActivityExtension/v2">
              <Watts>61</Watts>
            </TPX>
          </Extensions>
        </Trackpoint>
        <Trackpoint>
          <Time>2026-09-28T08:38:11Z</Time>
          <DistanceMeters>422.3</DistanceMeters>
          <Cadence>17</Cadence>
          <SensorState>Present</SensorState>
          <Extensions>
            <TPX xmlns="https://www.garmin.com/xmlschemas/ActivityExtension/v2">
              <Watts>62</Watts>
            </TPX>
          </Extensions>
        </Trackpoint>
        <Trackpoint>
          <Time>2026-09-28T08:38:15Z</Time>
          <DistanceMeters>433.6</DistanceMeters>
          <Cadence>17</Cadence>
          <SensorState>Present</SensorState>
          <Extensions>
            <TPX xmlns="https://www.garmin.com/xmlschemas/ActivityExtension/v2">
              <Watts>69</Watts>
            </TPX>
          </Extensions>
        </Trackpoint>
        <Trackpoint>
          <Time>2026-09-28T08:38:19Z</Time>
          <DistanceMeters>444.8</DistanceMeters>
          <Cadence>17</Cadence>
          <SensorState>Present</SensorState>
          <Extensions>
            <TPX xmlns="https://www.garmin.com/xmlschemas/ActivityExtension/v2">
              <Watts>72</Watts>
            </TPX>
          </Extensions>
        </Trackpoint>
        <Trackpoint>
          <Time>2026-09-28T08:38:22Z</Time>
          <DistanceMeters>455.8</DistanceMeters>
          <Cadence>16</Cadence>
          <SensorState>Present</SensorState>
          <Extensions>
            <TPX xmlns="https://www.garmin.com/xmlschemas/ActivityExtension/v2">
              <Watts>69</Watts>
            </TPX>
          </Extensions>
        </Trackpoint>
        <Trackpoint>
          <Time>2026-09-28T08:38:26Z</Time>
          <DistanceMeters>465.9</DistanceMeters>
          <Cadence>16</Cadence>
          <SensorState>Present</SensorState>
          <Extensions>
            <TPX xmlns="https://www.garmin.com/xmlschemas/ActivityExtension/v2">
              <Watts>69</Watts>
            </TPX>
          </Extensions>
        </Trackpoint>
        <Trackpoint>
          <Time>2026-09-28T08:38:29Z</Time>
          <DistanceMeters>476</DistanceMeters>
          <Cadence>16</Cadence>
          <SensorState>Present</SensorState>
          <Extensions>
            <TPX xmlns="https://www.garmin.com/xmlschemas/ActivityExtension/v2">
              <Watts>68</Watts>
            </TPX>
          </Extensions>
        </Trackpoint>
        <Trackpoint>
          <Time>2026-09-28T08:38:33Z</Time>
          <DistanceMeters>487</DistanceMeters>
          <Cadence>17</Cadence>
          <SensorState>Present</SensorState>
          <Extensions>
            <TPX xmlns="https://www.garmin.com/xmlschemas/ActivityExtension/v2">
              <Watts>69</Watts>
            </TPX>
          </Extensions>
        </Trackpoint>
        <Trackpoint>
          <Time>2026-09-28T08:38:37Z</Time>
          <DistanceMeters>498</DistanceMeters>
          <Cadence>16</Cadence>
          <SensorState>Present</SensorState>
          <Extensions>
            <TPX xmlns="https://www.garmin.com/xmlschemas/ActivityExtension/v2">
              <Watts>69</Watts>
            </TPX>
          </Extensions>
        </Trackpoint>
        <Trackpoint>
          <Time>2026-09-28T08:38:41Z</Time>
          <DistanceMeters>509.4</DistanceMeters>
          <Cadence>16</Cadence>
          <SensorState>Present</SensorState>
          <Extensions>
            <TPX xmlns="https://www.garmin.com/xmlschemas/ActivityExtension/v2">
              <Watts>78</Watts>
            </TPX>
          </Extensions>
        </Trackpoint>
        <Trackpoint>
          <Time>2026-09-28T08:38:44Z</Time>
          <DistanceMeters>520.3</DistanceMeters>
          <Cadence>17</Cadence>
          <SensorState>Present</SensorState>
          <Extensions>
            <TPX xmlns="https://www.garmin.com/xmlschemas/ActivityExtension/v2">
              <Watts>84</Watts>
            </TPX>
          </Extensions>
        </Trackpoint>
        <Trackpoint>
          <Time>2026-09-28T08:38:48Z</Time>
          <DistanceMeters>531.1</DistanceMeters>
          <Cadence>17</Cadence>
          <SensorState>Present</SensorState>
          <Extensions>
            <TPX xmlns="https://www.garmin.com/xmlschemas/ActivityExtension/v2">
              <Watts>84</Watts>
            </TPX>
          </Extensions>
        </Trackpoint>
        <Trackpoint>
          <Time>2026-09-28T08:38:52Z</Time>
          <DistanceMeters>543.8</DistanceMeters>
          <Cadence>16</Cadence>
          <SensorState>Present</SensorState>
          <Extensions>
            <TPX xmlns="https://www.garmin.com/xmlschemas/ActivityExtension/v2">
              <Watts>86</Watts>
            </TPX>
          </Extensions>
        </Trackpoint>
        <Trackpoint>
          <Time>2026-09-28T08:38:55Z</Time>
          <DistanceMeters>555.9</DistanceMeters>
          <Cadence>16</Cadence>
          <SensorState>Present</SensorState>
          <Extensions>
            <TPX xmlns="https://www.garmin.com/xmlschemas/ActivityExtension/v2">
              <Watts>94</Watts>
            </TPX>
          </Extensions>
        </Trackpoint>
        <Trackpoint>
          <Time>2026-09-28T08:38:59Z</Time>
          <DistanceMeters>568.1</DistanceMeters>
          <Cadence>16</Cadence>
          <SensorState>Present</SensorState>
          <Extensions>
            <TPX xmlns="https://www.garmin.com/xmlschemas/ActivityExtension/v2">
              <Watts>94</Watts>
            </TPX>
          </Extensions>
        </Trackpoint>
        <Trackpoint>
          <Time>2026-09-28T08:39:03Z</Time>
          <DistanceMeters>581.9</DistanceMeters>
          <Cadence>16</Cadence>
          <SensorState>Present</SensorState>
          <Extensions>
            <TPX xmlns="https://www.garmin.com/xmlschemas/ActivityExtension/v2">
              <Watts>112</Watts>
            </TPX>
          </Extensions>
        </Trackpoint>
        <Trackpoint>
          <Time>2026-09-28T08:39:07Z</Time>
          <DistanceMeters>594.8</DistanceMeters>
          <Cadence>16</Cadence>
          <SensorState>Present</SensorState>
          <Extensions>
            <TPX xmlns="https://www.garmin.com/xmlschemas/ActivityExtension/v2">
              <Watts>113</Watts>
            </TPX>
          </Extensions>
        </Trackpoint>
        <Trackpoint>
          <Time>2026-09-28T08:39:11Z</Time>
          <DistanceMeters>608.3</DistanceMeters>
          <Cadence>16</Cadence>
          <SensorState>Present</SensorState>
          <Extensions>
            <TPX xmlns="https://www.garmin.com/xmlschemas/ActivityExtension/v2">
              <Watts>113</Watts>
            </TPX>
          </Extensions>
        </Trackpoint>
        <Trackpoint>
          <Time>2026-09-28T08:39:15Z</Time>
          <DistanceMeters>622</DistanceMeters>
          <Cadence>16</Cadence>
          <SensorState>Present</SensorState>
          <Extensions>
            <TPX xmlns="https://www.garmin.com/xmlschemas/ActivityExtension/v2">
              <Watts>109</Watts>
            </TPX>
          </Extensions>
        </Trackpoint>
        <Trackpoint>
          <Time>2026-09-28T08:39:19Z</Time>
          <DistanceMeters>634.5</DistanceMeters>
          <Cadence>15</Cadence>
          <SensorState>Present</SensorState>
          <Extensions>
            <TPX xmlns="https://www.garmin.com/xmlschemas/ActivityExtension/v2">
              <Watts>104</Watts>
            </TPX>
          </Extensions>
        </Trackpoint>
        <Trackpoint>
          <Time>2026-09-28T08:39:22Z</Time>
          <DistanceMeters>647.1</DistanceMeters>
          <Cadence>16</Cadence>
          <SensorState>Present</SensorState>
          <Extensions>
            <TPX xmlns="https://www.garmin.com/xmlschemas/ActivityExtension/v2">
              <Watts>107</Watts>
            </TPX>
          </Extensions>
        </Trackpoint>
        <Trackpoint>
          <Time>2026-09-28T08:39:26Z</Time>
          <DistanceMeters>659.3</DistanceMeters>
          <Cadence>16</Cadence>
          <SensorState>Present</SensorState>
          <Extensions>
            <TPX xmlns="https://www.garmin.com/xmlschemas/ActivityExtension/v2">
              <Watts>107</Watts>
            </TPX>
          </Extensions>
        </Trackpoint>
        <Trackpoint>
          <Time>2026-09-28T08:39:30Z</Time>
          <DistanceMeters>671.6</DistanceMeters>
          <Cadence>16</Cadence>
          <SensorState>Present</SensorState>
          <Extensions>
            <TPX xmlns="https://www.garmin.com/xmlschemas/ActivityExtension/v2">
              <Watts>97</Watts>
            </TPX>
          </Extensions>
        </Trackpoint>
        <Trackpoint>
          <Time>2026-09-28T08:39:34Z</Time>
          <DistanceMeters>684.7</DistanceMeters>
          <Cadence>16</Cadence>
          <SensorState>Present</SensorState>
          <Extensions>
            <TPX xmlns="https://www.garmin.com/xmlschemas/ActivityExtension/v2">
              <Watts>95</Watts>
            </TPX>
          </Extensions>
        </Trackpoint>
        <Trackpoint>
          <Time>2026-09-28T08:39:37Z</Time>
          <DistanceMeters>696</DistanceMeters>
          <Cadence>17</Cadence>
          <SensorState>Present</SensorState>
          <Extensions>
            <TPX xmlns="https://www.garmin.com/xmlschemas/ActivityExtension/v2">
              <Watts>97</Watts>
            </TPX>
          </Extensions>
        </Trackpoint>
        <Trackpoint>
          <Time>2026-09-28T08:39:43Z</Time>
          <DistanceMeters>712.7</DistanceMeters>
          <Cadence>11</Cadence>
          <SensorState>Present</SensorState>
          <Extensions>
            <TPX xmlns="https://www.garmin.com/xmlschemas/ActivityExtension/v2">
              <Watts>76</Watts>
            </TPX>
          </Extensions>
        </Trackpoint>
        <Trackpoint>
          <Time>2026-09-28T08:39:46Z</Time>
          <DistanceMeters>723.7</DistanceMeters>
          <Cadence>18</Cadence>
          <SensorState>Present</SensorState>
          <Extensions>
            <TPX xmlns="https://www.garmin.com/xmlschemas/ActivityExtension/v2">
              <Watts>88</Watts>
            </TPX>
          </Extensions>
        </Trackpoint>
        <Trackpoint>
          <Time>2026-09-28T08:39:50Z</Time>
          <DistanceMeters>734</DistanceMeters>
          <Cadence>18</Cadence>
          <SensorState>Present</SensorState>
          <Extensions>
            <TPX xmlns="https://www.garmin.com/xmlschemas/ActivityExtension/v2">
              <Watts>86</Watts>
            </TPX>
          </Extensions>
        </Trackpoint>
        <Trackpoint>
          <Time>2026-09-28T08:39:53Z</Time>
          <DistanceMeters>744.9</DistanceMeters>
          <Cadence>17</Cadence>
          <SensorState>Present</SensorState>
          <Extensions>
            <TPX xmlns="https://www.garmin.com/xmlschemas/ActivityExtension/v2">
              <Watts>86</Watts>
            </TPX>
          </Extensions>
        </Trackpoint>
        <Trackpoint>
          <Time>2026-09-28T08:39:56Z</Time>
          <DistanceMeters>754.9</DistanceMeters>
          <Cadence>17</Cadence>
          <SensorState>Present</SensorState>
          <Extensions>
            <TPX xmlns="https://www.garmin.com/xmlschemas/ActivityExtension/v2">
              <Watts>86</Watts>
            </TPX>
          </Extensions>
        </Trackpoint>
        <Trackpoint>
          <Time>2026-09-28T08:40:00Z</Time>
          <DistanceMeters>765.7</DistanceMeters>
          <Cadence>17</Cadence>
          <SensorState>Present</SensorState>
          <Extensions>
            <TPX xmlns="https://www.garmin.com/xmlschemas/ActivityExtension/v2">
              <Watts>83</Watts>
            </TPX>
          </Extensions>
        </Trackpoint>
        <Trackpoint>
          <Time>2026-09-28T08:40:04Z</Time>
          <DistanceMeters>778.1</DistanceMeters>
          <Cadence>15</Cadence>
          <SensorState>Present</SensorState>
          <Extensions>
            <TPX xmlns="https://www.garmin.com/xmlschemas/ActivityExtension/v2">
              <Watts>80</Watts>
            </TPX>
          </Extensions>
        </Trackpoint>
        <Trackpoint>
          <Time>2026-09-28T08:40:08Z</Time>
          <DistanceMeters>791.2</DistanceMeters>
          <Cadence>14</Cadence>
          <SensorState>Present</SensorState>
          <Extensions>
            <TPX xmlns="https://www.garmin.com/xmlschemas/ActivityExtension/v2">
              <Watts>81</Watts>
            </TPX>
          </Extensions>
        </Trackpoint>
        <Trackpoint>
          <Time>2026-09-28T08:40:12Z</Time>
          <DistanceMeters>803.3</DistanceMeters>
          <Cadence>15</Cadence>
          <SensorState>Present</SensorState>
          <Extensions>
            <TPX xmlns="https://www.garmin.com/xmlschemas/ActivityExtension/v2">
              <Watts>78</Watts>
            </TPX>
          </Extensions>
        </Trackpoint>
        <Trackpoint>
          <Time>2026-09-28T08:40:16Z</Time>
          <DistanceMeters>815.2</DistanceMeters>
          <Cadence>15</Cadence>
          <SensorState>Present</SensorState>
          <Extensions>
            <TPX xmlns="https://www.garmin.com/xmlschemas/ActivityExtension/v2">
              <Watts>78</Watts>
            </TPX>
          </Extensions>
        </Trackpoint>
        <Trackpoint>
          <Time>2026-09-28T08:40:20Z</Time>
          <DistanceMeters>827.8</DistanceMeters>
          <Cadence>14</Cadence>
          <SensorState>Present</SensorState>
          <Extensions>
            <TPX xmlns="https://www.garmin.com/xmlschemas/ActivityExtension/v2">
              <Watts>72</Watts>
            </TPX>
          </Extensions>
        </Trackpoint>
        <Trackpoint>
          <Time>2026-09-28T08:40:25Z</Time>
          <DistanceMeters>840.6</DistanceMeters>
          <Cadence>14</Cadence>
          <SensorState>Present</SensorState>
          <Extensions>
            <TPX xmlns="https://www.garmin.com/xmlschemas/ActivityExtension/v2">
              <Watts>75</Watts>
            </TPX>
          </Extensions>
        </Trackpoint>
        <Trackpoint>
          <Time>2026-09-28T08:40:28Z</Time>
          <DistanceMeters>851.9</DistanceMeters>
          <Cadence>14</Cadence>
          <SensorState>Present</SensorState>
          <Extensions>
            <TPX xmlns="https://www.garmin.com/xmlschemas/ActivityExtension/v2">
              <Watts>75</Watts>
            </TPX>
          </Extensions>
        </Trackpoint>
        <Trackpoint>
          <Time>2026-09-28T08:40:33Z</Time>
          <DistanceMeters>864.5</DistanceMeters>
          <Cadence>15</Cadence>
          <SensorState>Present</SensorState>
          <Extensions>
            <TPX xmlns="https://www.garmin.com/xmlschemas/ActivityExtension/v2">
              <Watts>77</Watts>
            </TPX>
          </Extensions>
        </Trackpoint>
        <Trackpoint>
          <Time>2026-09-28T08:40:37Z</Time>
          <DistanceMeters>878.6</DistanceMeters>
          <Cadence>13</Cadence>
          <SensorState>Present</SensorState>
          <Extensions>
            <TPX xmlns="https://www.garmin.com/xmlschemas/ActivityExtension/v2">
              <Watts>71</Watts>
            </TPX>
          </Extensions>
        </Trackpoint>
        <Trackpoint>
          <Time>2026-09-28T08:40:41Z</Time>
          <DistanceMeters>889.6</DistanceMeters>
          <Cadence>13</Cadence>
          <SensorState>Present</SensorState>
          <Extensions>
            <TPX xmlns="https://www.garmin.com/xmlschemas/ActivityExtension/v2">
              <Watts>71</Watts>
            </TPX>
          </Extensions>
        </Trackpoint>
        <Trackpoint>
          <Time>2026-09-28T08:40:45Z</Time>
          <DistanceMeters>902.4</DistanceMeters>
          <Cadence>15</Cadence>
          <SensorState>Present</SensorState>
          <Extensions>
            <TPX xmlns="https://www.garmin.com/xmlschemas/ActivityExtension/v2">
              <Watts>74</Watts>
            </TPX>
          </Extensions>
        </Trackpoint>
        <Trackpoint>
          <Time>2026-09-28T08:40:49Z</Time>
          <DistanceMeters>914.7</DistanceMeters>
          <Cadence>16</Cadence>
          <SensorState>Present</SensorState>
          <Extensions>
            <TPX xmlns="https://www.garmin.com/xmlschemas/ActivityExtension/v2">
              <Watts>80</Watts>
            </TPX>
          </Extensions>
        </Trackpoint>
        <Trackpoint>
          <Time>2026-09-28T08:40:54Z</Time>
          <DistanceMeters>927.5</DistanceMeters>
          <Cadence>14</Cadence>
          <SensorState>Present</SensorState>
          <Extensions>
            <TPX xmlns="https://www.garmin.com/xmlschemas/ActivityExtension/v2">
              <Watts>77</Watts>
            </TPX>
          </Extensions>
        </Trackpoint>
        <Trackpoint>
          <Time>2026-09-28T08:40:58Z</Time>
          <DistanceMeters>940.4</DistanceMeters>
          <Cadence>14</Cadence>
          <SensorState>Present</SensorState>
          <Extensions>
            <TPX xmlns="https://www.garmin.com/xmlschemas/ActivityExtension/v2">
              <Watts>76</Watts>
            </TPX>
          </Extensions>
        </Trackpoint>
        <Trackpoint>
          <Time>2026-09-28T08:41:02Z</Time>
          <DistanceMeters>953.1</DistanceMeters>
          <Cadence>14</Cadence>
          <SensorState>Present</SensorState>
          <Extensions>
            <TPX xmlns="https://www.garmin.com/xmlschemas/ActivityExtension/v2">
              <Watts>76</Watts>
            </TPX>
          </Extensions>
        </Trackpoint>
        <Trackpoint>
          <Time>2026-09-28T08:41:07Z</Time>
          <DistanceMeters>966.5</DistanceMeters>
          <Cadence>14</Cadence>
          <SensorState>Present</SensorState>
          <Extensions>
            <TPX xmlns="https://www.garmin.com/xmlschemas/ActivityExtension/v2">
              <Watts>73</Watts>
            </TPX>
          </Extensions>
        </Trackpoint>
        <Trackpoint>
          <Time>2026-09-28T08:41:11Z</Time>
          <DistanceMeters>979.1</DistanceMeters>
          <Cadence>14</Cadence>
          <SensorState>Present</SensorState>
          <Extensions>
            <TPX xmlns="https://www.garmin.com/xmlschemas/ActivityExtension/v2">
              <Watts>72</Watts>
            </TPX>
          </Extensions>
        </Trackpoint>
        <Trackpoint>
          <Time>2026-09-28T08:41:15Z</Time>
          <DistanceMeters>992.6</DistanceMeters>
          <Cadence>14</Cadence>
          <SensorState>Present</SensorState>
          <Extensions>
            <TPX xmlns="https://www.garmin.com/xmlschemas/ActivityExtension/v2">
              <Watts>74</Watts>
            </TPX>
          </Extensions>
        </Trackpoint>
        <Trackpoint>
          <Time>2026-09-28T08:41:20Z</Time>
          <DistanceMeters>1006</DistanceMeters>
          <Cadence>13</Cadence>
          <SensorState>Present</SensorState>
          <Extensions>
            <TPX xmlns="https://www.garmin.com/xmlschemas/ActivityExtension/v2">
              <Watts>73</Watts>
            </TPX>
          </Extensions>
        </Trackpoint>
        <Trackpoint>
          <Time>2026-09-28T08:41:24Z</Time>
          <DistanceMeters>1018.5</DistanceMeters>
          <Cadence>13</Cadence>
          <SensorState>Present</SensorState>
          <Extensions>
            <TPX xmlns="https://www.garmin.com/xmlschemas/ActivityExtension/v2">
              <Watts>73</Watts>
            </TPX>
          </Extensions>
        </Trackpoint>
        <Trackpoint>
          <Time>2026-09-28T08:41:29Z</Time>
          <DistanceMeters>1032.3</DistanceMeters>
          <Cadence>14</Cadence>
          <SensorState>Present</SensorState>
          <Extensions>
            <TPX xmlns="https://www.garmin.com/xmlschemas/ActivityExtension/v2">
              <Watts>73</Watts>
            </TPX>
          </Extensions>
        </Trackpoint>
        <Trackpoint>
          <Time>2026-09-28T08:41:33Z</Time>
          <DistanceMeters>1045.5</DistanceMeters>
          <Cadence>14</Cadence>
          <SensorState>Present</SensorState>
          <Extensions>
            <TPX xmlns="https://www.garmin.com/xmlschemas/ActivityExtension/v2">
              <Watts>69</Watts>
            </TPX>
          </Extensions>
        </Trackpoint>
        <Trackpoint>
          <Time>2026-09-28T08:41:37Z</Time>
          <DistanceMeters>1057.5</DistanceMeters>
          <Cadence>15</Cadence>
          <SensorState>Present</SensorState>
          <Extensions>
            <TPX xmlns="https://www.garmin.com/xmlschemas/ActivityExtension/v2">
              <Watts>74</Watts>
            </TPX>
          </Extensions>
        </Trackpoint>
        <Trackpoint>
          <Time>2026-09-28T08:41:42Z</Time>
          <DistanceMeters>1070.1</DistanceMeters>
          <Cadence>15</Cadence>
          <SensorState>Present</SensorState>
          <Extensions>
            <TPX xmlns="https://www.garmin.com/xmlschemas/ActivityExtension/v2">
              <Watts>74</Watts>
            </TPX>
          </Extensions>
        </Trackpoint>
        <Trackpoint>
          <Time>2026-09-28T08:41:46Z</Time>
          <DistanceMeters>1082.8</DistanceMeters>
          <Cadence>14</Cadence>
          <SensorState>Present</SensorState>
          <Extensions>
            <TPX xmlns="https://www.garmin.com/xmlschemas/ActivityExtension/v2">
              <Watts>74</Watts>
            </TPX>
          </Extensions>
        </Trackpoint>
        <Trackpoint>
          <Time>2026-09-28T08:41:51Z</Time>
          <DistanceMeters>1096.8</DistanceMeters>
          <Cadence>13</Cadence>
          <SensorState>Present</SensorState>
          <Extensions>
            <TPX xmlns="https://www.garmin.com/xmlschemas/ActivityExtension/v2">
              <Watts>71</Watts>
            </TPX>
          </Extensions>
        </Trackpoint>
        <Trackpoint>
          <Time>2026-09-28T08:41:54Z</Time>
          <DistanceMeters>1108.1</DistanceMeters>
          <Cadence>13</Cadence>
          <SensorState>Present</SensorState>
          <Extensions>
            <TPX xmlns="https://www.garmin.com/xmlschemas/ActivityExtension/v2">
              <Watts>71</Watts>
            </TPX>
          </Extensions>
        </Trackpoint>
        <Trackpoint>
          <Time>2026-09-28T08:41:59Z</Time>
          <DistanceMeters>1122.9</DistanceMeters>
          <Cadence>12</Cadence>
          <SensorState>Present</SensorState>
          <Extensions>
            <TPX xmlns="https://www.garmin.com/xmlschemas/ActivityExtension/v2">
              <Watts>71</Watts>
            </TPX>
          </Extensions>
        </Trackpoint>
        <Trackpoint>
          <Time>2026-09-28T08:42:04Z</Time>
          <DistanceMeters>1135.4</DistanceMeters>
          <Cadence>12</Cadence>
          <SensorState>Present</SensorState>
          <Extensions>
            <TPX xmlns="https://www.garmin.com/xmlschemas/ActivityExtension/v2">
              <Watts>71</Watts>
            </TPX>
          </Extensions>
        </Trackpoint>
        <Trackpoint>
          <Time>2026-09-28T08:42:08Z</Time>
          <DistanceMeters>1149.4</DistanceMeters>
          <Cadence>13</Cadence>
          <SensorState>Present</SensorState>
          <Extensions>
            <TPX xmlns="https://www.garmin.com/xmlschemas/ActivityExtension/v2">
              <Watts>71</Watts>
            </TPX>
          </Extensions>
        </Trackpoint>
        <Trackpoint>
          <Time>2026-09-28T08:42:12Z</Time>
          <DistanceMeters>1161.2</DistanceMeters>
          <Cadence>15</Cadence>
          <SensorState>Present</SensorState>
          <Extensions>
            <TPX xmlns="https://www.garmin.com/xmlschemas/ActivityExtension/v2">
              <Watts>72</Watts>
            </TPX>
          </Extensions>
        </Trackpoint>
        <Trackpoint>
          <Time>2026-09-28T08:42:16Z</Time>
          <DistanceMeters>1173.3</DistanceMeters>
          <Cadence>15</Cadence>
          <SensorState>Present</SensorState>
          <Extensions>
            <TPX xmlns="https://www.garmin.com/xmlschemas/ActivityExtension/v2">
              <Watts>77</Watts>
            </TPX>
          </Extensions>
        </Trackpoint>
        <Trackpoint>
          <Time>2026-09-28T08:42:20Z</Time>
          <DistanceMeters>1185.5</DistanceMeters>
          <Cadence>15</Cadence>
          <SensorState>Present</SensorState>
          <Extensions>
            <TPX xmlns="https://www.garmin.com/xmlschemas/ActivityExtension/v2">
              <Watts>77</Watts>
            </TPX>
          </Extensions>
        </Trackpoint>
        <Trackpoint>
          <Time>2026-09-28T08:42:25Z</Time>
          <DistanceMeters>1199.1</DistanceMeters>
          <Cadence>14</Cadence>
          <SensorState>Present</SensorState>
          <Extensions>
            <TPX xmlns="https://www.garmin.com/xmlschemas/ActivityExtension/v2">
              <Watts>76</Watts>
            </TPX>
          </Extensions>
        </Trackpoint>
        <Trackpoint>
          <Time>2026-09-28T08:42:29Z</Time>
          <DistanceMeters>1210.8</DistanceMeters>
          <Cadence>15</Cadence>
          <SensorState>Present</SensorState>
          <Extensions>
            <TPX xmlns="https://www.garmin.com/xmlschemas/ActivityExtension/v2">
              <Watts>69</Watts>
            </TPX>
          </Extensions>
        </Trackpoint>
        <Trackpoint>
          <Time>2026-09-28T08:42:33Z</Time>
          <DistanceMeters>1223.3</DistanceMeters>
          <Cadence>14</Cadence>
          <SensorState>Present</SensorState>
          <Extensions>
            <TPX xmlns="https://www.garmin.com/xmlschemas/ActivityExtension/v2">
              <Watts>72</Watts>
            </TPX>
          </Extensions>
        </Trackpoint>
        <Trackpoint>
          <Time>2026-09-28T08:42:37Z</Time>
          <DistanceMeters>1235.5</DistanceMeters>
          <Cadence>14</Cadence>
          <SensorState>Present</SensorState>
          <Extensions>
            <TPX xmlns="https://www.garmin.com/xmlschemas/ActivityExtension/v2">
              <Watts>72</Watts>
            </TPX>
          </Extensions>
        </Trackpoint>
        <Trackpoint>
          <Time>2026-09-28T08:42:41Z</Time>
          <DistanceMeters>1247.3</DistanceMeters>
          <Cadence>14</Cadence>
          <SensorState>Present</SensorState>
          <Extensions>
            <TPX xmlns="https://www.garmin.com/xmlschemas/ActivityExtension/v2">
              <Watts>67</Watts>
            </TPX>
          </Extensions>
        </Trackpoint>
        <Trackpoint>
          <Time>2026-09-28T08:42:45Z</Time>
          <DistanceMeters>1258.4</DistanceMeters>
          <Cadence>15</Cadence>
          <SensorState>Present</SensorState>
          <Extensions>
            <TPX xmlns="https://www.garmin.com/xmlschemas/ActivityExtension/v2">
              <Watts>70</Watts>
            </TPX>
          </Extensions>
        </Trackpoint>
        <Trackpoint>
          <Time>2026-09-28T08:42:50Z</Time>
          <DistanceMeters>1272</DistanceMeters>
          <Cadence>13</Cadence>
          <SensorState>Present</SensorState>
          <Extensions>
            <TPX xmlns="https://www.garmin.com/xmlschemas/ActivityExtension/v2">
              <Watts>66</Watts>
            </TPX>
          </Extensions>
        </Trackpoint>
        <Trackpoint>
          <Time>2026-09-28T08:42:54Z</Time>
          <DistanceMeters>1283.6</DistanceMeters>
          <Cadence>13</Cadence>
          <SensorState>Present</SensorState>
          <Extensions>
            <TPX xmlns="https://www.garmin.com/xmlschemas/ActivityExtension/v2">
              <Watts>66</Watts>
            </TPX>
          </Extensions>
        </Trackpoint>
        <Trackpoint>
          <Time>2026-09-28T08:42:58Z</Time>
          <DistanceMeters>1297</DistanceMeters>
          <Cadence>14</Cadence>
          <SensorState>Present</SensorState>
          <Extensions>
            <TPX xmlns="https://www.garmin.com/xmlschemas/ActivityExtension/v2">
              <Watts>72</Watts>
            </TPX>
          </Extensions>
        </Trackpoint>
        <Trackpoint>
          <Time>2026-09-28T08:43:03Z</Time>
          <DistanceMeters>1310.9</DistanceMeters>
          <Cadence>12</Cadence>
          <SensorState>Present</SensorState>
          <Extensions>
            <TPX xmlns="https://www.garmin.com/xmlschemas/ActivityExtension/v2">
              <Watts>70</Watts>
            </TPX>
          </Extensions>
        </Trackpoint>
        <Trackpoint>
          <Time>2026-09-28T08:43:08Z</Time>
          <DistanceMeters>1323.9</DistanceMeters>
          <Cadence>13</Cadence>
          <SensorState>Present</SensorState>
          <Extensions>
            <TPX xmlns="https://www.garmin.com/xmlschemas/ActivityExtension/v2">
              <Watts>69</Watts>
            </TPX>
          </Extensions>
        </Trackpoint>
        <Trackpoint>
          <Time>2026-09-28T08:43:12Z</Time>
          <DistanceMeters>1336.4</DistanceMeters>
          <Cadence>13</Cadence>
          <SensorState>Present</SensorState>
          <Extensions>
            <TPX xmlns="https://www.garmin.com/xmlschemas/ActivityExtension/v2">
              <Watts>69</Watts>
            </TPX>
          </Extensions>
        </Trackpoint>
        <Trackpoint>
          <Time>2026-09-28T08:43:16Z</Time>
          <DistanceMeters>1349.6</DistanceMeters>
          <Cadence>14</Cadence>
          <SensorState>Present</SensorState>
          <Extensions>
            <TPX xmlns="https://www.garmin.com/xmlschemas/ActivityExtension/v2">
              <Watts>70</Watts>
            </TPX>
          </Extensions>
        </Trackpoint>
        <Trackpoint>
          <Time>2026-09-28T08:43:20Z</Time>
          <DistanceMeters>1361.4</DistanceMeters>
          <Cadence>14</Cadence>
          <SensorState>Present</SensorState>
          <Extensions>
            <TPX xmlns="https://www.garmin.com/xmlschemas/ActivityExtension/v2">
              <Watts>70</Watts>
            </TPX>
          </Extensions>
        </Trackpoint>
        <Trackpoint>
          <Time>2026-09-28T08:43:25Z</Time>
          <DistanceMeters>1374.8</DistanceMeters>
          <Cadence>14</Cadence>
          <SensorState>Present</SensorState>
          <Extensions>
            <TPX xmlns="https://www.garmin.com/xmlschemas/ActivityExtension/v2">
              <Watts>72</Watts>
            </TPX>
          </Extensions>
        </Trackpoint>
        <Trackpoint>
          <Time>2026-09-28T08:43:29Z</Time>
          <DistanceMeters>1387.9</DistanceMeters>
          <Cadence>13</Cadence>
          <SensorState>Present</SensorState>
          <Extensions>
            <TPX xmlns="https://www.garmin.com/xmlschemas/ActivityExtension/v2">
              <Watts>69</Watts>
            </TPX>
          </Extensions>
        </Trackpoint>
        <Trackpoint>
          <Time>2026-09-28T08:43:33Z</Time>
          <DistanceMeters>1399.7</DistanceMeters>
          <Cadence>15</Cadence>
          <SensorState>Present</SensorState>
          <Extensions>
            <TPX xmlns="https://www.garmin.com/xmlschemas/ActivityExtension/v2">
              <Watts>72</Watts>
            </TPX>
          </Extensions>
        </Trackpoint>
        <Trackpoint>
          <Time>2026-09-28T08:43:38Z</Time>
          <DistanceMeters>1412.6</DistanceMeters>
          <Cadence>14</Cadence>
          <SensorState>Present</SensorState>
          <Extensions>
            <TPX xmlns="https://www.garmin.com/xmlschemas/ActivityExtension/v2">
              <Watts>78</Watts>
            </TPX>
          </Extensions>
        </Trackpoint>
        <Trackpoint>
          <Time>2026-09-28T08:43:42Z</Time>
          <DistanceMeters>1426</DistanceMeters>
          <Cadence>14</Cadence>
          <SensorState>Present</SensorState>
          <Extensions>
            <TPX xmlns="https://www.garmin.com/xmlschemas/ActivityExtension/v2">
              <Watts>78</Watts>
            </TPX>
          </Extensions>
        </Trackpoint>
        <Trackpoint>
          <Time>2026-09-28T08:43:47Z</Time>
          <DistanceMeters>1439.4</DistanceMeters>
          <Cadence>14</Cadence>
          <SensorState>Present</SensorState>
          <Extensions>
            <TPX xmlns="https://www.garmin.com/xmlschemas/ActivityExtension/v2">
              <Watts>73</Watts>
            </TPX>
          </Extensions>
        </Trackpoint>
        <Trackpoint>
          <Time>2026-09-28T08:43:51Z</Time>
          <DistanceMeters>1451.5</DistanceMeters>
          <Cadence>15</Cadence>
          <SensorState>Present</SensorState>
          <Extensions>
            <TPX xmlns="https://www.garmin.com/xmlschemas/ActivityExtension/v2">
              <Watts>76</Watts>
            </TPX>
          </Extensions>
        </Trackpoint>
        <Trackpoint>
          <Time>2026-09-28T08:43:55Z</Time>
          <DistanceMeters>1463.5</DistanceMeters>
          <Cadence>15</Cadence>
          <SensorState>Present</SensorState>
          <Extensions>
            <TPX xmlns="https://www.garmin.com/xmlschemas/ActivityExtension/v2">
              <Watts>76</Watts>
            </TPX>
          </Extensions>
        </Trackpoint>
        <Trackpoint>
          <Time>2026-09-28T08:43:59Z</Time>
          <DistanceMeters>1475.4</DistanceMeters>
          <Cadence>15</Cadence>
          <SensorState>Present</SensorState>
          <Extensions>
            <TPX xmlns="https://www.garmin.com/xmlschemas/ActivityExtension/v2">
              <Watts>73</Watts>
            </TPX>
          </Extensions>
        </Trackpoint>
        <Trackpoint>
          <Time>2026-09-28T08:44:03Z</Time>
          <DistanceMeters>1488</DistanceMeters>
          <Cadence>14</Cadence>
          <SensorState>Present</SensorState>
          <Extensions>
            <TPX xmlns="https://www.garmin.com/xmlschemas/ActivityExtension/v2">
              <Watts>73</Watts>
            </TPX>
          </Extensions>
        </Trackpoint>
        <Trackpoint>
          <Time>2026-09-28T08:44:08Z</Time>
          <DistanceMeters>1501.9</DistanceMeters>
          <Cadence>14</Cadence>
          <SensorState>Present</SensorState>
          <Extensions>
            <TPX xmlns="https://www.garmin.com/xmlschemas/ActivityExtension/v2">
              <Watts>73</Watts>
            </TPX>
          </Extensions>
        </Trackpoint>
        <Trackpoint>
          <Time>2026-09-28T08:44:12Z</Time>
          <DistanceMeters>1513.5</DistanceMeters>
          <Cadence>15</Cadence>
          <SensorState>Present</SensorState>
          <Extensions>
            <TPX xmlns="https://www.garmin.com/xmlschemas/ActivityExtension/v2">
              <Watts>67</Watts>
            </TPX>
          </Extensions>
        </Trackpoint>
        <Trackpoint>
          <Time>2026-09-28T08:44:16Z</Time>
          <DistanceMeters>1524.8</DistanceMeters>
          <Cadence>16</Cadence>
          <SensorState>Present</SensorState>
          <Extensions>
            <TPX xmlns="https://www.garmin.com/xmlschemas/ActivityExtension/v2">
              <Watts>76</Watts>
            </TPX>
          </Extensions>
        </Trackpoint>
        <Trackpoint>
          <Time>2026-09-28T08:44:20Z</Time>
          <DistanceMeters>1536.5</DistanceMeters>
          <Cadence>16</Cadence>
          <SensorState>Present</SensorState>
          <Extensions>
            <TPX xmlns="https://www.garmin.com/xmlschemas/ActivityExtension/v2">
              <Watts>76</Watts>
            </TPX>
          </Extensions>
        </Trackpoint>
        <Trackpoint>
          <Time>2026-09-28T08:44:24Z</Time>
          <DistanceMeters>1548.6</DistanceMeters>
          <Cadence>16</Cadence>
          <SensorState>Present</SensorState>
          <Extensions>
            <TPX xmlns="https://www.garmin.com/xmlschemas/ActivityExtension/v2">
              <Watts>73</Watts>
            </TPX>
          </Extensions>
        </Trackpoint>
        <Trackpoint>
          <Time>2026-09-28T08:44:29Z</Time>
          <DistanceMeters>1563.4</DistanceMeters>
          <Cadence>11</Cadence>
          <SensorState>Present</SensorState>
          <Extensions>
            <TPX xmlns="https://www.garmin.com/xmlschemas/ActivityExtension/v2">
              <Watts>63</Watts>
            </TPX>
          </Extensions>
        </Trackpoint>
        <Trackpoint>
          <Time>2026-09-28T08:44:33Z</Time>
          <DistanceMeters>1575.2</DistanceMeters>
          <Cadence>15</Cadence>
          <SensorState>Present</SensorState>
          <Extensions>
            <TPX xmlns="https://www.garmin.com/xmlschemas/ActivityExtension/v2">
              <Watts>72</Watts>
            </TPX>
          </Extensions>
        </Trackpoint>
        <Trackpoint>
          <Time>2026-09-28T08:44:37Z</Time>
          <DistanceMeters>1587</DistanceMeters>
          <Cadence>14</Cadence>
          <SensorState>Present</SensorState>
          <Extensions>
            <TPX xmlns="https://www.garmin.com/xmlschemas/ActivityExtension/v2">
              <Watts>70</Watts>
            </TPX>
          </Extensions>
        </Trackpoint>
        <Trackpoint>
          <Time>2026-09-28T08:44:41Z</Time>
          <DistanceMeters>1599.5</DistanceMeters>
          <Cadence>14</Cadence>
          <SensorState>Present</SensorState>
          <Extensions>
            <TPX xmlns="https://www.garmin.com/xmlschemas/ActivityExtension/v2">
              <Watts>72</Watts>
            </TPX>
          </Extensions>
        </Trackpoint>
        <Trackpoint>
          <Time>2026-09-28T08:44:45Z</Time>
          <DistanceMeters>1610.8</DistanceMeters>
          <Cadence>14</Cadence>
          <SensorState>Present</SensorState>
          <Extensions>
            <TPX xmlns="https://www.garmin.com/xmlschemas/ActivityExtension/v2">
              <Watts>72</Watts>
            </TPX>
          </Extensions>
        </Trackpoint>
        <Trackpoint>
          <Time>2026-09-28T08:44:49Z</Time>
          <DistanceMeters>1622.2</DistanceMeters>
          <Cadence>15</Cadence>
          <SensorState>Present</SensorState>
          <Extensions>
            <TPX xmlns="https://www.garmin.com/xmlschemas/ActivityExtension/v2">
              <Watts>64</Watts>
            </TPX>
          </Extensions>
        </Trackpoint>
        <Trackpoint>
          <Time>2026-09-28T08:44:53Z</Time>
          <DistanceMeters>1633.5</DistanceMeters>
          <Cadence>15</Cadence>
          <SensorState>Present</SensorState>
          <Extensions>
            <TPX xmlns="https://www.garmin.com/xmlschemas/ActivityExtension/v2">
              <Watts>64</Watts>
            </TPX>
          </Extensions>
        </Trackpoint>
        <Trackpoint>
          <Time>2026-09-28T08:44:57Z</Time>
          <DistanceMeters>1644.4</DistanceMeters>
          <Cadence>16</Cadence>
          <SensorState>Present</SensorState>
          <Extensions>
            <TPX xmlns="https://www.garmin.com/xmlschemas/ActivityExtension/v2">
              <Watts>68</Watts>
            </TPX>
          </Extensions>
        </Trackpoint>
        <Trackpoint>
          <Time>2026-09-28T08:45:01Z</Time>
          <DistanceMeters>1655.9</DistanceMeters>
          <Cadence>16</Cadence>
          <SensorState>Present</SensorState>
          <Extensions>
            <TPX xmlns="https://www.garmin.com/xmlschemas/ActivityExtension/v2">
              <Watts>68</Watts>
            </TPX>
          </Extensions>
        </Trackpoint>
        <Trackpoint>
          <Time>2026-09-28T08:45:05Z</Time>
          <DistanceMeters>1668.8</DistanceMeters>
          <Cadence>14</Cadence>
          <SensorState>Present</SensorState>
          <Extensions>
            <TPX xmlns="https://www.garmin.com/xmlschemas/ActivityExtension/v2">
              <Watts>65</Watts>
            </TPX>
          </Extensions>
        </Trackpoint>
        <Trackpoint>
          <Time>2026-09-28T08:45:10Z</Time>
          <DistanceMeters>1681.4</DistanceMeters>
          <Cadence>14</Cadence>
          <SensorState>Present</SensorState>
          <Extensions>
            <TPX xmlns="https://www.garmin.com/xmlschemas/ActivityExtension/v2">
              <Watts>65</Watts>
            </TPX>
          </Extensions>
        </Trackpoint>
        <Trackpoint>
          <Time>2026-09-28T08:45:15Z</Time>
          <DistanceMeters>1695.5</DistanceMeters>
          <Cadence>13</Cadence>
          <SensorState>Present</SensorState>
          <Extensions>
            <TPX xmlns="https://www.garmin.com/xmlschemas/ActivityExtension/v2">
              <Watts>62</Watts>
            </TPX>
          </Extensions>
        </Trackpoint>
        <Trackpoint>
          <Time>2026-09-28T08:45:19Z</Time>
          <DistanceMeters>1707.6</DistanceMeters>
          <Cadence>14</Cadence>
          <SensorState>Present</SensorState>
          <Extensions>
            <TPX xmlns="https://www.garmin.com/xmlschemas/ActivityExtension/v2">
              <Watts>65</Watts>
            </TPX>
          </Extensions>
        </Trackpoint>
        <Trackpoint>
          <Time>2026-09-28T08:45:23Z</Time>
          <DistanceMeters>1719.3</DistanceMeters>
          <Cadence>14</Cadence>
          <SensorState>Present</SensorState>
          <Extensions>
            <TPX xmlns="https://www.garmin.com/xmlschemas/ActivityExtension/v2">
              <Watts>65</Watts>
            </TPX>
          </Extensions>
        </Trackpoint>
        <Trackpoint>
          <Time>2026-09-28T08:45:28Z</Time>
          <DistanceMeters>1733.2</DistanceMeters>
          <Cadence>13</Cadence>
          <SensorState>Present</SensorState>
          <Extensions>
            <TPX xmlns="https://www.garmin.com/xmlschemas/ActivityExtension/v2">
              <Watts>69</Watts>
            </TPX>
          </Extensions>
        </Trackpoint>
        <Trackpoint>
          <Time>2026-09-28T08:45:32Z</Time>
          <DistanceMeters>1745.3</DistanceMeters>
          <Cadence>13</Cadence>
          <SensorState>Present</SensorState>
          <Extensions>
            <TPX xmlns="https://www.garmin.com/xmlschemas/ActivityExtension/v2">
              <Watts>69</Watts>
            </TPX>
          </Extensions>
        </Trackpoint>
        <Trackpoint>
          <Time>2026-09-28T08:45:37Z</Time>
          <DistanceMeters>1759</DistanceMeters>
          <Cadence>13</Cadence>
          <SensorState>Present</SensorState>
          <Extensions>
            <TPX xmlns="https://www.garmin.com/xmlschemas/ActivityExtension/v2">
              <Watts>64</Watts>
            </TPX>
          </Extensions>
        </Trackpoint>
        <Trackpoint>
          <Time>2026-09-28T08:45:41Z</Time>
          <DistanceMeters>1770.9</DistanceMeters>
          <Cadence>14</Cadence>
          <SensorState>Present</SensorState>
          <Extensions>
            <TPX xmlns="https://www.garmin.com/xmlschemas/ActivityExtension/v2">
              <Watts>62</Watts>
            </TPX>
          </Extensions>
        </Trackpoint>
        <Trackpoint>
          <Time>2026-09-28T08:45:46Z</Time>
          <DistanceMeters>1783.3</DistanceMeters>
          <Cadence>14</Cadence>
          <SensorState>Present</SensorState>
          <Extensions>
            <TPX xmlns="https://www.garmin.com/xmlschemas/ActivityExtension/v2">
              <Watts>67</Watts>
            </TPX>
          </Extensions>
        </Trackpoint>
        <Trackpoint>
          <Time>2026-09-28T08:45:50Z</Time>
          <DistanceMeters>1795.3</DistanceMeters>
          <Cadence>14</Cadence>
          <SensorState>Present</SensorState>
          <Extensions>
            <TPX xmlns="https://www.garmin.com/xmlschemas/ActivityExtension/v2">
              <Watts>67</Watts>
            </TPX>
          </Extensions>
        </Trackpoint>
        <Trackpoint>
          <Time>2026-09-28T08:45:54Z</Time>
          <DistanceMeters>1808.1</DistanceMeters>
          <Cadence>13</Cadence>
          <SensorState>Present</SensorState>
          <Extensions>
            <TPX xmlns="https://www.garmin.com/xmlschemas/ActivityExtension/v2">
              <Watts>63</Watts>
            </TPX>
          </Extensions>
        </Trackpoint>
        <Trackpoint>
          <Time>2026-09-28T08:45:59Z</Time>
          <DistanceMeters>1820.2</DistanceMeters>
          <Cadence>14</Cadence>
          <SensorState>Present</SensorState>
          <Extensions>
            <TPX xmlns="https://www.garmin.com/xmlschemas/ActivityExtension/v2">
              <Watts>64</Watts>
            </TPX>
          </Extensions>
        </Trackpoint>
        <Trackpoint>
          <Time>2026-09-28T08:46:02Z</Time>
          <DistanceMeters>1830.4</DistanceMeters>
          <Cadence>17</Cadence>
          <SensorState>Present</SensorState>
          <Extensions>
            <TPX xmlns="https://www.garmin.com/xmlschemas/ActivityExtension/v2">
              <Watts>70</Watts>
            </TPX>
          </Extensions>
        </Trackpoint>
        <Trackpoint>
          <Time>2026-09-28T08:46:06Z</Time>
          <DistanceMeters>1842.8</DistanceMeters>
          <Cadence>14</Cadence>
          <SensorState>Present</SensorState>
          <Extensions>
            <TPX xmlns="https://www.garmin.com/xmlschemas/ActivityExtension/v2">
              <Watts>68</Watts>
            </TPX>
          </Extensions>
        </Trackpoint>
        <Trackpoint>
          <Time>2026-09-28T08:46:10Z</Time>
          <DistanceMeters>1853.6</DistanceMeters>
          <Cadence>16</Cadence>
          <SensorState>Present</SensorState>
          <Extensions>
            <TPX xmlns="https://www.garmin.com/xmlschemas/ActivityExtension/v2">
              <Watts>68</Watts>
            </TPX>
          </Extensions>
        </Trackpoint>
        <Trackpoint>
          <Time>2026-09-28T08:46:14Z</Time>
          <DistanceMeters>1865.4</DistanceMeters>
          <Cadence>16</Cadence>
          <SensorState>Present</SensorState>
          <Extensions>
            <TPX xmlns="https://www.garmin.com/xmlschemas/ActivityExtension/v2">
              <Watts>68</Watts>
            </TPX>
          </Extensions>
        </Trackpoint>
        <Trackpoint>
          <Time>2026-09-28T08:46:18Z</Time>
          <DistanceMeters>1876.2</DistanceMeters>
          <Cadence>17</Cadence>
          <SensorState>Present</SensorState>
          <Extensions>
            <TPX xmlns="https://www.garmin.com/xmlschemas/ActivityExtension/v2">
              <Watts>66</Watts>
            </TPX>
          </Extensions>
        </Trackpoint>
        <Trackpoint>
          <Time>2026-09-28T08:46:22Z</Time>
          <DistanceMeters>1887.9</DistanceMeters>
          <Cadence>15</Cadence>
          <SensorState>Present</SensorState>
          <Extensions>
            <TPX xmlns="https://www.garmin.com/xmlschemas/ActivityExtension/v2">
              <Watts>70</Watts>
            </TPX>
          </Extensions>
        </Trackpoint>
        <Trackpoint>
          <Time>2026-09-28T08:46:26Z</Time>
          <DistanceMeters>1899.2</DistanceMeters>
          <Cadence>16</Cadence>
          <SensorState>Present</SensorState>
          <Extensions>
            <TPX xmlns="https://www.garmin.com/xmlschemas/ActivityExtension/v2">
              <Watts>75</Watts>
            </TPX>
          </Extensions>
        </Trackpoint>
        <Trackpoint>
          <Time>2026-09-28T08:46:30Z</Time>
          <DistanceMeters>1911.7</DistanceMeters>
          <Cadence>14</Cadence>
          <SensorState>Present</SensorState>
          <Extensions>
            <TPX xmlns="https://www.garmin.com/xmlschemas/ActivityExtension/v2">
              <Watts>72</Watts>
            </TPX>
          </Extensions>
        </Trackpoint>
        <Trackpoint>
          <Time>2026-09-28T08:46:34Z</Time>
          <DistanceMeters>1924.3</DistanceMeters>
          <Cadence>14</Cadence>
          <SensorState>Present</SensorState>
          <Extensions>
            <TPX xmlns="https://www.garmin.com/xmlschemas/ActivityExtension/v2">
              <Watts>71</Watts>
            </TPX>
          </Extensions>
        </Trackpoint>
        <Trackpoint>
          <Time>2026-09-28T08:46:39Z</Time>
          <DistanceMeters>1937.9</DistanceMeters>
          <Cadence>14</Cadence>
          <SensorState>Present</SensorState>
          <Extensions>
            <TPX xmlns="https://www.garmin.com/xmlschemas/ActivityExtension/v2">
              <Watts>71</Watts>
            </TPX>
          </Extensions>
        </Trackpoint>
        <Trackpoint>
          <Time>2026-09-28T08:46:43Z</Time>
          <DistanceMeters>1949</DistanceMeters>
          <Cadence>12</Cadence>
          <SensorState>Present</SensorState>
          <Extensions>
            <TPX xmlns="https://www.garmin.com/xmlschemas/ActivityExtension/v2">
              <Watts>67</Watts>
            </TPX>
          </Extensions>
        </Trackpoint>
        <Trackpoint>
          <Time>2026-09-28T08:46:48Z</Time>
          <DistanceMeters>1963.7</DistanceMeters>
          <Cadence>12</Cadence>
          <SensorState>Present</SensorState>
          <Extensions>
            <TPX xmlns="https://www.garmin.com/xmlschemas/ActivityExtension/v2">
              <Watts>69</Watts>
            </TPX>
          </Extensions>
        </Trackpoint>
        <Trackpoint>
          <Time>2026-09-28T08:46:52Z</Time>
          <DistanceMeters>1975.5</DistanceMeters>
          <Cadence>15</Cadence>
          <SensorState>Present</SensorState>
          <Extensions>
            <TPX xmlns="https://www.garmin.com/xmlschemas/ActivityExtension/v2">
              <Watts>71</Watts>
            </TPX>
          </Extensions>
        </Trackpoint>
        <Trackpoint>
          <Time>2026-09-28T08:46:57Z</Time>
          <DistanceMeters>1989.4</DistanceMeters>
          <Cadence>12</Cadence>
          <SensorState>Present</SensorState>
          <Extensions>
            <TPX xmlns="https://www.garmin.com/xmlschemas/ActivityExtension/v2">
              <Watts>61</Watts>
            </TPX>
          </Extensions>
        </Trackpoint>
      </Track>
    </Lap>
  <Creator xsi:type="Device_t">
    <Name>Concept2</Name>
    <ProductID>5</ProductID>
    <Version>
      <VersionMajor>1</VersionMajor>
      <VersionMinor>0</VersionMinor>
      <BuildMajor>1</BuildMajor>
      <BuildMinor>0</BuildMinor>
    </Version>
  </Creator>
</Activity>
</Activities>
<Author xsi:type="Application_t">
  <Name></Name>
  <Build>
    <Version>
      <VersionMajor>1</VersionMajor>
      <VersionMinor>0</VersionMinor>
      <BuildMajor>1</BuildMajor>
      <BuildMinor>0</BuildMinor>
    </Version>
  </Build>
  <LangID>en</LangID>
</Author>
</TrainingCenterDatabase>
