<?xml version="1.0" encoding="utf-8"?><TrainingCenterDatabase
xsi:schemaLocation="https://www.garmin.com/xmlschemas/TrainingCenterDatabase/v2 https://www.garmin.com/xmlschemas/TrainingCenterDatabasev2.xsd"
xmlns:ns5="https://www.garmin.com/xmlschemas/ActivityGoals/v1"
xmlns:ns3="https://www.garmin.com/xmlschemas/ActivityExtension/v2"
xmlns:ns2="https://www.garmin.com/xmlschemas/UserProfile/v2"
xmlns="https://www.garmin.com/xmlschemas/TrainingCenterDatabase/v2"
xmlns:xsi="https://www.w3.org/2001/XMLSchema-instance" xmlns:ns4="https://www.garmin.com/xmlschemas/ProfileExtension/v1">
<Activities>
<Activity Sport="Other">
  <Id>2026-05-12T11:41:39Z</Id>
    <Lap StartTime="2026-05-12T11:41:39Z ">
      <TotalTimeSeconds>441.6</TotalTimeSeconds>
      <DistanceMeters>1000</DistanceMeters>
      <MaximumSpeed>2.51</MaximumSpeed>
      <Calories>50</Calories>
      <Intensity>Active</Intensity>
      <TriggerMethod>Manual</TriggerMethod>
      <Track>
        <Trackpoint>
          <Time>2026-05-12T11:41:39Z</Time>
          <DistanceMeters>0.8</DistanceMeters>
          <Cadence>0</Cadence>
          <SensorState>Present</SensorState>
          <Extensions>
            <TPX xmlns="https://www.garmin.com/xmlschemas/ActivityExtension/v2">
              <Watts></Watts>
            </TPX>
          </Extensions>
        </Trackpoint>
        <Trackpoint>
          <Time>2026-05-12T11:41:43Z</Time>
          <DistanceMeters>6.6</DistanceMeters>
          <Cadence>17</Cadence>
          <SensorState>Present</SensorState>
          <Extensions>
            <TPX xmlns="https://www.garmin.com/xmlschemas/ActivityExtension/v2">
              <Watts>8</Watts>
            </TPX>
          </Extensions>
        </Trackpoint>
        <Trackpoint>
          <Time>2026-05-12T11:41:46Z</Time>
          <DistanceMeters>11.2</DistanceMeters>
          <Cadence>17</Cadence>
          <SensorState>Present</SensorState>
          <Extensions>
            <TPX xmlns="https://www.garmin.com/xmlschemas/ActivityExtension/v2">
              <Watts>8</Watts>
            </TPX>
          </Extensions>
        </Trackpoint>
        <Trackpoint>
          <Time>2026-05-12T11:41:50Z</Time>
          <DistanceMeters>18.7</DistanceMeters>
          <Cadence>17</Cadence>
          <SensorState>Present</SensorState>
          <HeartRateBpm>
            <Value>222</Value>
          </HeartRateBpm>
          <Extensions>
            <TPX xmlns="https://www.garmin.com/xmlschemas/ActivityExtension/v2">
              <Watts>12</Watts>
            </TPX>
          </Extensions>
        </Trackpoint>
        <Trackpoint>
          <Time>2026-05-12T11:41:53Z</Time>
          <DistanceMeters>24.5</DistanceMeters>
          <Cadence>17</Cadence>
          <SensorState>Present</SensorState>
          <HeartRateBpm>
            <Value>212</Value>
          </HeartRateBpm>
          <Extensions>
            <TPX xmlns="https://www.garmin.com/xmlschemas/ActivityExtension/v2">
              <Watts>18</Watts>
            </TPX>
          </Extensions>
        </Trackpoint>
        <Trackpoint>
          <Time>2026-05-12T11:41:57Z</Time>
          <DistanceMeters>32.6</DistanceMeters>
          <Cadence>17</Cadence>
          <SensorState>Present</SensorState>
          <HeartRateBpm>
            <Value>212</Value>
          </HeartRateBpm>
          <Extensions>
            <TPX xmlns="https://www.garmin.com/xmlschemas/ActivityExtension/v2">
              <Watts>21</Watts>
            </TPX>
          </Extensions>
        </Trackpoint>
        <Trackpoint>
          <Time>2026-05-12T11:42:01Z</Time>
          <DistanceMeters>41</DistanceMeters>
          <Cadence>16</Cadence>
          <SensorState>Present</SensorState>
          <HeartRateBpm>
            <Value>155</Value>
          </HeartRateBpm>
          <Extensions>
            <TPX xmlns="https://www.garmin.com/xmlschemas/ActivityExtension/v2">
              <Watts>26</Watts>
            </TPX>
          </Extensions>
        </Trackpoint>
        <Trackpoint>
          <Time>2026-05-12T11:42:04Z</Time>
          <DistanceMeters>47.3</DistanceMeters>
          <Cadence>16</Cadence>
          <SensorState>Present</SensorState>
          <HeartRateBpm>
            <Value>130</Value>
          </HeartRateBpm>
          <Extensions>
            <TPX xmlns="https://www.garmin.com/xmlschemas/ActivityExtension/v2">
              <Watts>26</Watts>
            </TPX>
          </Extensions>
        </Trackpoint>
        <Trackpoint>
          <Time>2026-05-12T11:42:08Z</Time>
          <DistanceMeters>55.9</DistanceMeters>
          <Cadence>17</Cadence>
          <SensorState>Present</SensorState>
          <HeartRateBpm>
            <Value>130</Value>
          </HeartRateBpm>
          <Extensions>
            <TPX xmlns="https://www.garmin.com/xmlschemas/ActivityExtension/v2">
              <Watts>27</Watts>
            </TPX>
          </Extensions>
        </Trackpoint>
        <Trackpoint>
          <Time>2026-05-12T11:42:11Z</Time>
          <DistanceMeters>62.5</DistanceMeters>
          <Cadence>15</Cadence>
          <SensorState>Present</SensorState>
          <HeartRateBpm>
            <Value>127</Value>
          </HeartRateBpm>
          <Extensions>
            <TPX xmlns="https://www.garmin.com/xmlschemas/ActivityExtension/v2">
              <Watts>28</Watts>
            </TPX>
          </Extensions>
        </Trackpoint>
        <Trackpoint>
          <Time>2026-05-12T11:42:15Z</Time>
          <DistanceMeters>71.2</DistanceMeters>
          <Cadence>18</Cadence>
          <SensorState>Present</SensorState>
          <HeartRateBpm>
            <Value>116</Value>
          </HeartRateBpm>
          <Extensions>
            <TPX xmlns="https://www.garmin.com/xmlschemas/ActivityExtension/v2">
              <Watts>29</Watts>
            </TPX>
          </Extensions>
        </Trackpoint>
        <Trackpoint>
          <Time>2026-05-12T11:42:19Z</Time>
          <DistanceMeters>80.2</DistanceMeters>
          <Cadence>17</Cadence>
          <SensorState>Present</SensorState>
          <HeartRateBpm>
            <Value>113</Value>
          </HeartRateBpm>
          <Extensions>
            <TPX xmlns="https://www.garmin.com/xmlschemas/ActivityExtension/v2">
              <Watts>30</Watts>
            </TPX>
          </Extensions>
        </Trackpoint>
        <Trackpoint>
          <Time>2026-05-12T11:42:22Z</Time>
          <DistanceMeters>86.7</DistanceMeters>
          <Cadence>17</Cadence>
          <SensorState>Present</SensorState>
          <HeartRateBpm>
            <Value>110</Value>
          </HeartRateBpm>
          <Extensions>
            <TPX xmlns="https://www.garmin.com/xmlschemas/ActivityExtension/v2">
              <Watts>30</Watts>
            </TPX>
          </Extensions>
        </Trackpoint>
        <Trackpoint>
          <Time>2026-05-12T11:42:26Z</Time>
          <DistanceMeters>95.6</DistanceMeters>
          <Cadence>17</Cadence>
          <SensorState>Present</SensorState>
          <HeartRateBpm>
            <Value>109</Value>
          </HeartRateBpm>
          <Extensions>
            <TPX xmlns="https://www.garmin.com/xmlschemas/ActivityExtension/v2">
              <Watts>30</Watts>
            </TPX>
          </Extensions>
        </Trackpoint>
        <Trackpoint>
          <Time>2026-05-12T11:42:29Z</Time>
          <DistanceMeters>102.3</DistanceMeters>
          <Cadence>17</Cadence>
          <SensorState>Present</SensorState>
          <HeartRateBpm>
            <Value>108</Value>
          </HeartRateBpm>
          <Extensions>
            <TPX xmlns="https://www.garmin.com/xmlschemas/ActivityExtension/v2">
              <Watts>31</Watts>
            </TPX>
          </Extensions>
        </Trackpoint>
        <Trackpoint>
          <Time>2026-05-12T11:42:33Z</Time>
          <DistanceMeters>111.3</DistanceMeters>
          <Cadence>17</Cadence>
          <SensorState>Present</SensorState>
          <HeartRateBpm>
            <Value>108</Value>
          </HeartRateBpm>
          <Extensions>
            <TPX xmlns="https://www.garmin.com/xmlschemas/ActivityExtension/v2">
              <Watts>30</Watts>
            </TPX>
          </Extensions>
        </Trackpoint>
        <Trackpoint>
          <Time>2026-05-12T11:42:36Z</Time>
          <DistanceMeters>118.1</DistanceMeters>
          <Cadence>18</Cadence>
          <SensorState>Present</SensorState>
          <HeartRateBpm>
            <Value>107</Value>
          </HeartRateBpm>
          <Extensions>
            <TPX xmlns="https://www.garmin.com/xmlschemas/ActivityExtension/v2">
              <Watts>32</Watts>
            </TPX>
          </Extensions>
        </Trackpoint>
        <Trackpoint>
          <Time>2026-05-12T11:42:39Z</Time>
          <DistanceMeters>124.8</DistanceMeters>
          <Cadence>18</Cadence>
          <SensorState>Present</SensorState>
          <HeartRateBpm>
            <Value>117</Value>
          </HeartRateBpm>
          <Extensions>
            <TPX xmlns="https://www.garmin.com/xmlschemas/ActivityExtension/v2">
              <Watts>32</Watts>
            </TPX>
          </Extensions>
        </Trackpoint>
        <Trackpoint>
          <Time>2026-05-12T11:42:43Z</Time>
          <DistanceMeters>134.1</DistanceMeters>
          <Cadence>18</Cadence>
          <SensorState>Present</SensorState>
          <HeartRateBpm>
            <Value>125</Value>
          </HeartRateBpm>
          <Extensions>
            <TPX xmlns="https://www.garmin.com/xmlschemas/ActivityExtension/v2">
              <Watts>33</Watts>
            </TPX>
          </Extensions>
        </Trackpoint>
        <Trackpoint>
          <Time>2026-05-12T11:42:46Z</Time>
          <DistanceMeters>141</DistanceMeters>
          <Cadence>18</Cadence>
          <SensorState>Present</SensorState>
          <HeartRateBpm>
            <Value>125</Value>
          </HeartRateBpm>
          <Extensions>
            <TPX xmlns="https://www.garmin.com/xmlschemas/ActivityExtension/v2">
              <Watts>33</Watts>
            </TPX>
          </Extensions>
        </Trackpoint>
        <Trackpoint>
          <Time>2026-05-12T11:42:49Z</Time>
          <DistanceMeters>147.9</DistanceMeters>
          <Cadence>18</Cadence>
          <SensorState>Present</SensorState>
          <HeartRateBpm>
            <Value>123</Value>
          </HeartRateBpm>
          <Extensions>
            <TPX xmlns="https://www.garmin.com/xmlschemas/ActivityExtension/v2">
              <Watts>35</Watts>
            </TPX>
          </Extensions>
        </Trackpoint>
        <Trackpoint>
          <Time>2026-05-12T11:42:53Z</Time>
          <DistanceMeters>157.1</DistanceMeters>
          <Cadence>18</Cadence>
          <SensorState>Present</SensorState>
          <HeartRateBpm>
            <Value>123</Value>
          </HeartRateBpm>
          <Extensions>
            <TPX xmlns="https://www.garmin.com/xmlschemas/ActivityExtension/v2">
              <Watts>34</Watts>
            </TPX>
          </Extensions>
        </Trackpoint>
        <Trackpoint>
          <Time>2026-05-12T11:42:56Z</Time>
          <DistanceMeters>164</DistanceMeters>
          <Cadence>17</Cadence>
          <SensorState>Present</SensorState>
          <HeartRateBpm>
            <Value>147</Value>
          </HeartRateBpm>
          <Extensions>
            <TPX xmlns="https://www.garmin.com/xmlschemas/ActivityExtension/v2">
              <Watts>34</Watts>
            </TPX>
          </Extensions>
        </Trackpoint>
        <Trackpoint>
          <Time>2026-05-12T11:43:00Z</Time>
          <DistanceMeters>173.3</DistanceMeters>
          <Cadence>18</Cadence>
          <SensorState>Present</SensorState>
          <HeartRateBpm>
            <Value>163</Value>
          </HeartRateBpm>
          <Extensions>
            <TPX xmlns="https://www.garmin.com/xmlschemas/ActivityExtension/v2">
              <Watts>34</Watts>
            </TPX>
          </Extensions>
        </Trackpoint>
        <Trackpoint>
          <Time>2026-05-12T11:43:03Z</Time>
          <DistanceMeters>180.1</DistanceMeters>
          <Cadence>18</Cadence>
          <SensorState>Present</SensorState>
          <HeartRateBpm>
            <Value>165</Value>
          </HeartRateBpm>
          <Extensions>
            <TPX xmlns="https://www.garmin.com/xmlschemas/ActivityExtension/v2">
              <Watts>34</Watts>
            </TPX>
          </Extensions>
        </Trackpoint>
        <Trackpoint>
          <Time>2026-05-12T11:43:06Z</Time>
          <DistanceMeters>187</DistanceMeters>
          <Cadence>18</Cadence>
          <SensorState>Present</SensorState>
          <HeartRateBpm>
            <Value>165</Value>
          </HeartRateBpm>
          <Extensions>
            <TPX xmlns="https://www.garmin.com/xmlschemas/ActivityExtension/v2">
              <Watts>34</Watts>
            </TPX>
          </Extensions>
        </Trackpoint>
        <Trackpoint>
          <Time>2026-05-12T11:43:10Z</Time>
          <DistanceMeters>196.2</DistanceMeters>
          <Cadence>17</Cadence>
          <SensorState>Present</SensorState>
          <HeartRateBpm>
            <Value>151</Value>
          </HeartRateBpm>
          <Extensions>
            <TPX xmlns="https://www.garmin.com/xmlschemas/ActivityExtension/v2">
              <Watts>33</Watts>
            </TPX>
          </Extensions>
        </Trackpoint>
        <Trackpoint>
          <Time>2026-05-12T11:43:13Z</Time>
          <DistanceMeters>203.1</DistanceMeters>
          <Cadence>18</Cadence>
          <SensorState>Present</SensorState>
          <HeartRateBpm>
            <Value>151</Value>
          </HeartRateBpm>
          <Extensions>
            <TPX xmlns="https://www.garmin.com/xmlschemas/ActivityExtension/v2">
              <Watts>34</Watts>
            </TPX>
          </Extensions>
        </Trackpoint>
        <Trackpoint>
          <Time>2026-05-12T11:43:17Z</Time>
          <DistanceMeters>212.5</DistanceMeters>
          <Cadence>17</Cadence>
          <SensorState>Present</SensorState>
          <HeartRateBpm>
            <Value>147</Value>
          </HeartRateBpm>
          <Extensions>
            <TPX xmlns="https://www.garmin.com/xmlschemas/ActivityExtension/v2">
              <Watts>35</Watts>
            </TPX>
          </Extensions>
        </Trackpoint>
        <Trackpoint>
          <Time>2026-05-12T11:43:20Z</Time>
          <DistanceMeters>219.3</DistanceMeters>
          <Cadence>18</Cadence>
          <SensorState>Present</SensorState>
          <HeartRateBpm>
            <Value>133</Value>
          </HeartRateBpm>
          <Extensions>
            <TPX xmlns="https://www.garmin.com/xmlschemas/ActivityExtension/v2">
              <Watts>36</Watts>
            </TPX>
          </Extensions>
        </Trackpoint>
        <Trackpoint>
          <Time>2026-05-12T11:43:24Z</Time>
          <DistanceMeters>228.1</DistanceMeters>
          <Cadence>17</Cadence>
          <SensorState>Present</SensorState>
          <HeartRateBpm>
            <Value>114</Value>
          </HeartRateBpm>
          <Extensions>
            <TPX xmlns="https://www.garmin.com/xmlschemas/ActivityExtension/v2">
              <Watts>33</Watts>
            </TPX>
          </Extensions>
        </Trackpoint>
        <Trackpoint>
          <Time>2026-05-12T11:43:27Z</Time>
          <DistanceMeters>234.5</DistanceMeters>
          <Cadence>16</Cadence>
          <SensorState>Present</SensorState>
          <HeartRateBpm>
            <Value>109</Value>
          </HeartRateBpm>
          <Extensions>
            <TPX xmlns="https://www.garmin.com/xmlschemas/ActivityExtension/v2">
              <Watts>30</Watts>
            </TPX>
          </Extensions>
        </Trackpoint>
        <Trackpoint>
          <Time>2026-05-12T11:43:31Z</Time>
          <DistanceMeters>242.9</DistanceMeters>
          <Cadence>18</Cadence>
          <SensorState>Present</SensorState>
          <HeartRateBpm>
            <Value>103</Value>
          </HeartRateBpm>
          <Extensions>
            <TPX xmlns="https://www.garmin.com/xmlschemas/ActivityExtension/v2">
              <Watts>27</Watts>
            </TPX>
          </Extensions>
        </Trackpoint>
        <Trackpoint>
          <Time>2026-05-12T11:43:35Z</Time>
          <DistanceMeters>251.3</DistanceMeters>
          <Cadence>16</Cadence>
          <SensorState>Present</SensorState>
          <HeartRateBpm>
            <Value>109</Value>
          </HeartRateBpm>
          <Extensions>
            <TPX xmlns="https://www.garmin.com/xmlschemas/ActivityExtension/v2">
              <Watts>25</Watts>
            </TPX>
          </Extensions>
        </Trackpoint>
        <Trackpoint>
          <Time>2026-05-12T11:43:38Z</Time>
          <DistanceMeters>257.4</DistanceMeters>
          <Cadence>17</Cadence>
          <SensorState>Present</SensorState>
          <HeartRateBpm>
            <Value>105</Value>
          </HeartRateBpm>
          <Extensions>
            <TPX xmlns="https://www.garmin.com/xmlschemas/ActivityExtension/v2">
              <Watts>25</Watts>
            </TPX>
          </Extensions>
        </Trackpoint>
        <Trackpoint>
          <Time>2026-05-12T11:43:42Z</Time>
          <DistanceMeters>266</DistanceMeters>
          <Cadence>17</Cadence>
          <SensorState>Present</SensorState>
          <HeartRateBpm>
            <Value>105</Value>
          </HeartRateBpm>
          <Extensions>
            <TPX xmlns="https://www.garmin.com/xmlschemas/ActivityExtension/v2">
              <Watts>25</Watts>
            </TPX>
          </Extensions>
        </Trackpoint>
        <Trackpoint>
          <Time>2026-05-12T11:43:46Z</Time>
          <DistanceMeters>274.4</DistanceMeters>
          <Cadence>16</Cadence>
          <SensorState>Present</SensorState>
          <HeartRateBpm>
            <Value>104</Value>
          </HeartRateBpm>
          <Extensions>
            <TPX xmlns="https://www.garmin.com/xmlschemas/ActivityExtension/v2">
              <Watts>27</Watts>
            </TPX>
          </Extensions>
        </Trackpoint>
        <Trackpoint>
          <Time>2026-05-12T11:43:50Z</Time>
          <DistanceMeters>282.6</DistanceMeters>
          <Cadence>14</Cadence>
          <SensorState>Present</SensorState>
          <HeartRateBpm>
            <Value>102</Value>
          </HeartRateBpm>
          <Extensions>
            <TPX xmlns="https://www.garmin.com/xmlschemas/ActivityExtension/v2">
              <Watts>26</Watts>
            </TPX>
          </Extensions>
        </Trackpoint>
        <Trackpoint>
          <Time>2026-05-12T11:43:54Z</Time>
          <DistanceMeters>291</DistanceMeters>
          <Cadence>18</Cadence>
          <SensorState>Present</SensorState>
          <HeartRateBpm>
            <Value>102</Value>
          </HeartRateBpm>
          <Extensions>
            <TPX xmlns="https://www.garmin.com/xmlschemas/ActivityExtension/v2">
              <Watts>26</Watts>
            </TPX>
          </Extensions>
        </Trackpoint>
        <Trackpoint>
          <Time>2026-05-12T11:43:57Z</Time>
          <DistanceMeters>297.2</DistanceMeters>
          <Cadence>18</Cadence>
          <SensorState>Present</SensorState>
          <HeartRateBpm>
            <Value>102</Value>
          </HeartRateBpm>
          <Extensions>
            <TPX xmlns="https://www.garmin.com/xmlschemas/ActivityExtension/v2">
              <Watts>26</Watts>
            </TPX>
          </Extensions>
        </Trackpoint>
        <Trackpoint>
          <Time>2026-05-12T11:44:01Z</Time>
          <DistanceMeters>305.6</DistanceMeters>
          <Cadence>16</Cadence>
          <SensorState>Present</SensorState>
          <HeartRateBpm>
            <Value>101</Value>
          </HeartRateBpm>
          <Extensions>
            <TPX xmlns="https://www.garmin.com/xmlschemas/ActivityExtension/v2">
              <Watts>25</Watts>
            </TPX>
          </Extensions>
        </Trackpoint>
        <Trackpoint>
          <Time>2026-05-12T11:44:04Z</Time>
          <DistanceMeters>312</DistanceMeters>
          <Cadence>17</Cadence>
          <SensorState>Present</SensorState>
          <HeartRateBpm>
            <Value>101</Value>
          </HeartRateBpm>
          <Extensions>
            <TPX xmlns="https://www.garmin.com/xmlschemas/ActivityExtension/v2">
              <Watts>26</Watts>
            </TPX>
          </Extensions>
        </Trackpoint>
        <Trackpoint>
          <Time>2026-05-12T11:44:08Z</Time>
          <DistanceMeters>320.9</DistanceMeters>
          <Cadence>17</Cadence>
          <SensorState>Present</SensorState>
          <HeartRateBpm>
            <Value>112</Value>
          </HeartRateBpm>
          <Extensions>
            <TPX xmlns="https://www.garmin.com/xmlschemas/ActivityExtension/v2">
              <Watts>29</Watts>
            </TPX>
          </Extensions>
        </Trackpoint>
        <Trackpoint>
          <Time>2026-05-12T11:44:11Z</Time>
          <DistanceMeters>327.4</DistanceMeters>
          <Cadence>17</Cadence>
          <SensorState>Present</SensorState>
          <HeartRateBpm>
            <Value>112</Value>
          </HeartRateBpm>
          <Extensions>
            <TPX xmlns="https://www.garmin.com/xmlschemas/ActivityExtension/v2">
              <Watts>29</Watts>
            </TPX>
          </Extensions>
        </Trackpoint>
        <Trackpoint>
          <Time>2026-05-12T11:44:15Z</Time>
          <DistanceMeters>336.1</DistanceMeters>
          <Cadence>17</Cadence>
          <SensorState>Present</SensorState>
          <HeartRateBpm>
            <Value>112</Value>
          </HeartRateBpm>
          <Extensions>
            <TPX xmlns="https://www.garmin.com/xmlschemas/ActivityExtension/v2">
              <Watts>28</Watts>
            </TPX>
          </Extensions>
        </Trackpoint>
        <Trackpoint>
          <Time>2026-05-12T11:44:18Z</Time>
          <DistanceMeters>342.8</DistanceMeters>
          <Cadence>17</Cadence>
          <SensorState>Present</SensorState>
          <HeartRateBpm>
            <Value>112</Value>
          </HeartRateBpm>
          <Extensions>
            <TPX xmlns="https://www.garmin.com/xmlschemas/ActivityExtension/v2">
              <Watts>29</Watts>
            </TPX>
          </Extensions>
        </Trackpoint>
        <Trackpoint>
          <Time>2026-05-12T11:44:22Z</Time>
          <DistanceMeters>351.8</DistanceMeters>
          <Cadence>17</Cadence>
          <SensorState>Present</SensorState>
          <HeartRateBpm>
            <Value>112</Value>
          </HeartRateBpm>
          <Extensions>
            <TPX xmlns="https://www.garmin.com/xmlschemas/ActivityExtension/v2">
              <Watts>31</Watts>
            </TPX>
          </Extensions>
        </Trackpoint>
        <Trackpoint>
          <Time>2026-05-12T11:44:25Z</Time>
          <DistanceMeters>358.5</DistanceMeters>
          <Cadence>18</Cadence>
          <SensorState>Present</SensorState>
          <HeartRateBpm>
            <Value>111</Value>
          </HeartRateBpm>
          <Extensions>
            <TPX xmlns="https://www.garmin.com/xmlschemas/ActivityExtension/v2">
              <Watts>31</Watts>
            </TPX>
          </Extensions>
        </Trackpoint>
        <Trackpoint>
          <Time>2026-05-12T11:44:29Z</Time>
          <DistanceMeters>367.5</DistanceMeters>
          <Cadence>17</Cadence>
          <SensorState>Present</SensorState>
          <HeartRateBpm>
            <Value>111</Value>
          </HeartRateBpm>
          <Extensions>
            <TPX xmlns="https://www.garmin.com/xmlschemas/ActivityExtension/v2">
              <Watts>32</Watts>
            </TPX>
          </Extensions>
        </Trackpoint>
        <Trackpoint>
          <Time>2026-05-12T11:44:33Z</Time>
          <DistanceMeters>376.5</DistanceMeters>
          <Cadence>16</Cadence>
          <SensorState>Present</SensorState>
          <HeartRateBpm>
            <Value>107</Value>
          </HeartRateBpm>
          <Extensions>
            <TPX xmlns="https://www.garmin.com/xmlschemas/ActivityExtension/v2">
              <Watts>30</Watts>
            </TPX>
          </Extensions>
        </Trackpoint>
        <Trackpoint>
          <Time>2026-05-12T11:44:36Z</Time>
          <DistanceMeters>383</DistanceMeters>
          <Cadence>16</Cadence>
          <SensorState>Present</SensorState>
          <HeartRateBpm>
            <Value>105</Value>
          </HeartRateBpm>
          <Extensions>
            <TPX xmlns="https://www.garmin.com/xmlschemas/ActivityExtension/v2">
              <Watts>30</Watts>
            </TPX>
          </Extensions>
        </Trackpoint>
        <Trackpoint>
          <Time>2026-05-12T11:44:42Z</Time>
          <DistanceMeters>395.8</DistanceMeters>
          <Cadence>16</Cadence>
          <SensorState>Present</SensorState>
          <HeartRateBpm>
            <Value>112</Value>
          </HeartRateBpm>
          <Extensions>
            <TPX xmlns="https://www.garmin.com/xmlschemas/ActivityExtension/v2">
              <Watts>31</Watts>
            </TPX>
          </Extensions>
        </Trackpoint>
        <Trackpoint>
          <Time>2026-05-12T11:44:45Z</Time>
          <DistanceMeters>402.2</DistanceMeters>
          <Cadence>11</Cadence>
          <SensorState>Present</SensorState>
          <HeartRateBpm>
            <Value>111</Value>
          </HeartRateBpm>
          <Extensions>
            <TPX xmlns="https://www.garmin.com/xmlschemas/ActivityExtension/v2">
              <Watts>26</Watts>
            </TPX>
          </Extensions>
        </Trackpoint>
        <Trackpoint>
          <Time>2026-05-12T11:44:49Z</Time>
          <DistanceMeters>410.9</DistanceMeters>
          <Cadence>18</Cadence>
          <SensorState>Present</SensorState>
          <HeartRateBpm>
            <Value>107</Value>
          </HeartRateBpm>
          <Extensions>
            <TPX xmlns="https://www.garmin.com/xmlschemas/ActivityExtension/v2">
              <Watts>28</Watts>
            </TPX>
          </Extensions>
        </Trackpoint>
        <Trackpoint>
          <Time>2026-05-12T11:44:52Z</Time>
          <DistanceMeters>417.3</DistanceMeters>
          <Cadence>18</Cadence>
          <SensorState>Present</SensorState>
          <HeartRateBpm>
            <Value>105</Value>
          </HeartRateBpm>
          <Extensions>
            <TPX xmlns="https://www.garmin.com/xmlschemas/ActivityExtension/v2">
              <Watts>28</Watts>
            </TPX>
          </Extensions>
        </Trackpoint>
        <Trackpoint>
          <Time>2026-05-12T11:44:55Z</Time>
          <DistanceMeters>423.9</DistanceMeters>
          <Cadence>17</Cadence>
          <SensorState>Present</SensorState>
          <HeartRateBpm>
            <Value>104</Value>
          </HeartRateBpm>
          <Extensions>
            <TPX xmlns="https://www.garmin.com/xmlschemas/ActivityExtension/v2">
              <Watts>28</Watts>
            </TPX>
          </Extensions>
        </Trackpoint>
        <Trackpoint>
          <Time>2026-05-12T11:44:58Z</Time>
          <DistanceMeters>430.6</DistanceMeters>
          <Cadence>19</Cadence>
          <SensorState>Present</SensorState>
          <HeartRateBpm>
            <Value>104</Value>
          </HeartRateBpm>
          <Extensions>
            <TPX xmlns="https://www.garmin.com/xmlschemas/ActivityExtension/v2">
              <Watts>30</Watts>
            </TPX>
          </Extensions>
        </Trackpoint>
        <Trackpoint>
          <Time>2026-05-12T11:45:02Z</Time>
          <DistanceMeters>439.4</DistanceMeters>
          <Cadence>18</Cadence>
          <SensorState>Present</SensorState>
          <HeartRateBpm>
            <Value>103</Value>
          </HeartRateBpm>
          <Extensions>
            <TPX xmlns="https://www.garmin.com/xmlschemas/ActivityExtension/v2">
              <Watts>31</Watts>
            </TPX>
          </Extensions>
        </Trackpoint>
        <Trackpoint>
          <Time>2026-05-12T11:45:05Z</Time>
          <DistanceMeters>446.1</DistanceMeters>
          <Cadence>18</Cadence>
          <SensorState>Present</SensorState>
          <HeartRateBpm>
            <Value>102</Value>
          </HeartRateBpm>
          <Extensions>
            <TPX xmlns="https://www.garmin.com/xmlschemas/ActivityExtension/v2">
              <Watts>30</Watts>
            </TPX>
          </Extensions>
        </Trackpoint>
        <Trackpoint>
          <Time>2026-05-12T11:45:08Z</Time>
          <DistanceMeters>452.9</DistanceMeters>
          <Cadence>18</Cadence>
          <SensorState>Present</SensorState>
          <HeartRateBpm>
            <Value>103</Value>
          </HeartRateBpm>
          <Extensions>
            <TPX xmlns="https://www.garmin.com/xmlschemas/ActivityExtension/v2">
              <Watts>31</Watts>
            </TPX>
          </Extensions>
        </Trackpoint>
        <Trackpoint>
          <Time>2026-05-12T11:45:12Z</Time>
          <DistanceMeters>462.1</DistanceMeters>
          <Cadence>19</Cadence>
          <SensorState>Present</SensorState>
          <HeartRateBpm>
            <Value>104</Value>
          </HeartRateBpm>
          <Extensions>
            <TPX xmlns="https://www.garmin.com/xmlschemas/ActivityExtension/v2">
              <Watts>32</Watts>
            </TPX>
          </Extensions>
        </Trackpoint>
        <Trackpoint>
          <Time>2026-05-12T11:45:15Z</Time>
          <DistanceMeters>469.1</DistanceMeters>
          <Cadence>17</Cadence>
          <SensorState>Present</SensorState>
          <HeartRateBpm>
            <Value>103</Value>
          </HeartRateBpm>
          <Extensions>
            <TPX xmlns="https://www.garmin.com/xmlschemas/ActivityExtension/v2">
              <Watts>35</Watts>
            </TPX>
          </Extensions>
        </Trackpoint>
        <Trackpoint>
          <Time>2026-05-12T11:45:19Z</Time>
          <DistanceMeters>478.4</DistanceMeters>
          <Cadence>17</Cadence>
          <SensorState>Present</SensorState>
          <HeartRateBpm>
            <Value>103</Value>
          </HeartRateBpm>
          <Extensions>
            <TPX xmlns="https://www.garmin.com/xmlschemas/ActivityExtension/v2">
              <Watts>34</Watts>
            </TPX>
          </Extensions>
        </Trackpoint>
        <Trackpoint>
          <Time>2026-05-12T11:45:22Z</Time>
          <DistanceMeters>485.4</DistanceMeters>
          <Cadence>17</Cadence>
          <SensorState>Present</SensorState>
          <HeartRateBpm>
            <Value>103</Value>
          </HeartRateBpm>
          <Extensions>
            <TPX xmlns="https://www.garmin.com/xmlschemas/ActivityExtension/v2">
              <Watts>34</Watts>
            </TPX>
          </Extensions>
        </Trackpoint>
        <Trackpoint>
          <Time>2026-05-12T11:45:25Z</Time>
          <DistanceMeters>492.9</DistanceMeters>
          <Cadence>18</Cadence>
          <SensorState>Present</SensorState>
          <HeartRateBpm>
            <Value>103</Value>
          </HeartRateBpm>
          <Extensions>
            <TPX xmlns="https://www.garmin.com/xmlschemas/ActivityExtension/v2">
              <Watts>38</Watts>
            </TPX>
          </Extensions>
        </Trackpoint>
        <Trackpoint>
          <Time>2026-05-12T11:45:29Z</Time>
          <DistanceMeters>503</DistanceMeters>
          <Cadence>18</Cadence>
          <SensorState>Present</SensorState>
          <HeartRateBpm>
            <Value>103</Value>
          </HeartRateBpm>
          <Extensions>
            <TPX xmlns="https://www.garmin.com/xmlschemas/ActivityExtension/v2">
              <Watts>44</Watts>
            </TPX>
          </Extensions>
        </Trackpoint>
        <Trackpoint>
          <Time>2026-05-12T11:45:32Z</Time>
          <DistanceMeters>510.3</DistanceMeters>
          <Cadence>17</Cadence>
          <SensorState>Present</SensorState>
          <HeartRateBpm>
            <Value>121</Value>
          </HeartRateBpm>
          <Extensions>
            <TPX xmlns="https://www.garmin.com/xmlschemas/ActivityExtension/v2">
              <Watts>44</Watts>
            </TPX>
          </Extensions>
        </Trackpoint>
        <Trackpoint>
          <Time>2026-05-12T11:45:36Z</Time>
          <DistanceMeters>520</DistanceMeters>
          <Cadence>18</Cadence>
          <SensorState>Present</SensorState>
          <HeartRateBpm>
            <Value>119</Value>
          </HeartRateBpm>
          <Extensions>
            <TPX xmlns="https://www.garmin.com/xmlschemas/ActivityExtension/v2">
              <Watts>38</Watts>
            </TPX>
          </Extensions>
        </Trackpoint>
        <Trackpoint>
          <Time>2026-05-12T11:45:39Z</Time>
          <DistanceMeters>527</DistanceMeters>
          <Cadence>18</Cadence>
          <SensorState>Present</SensorState>
          <HeartRateBpm>
            <Value>118</Value>
          </HeartRateBpm>
          <Extensions>
            <TPX xmlns="https://www.garmin.com/xmlschemas/ActivityExtension/v2">
              <Watts>38</Watts>
            </TPX>
          </Extensions>
        </Trackpoint>
        <Trackpoint>
          <Time>2026-05-12T11:45:42Z</Time>
          <DistanceMeters>533.9</DistanceMeters>
          <Cadence>18</Cadence>
          <SensorState>Present</SensorState>
          <HeartRateBpm>
            <Value>118</Value>
          </HeartRateBpm>
          <Extensions>
            <TPX xmlns="https://www.garmin.com/xmlschemas/ActivityExtension/v2">
              <Watts>36</Watts>
            </TPX>
          </Extensions>
        </Trackpoint>
        <Trackpoint>
          <Time>2026-05-12T11:45:46Z</Time>
          <DistanceMeters>543.2</DistanceMeters>
          <Cadence>19</Cadence>
          <SensorState>Present</SensorState>
          <HeartRateBpm>
            <Value>122</Value>
          </HeartRateBpm>
          <Extensions>
            <TPX xmlns="https://www.garmin.com/xmlschemas/ActivityExtension/v2">
              <Watts>34</Watts>
            </TPX>
          </Extensions>
        </Trackpoint>
        <Trackpoint>
          <Time>2026-05-12T11:45:49Z</Time>
          <DistanceMeters>550.2</DistanceMeters>
          <Cadence>19</Cadence>
          <SensorState>Present</SensorState>
          <HeartRateBpm>
            <Value>117</Value>
          </HeartRateBpm>
          <Extensions>
            <TPX xmlns="https://www.garmin.com/xmlschemas/ActivityExtension/v2">
              <Watts>34</Watts>
            </TPX>
          </Extensions>
        </Trackpoint>
        <Trackpoint>
          <Time>2026-05-12T11:45:52Z</Time>
          <DistanceMeters>557.4</DistanceMeters>
          <Cadence>19</Cadence>
          <SensorState>Present</SensorState>
          <HeartRateBpm>
            <Value>117</Value>
          </HeartRateBpm>
          <Extensions>
            <TPX xmlns="https://www.garmin.com/xmlschemas/ActivityExtension/v2">
              <Watts>36</Watts>
            </TPX>
          </Extensions>
        </Trackpoint>
        <Trackpoint>
          <Time>2026-05-12T11:45:55Z</Time>
          <DistanceMeters>564.6</DistanceMeters>
          <Cadence>18</Cadence>
          <SensorState>Present</SensorState>
          <HeartRateBpm>
            <Value>117</Value>
          </HeartRateBpm>
          <Extensions>
            <TPX xmlns="https://www.garmin.com/xmlschemas/ActivityExtension/v2">
              <Watts>38</Watts>
            </TPX>
          </Extensions>
        </Trackpoint>
        <Trackpoint>
          <Time>2026-05-12T11:45:59Z</Time>
          <DistanceMeters>574.6</DistanceMeters>
          <Cadence>19</Cadence>
          <SensorState>Present</SensorState>
          <HeartRateBpm>
            <Value>116</Value>
          </HeartRateBpm>
          <Extensions>
            <TPX xmlns="https://www.garmin.com/xmlschemas/ActivityExtension/v2">
              <Watts>42</Watts>
            </TPX>
          </Extensions>
        </Trackpoint>
        <Trackpoint>
          <Time>2026-05-12T11:46:02Z</Time>
          <DistanceMeters>581.8</DistanceMeters>
          <Cadence>19</Cadence>
          <SensorState>Present</SensorState>
          <HeartRateBpm>
            <Value>116</Value>
          </HeartRateBpm>
          <Extensions>
            <TPX xmlns="https://www.garmin.com/xmlschemas/ActivityExtension/v2">
              <Watts>42</Watts>
            </TPX>
          </Extensions>
        </Trackpoint>
        <Trackpoint>
          <Time>2026-05-12T11:46:05Z</Time>
          <DistanceMeters>589.3</DistanceMeters>
          <Cadence>18</Cadence>
          <SensorState>Present</SensorState>
          <HeartRateBpm>
            <Value>116</Value>
          </HeartRateBpm>
          <Extensions>
            <TPX xmlns="https://www.garmin.com/xmlschemas/ActivityExtension/v2">
              <Watts>41</Watts>
            </TPX>
          </Extensions>
        </Trackpoint>
        <Trackpoint>
          <Time>2026-05-12T11:46:08Z</Time>
          <DistanceMeters>596.7</DistanceMeters>
          <Cadence>19</Cadence>
          <SensorState>Present</SensorState>
          <HeartRateBpm>
            <Value>119</Value>
          </HeartRateBpm>
          <Extensions>
            <TPX xmlns="https://www.garmin.com/xmlschemas/ActivityExtension/v2">
              <Watts>42</Watts>
            </TPX>
          </Extensions>
        </Trackpoint>
        <Trackpoint>
          <Time>2026-05-12T11:46:12Z</Time>
          <DistanceMeters>606.6</DistanceMeters>
          <Cadence>18</Cadence>
          <SensorState>Present</SensorState>
          <HeartRateBpm>
            <Value>118</Value>
          </HeartRateBpm>
          <Extensions>
            <TPX xmlns="https://www.garmin.com/xmlschemas/ActivityExtension/v2">
              <Watts>41</Watts>
            </TPX>
          </Extensions>
        </Trackpoint>
        <Trackpoint>
          <Time>2026-05-12T11:46:15Z</Time>
          <DistanceMeters>613.9</DistanceMeters>
          <Cadence>18</Cadence>
          <SensorState>Present</SensorState>
          <HeartRateBpm>
            <Value>118</Value>
          </HeartRateBpm>
          <Extensions>
            <TPX xmlns="https://www.garmin.com/xmlschemas/ActivityExtension/v2">
              <Watts>41</Watts>
            </TPX>
          </Extensions>
        </Trackpoint>
        <Trackpoint>
          <Time>2026-05-12T11:46:18Z</Time>
          <DistanceMeters>621.3</DistanceMeters>
          <Cadence>18</Cadence>
          <SensorState>Present</SensorState>
          <HeartRateBpm>
            <Value>118</Value>
          </HeartRateBpm>
          <Extensions>
            <TPX xmlns="https://www.garmin.com/xmlschemas/ActivityExtension/v2">
              <Watts>41</Watts>
            </TPX>
          </Extensions>
        </Trackpoint>
        <Trackpoint>
          <Time>2026-05-12T11:46:21Z</Time>
          <DistanceMeters>628.7</DistanceMeters>
          <Cadence>20</Cadence>
          <SensorState>Present</SensorState>
          <HeartRateBpm>
            <Value>118</Value>
          </HeartRateBpm>
          <Extensions>
            <TPX xmlns="https://www.garmin.com/xmlschemas/ActivityExtension/v2">
              <Watts>42</Watts>
            </TPX>
          </Extensions>
        </Trackpoint>
        <Trackpoint>
          <Time>2026-05-12T11:46:24Z</Time>
          <DistanceMeters>636.2</DistanceMeters>
          <Cadence>19</Cadence>
          <SensorState>Present</SensorState>
          <HeartRateBpm>
            <Value>118</Value>
          </HeartRateBpm>
          <Extensions>
            <TPX xmlns="https://www.garmin.com/xmlschemas/ActivityExtension/v2">
              <Watts>43</Watts>
            </TPX>
          </Extensions>
        </Trackpoint>
        <Trackpoint>
          <Time>2026-05-12T11:46:28Z</Time>
          <DistanceMeters>646.2</DistanceMeters>
          <Cadence>18</Cadence>
          <SensorState>Present</SensorState>
          <HeartRateBpm>
            <Value>118</Value>
          </HeartRateBpm>
          <Extensions>
            <TPX xmlns="https://www.garmin.com/xmlschemas/ActivityExtension/v2">
              <Watts>42</Watts>
            </TPX>
          </Extensions>
        </Trackpoint>
        <Trackpoint>
          <Time>2026-05-12T11:46:31Z</Time>
          <DistanceMeters>653.6</DistanceMeters>
          <Cadence>18</Cadence>
          <SensorState>Present</SensorState>
          <HeartRateBpm>
            <Value>117</Value>
          </HeartRateBpm>
          <Extensions>
            <TPX xmlns="https://www.garmin.com/xmlschemas/ActivityExtension/v2">
              <Watts>42</Watts>
            </TPX>
          </Extensions>
        </Trackpoint>
        <Trackpoint>
          <Time>2026-05-12T11:46:34Z</Time>
          <DistanceMeters>661</DistanceMeters>
          <Cadence>19</Cadence>
          <SensorState>Present</SensorState>
          <HeartRateBpm>
            <Value>116</Value>
          </HeartRateBpm>
          <Extensions>
            <TPX xmlns="https://www.garmin.com/xmlschemas/ActivityExtension/v2">
              <Watts>43</Watts>
            </TPX>
          </Extensions>
        </Trackpoint>
        <Trackpoint>
          <Time>2026-05-12T11:46:38Z</Time>
          <DistanceMeters>671.2</DistanceMeters>
          <Cadence>18</Cadence>
          <SensorState>Present</SensorState>
          <HeartRateBpm>
            <Value>116</Value>
          </HeartRateBpm>
          <Extensions>
            <TPX xmlns="https://www.garmin.com/xmlschemas/ActivityExtension/v2">
              <Watts>44</Watts>
            </TPX>
          </Extensions>
        </Trackpoint>
        <Trackpoint>
          <Time>2026-05-12T11:46:41Z</Time>
          <DistanceMeters>678.6</DistanceMeters>
          <Cadence>18</Cadence>
          <SensorState>Present</SensorState>
          <HeartRateBpm>
            <Value>126</Value>
          </HeartRateBpm>
          <Extensions>
            <TPX xmlns="https://www.garmin.com/xmlschemas/ActivityExtension/v2">
              <Watts>44</Watts>
            </TPX>
          </Extensions>
        </Trackpoint>
        <Trackpoint>
          <Time>2026-05-12T11:46:44Z</Time>
          <DistanceMeters>686.1</DistanceMeters>
          <Cadence>17</Cadence>
          <SensorState>Present</SensorState>
          <HeartRateBpm>
            <Value>126</Value>
          </HeartRateBpm>
          <Extensions>
            <TPX xmlns="https://www.garmin.com/xmlschemas/ActivityExtension/v2">
              <Watts>44</Watts>
            </TPX>
          </Extensions>
        </Trackpoint>
        <Trackpoint>
          <Time>2026-05-12T11:46:48Z</Time>
          <DistanceMeters>696</DistanceMeters>
          <Cadence>18</Cadence>
          <SensorState>Present</SensorState>
          <HeartRateBpm>
            <Value>140</Value>
          </HeartRateBpm>
          <Extensions>
            <TPX xmlns="https://www.garmin.com/xmlschemas/ActivityExtension/v2">
              <Watts>44</Watts>
            </TPX>
          </Extensions>
        </Trackpoint>
        <Trackpoint>
          <Time>2026-05-12T11:46:51Z</Time>
          <DistanceMeters>703.4</DistanceMeters>
          <Cadence>17</Cadence>
          <SensorState>Present</SensorState>
          <HeartRateBpm>
            <Value>148</Value>
          </HeartRateBpm>
          <Extensions>
            <TPX xmlns="https://www.garmin.com/xmlschemas/ActivityExtension/v2">
              <Watts>42</Watts>
            </TPX>
          </Extensions>
        </Trackpoint>
        <Trackpoint>
          <Time>2026-05-12T11:46:55Z</Time>
          <DistanceMeters>713.3</DistanceMeters>
          <Cadence>17</Cadence>
          <SensorState>Present</SensorState>
          <HeartRateBpm>
            <Value>172</Value>
          </HeartRateBpm>
          <Extensions>
            <TPX xmlns="https://www.garmin.com/xmlschemas/ActivityExtension/v2">
              <Watts>42</Watts>
            </TPX>
          </Extensions>
        </Trackpoint>
        <Trackpoint>
          <Time>2026-05-12T11:46:58Z</Time>
          <DistanceMeters>720.5</DistanceMeters>
          <Cadence>18</Cadence>
          <SensorState>Present</SensorState>
          <HeartRateBpm>
            <Value>172</Value>
          </HeartRateBpm>
          <Extensions>
            <TPX xmlns="https://www.garmin.com/xmlschemas/ActivityExtension/v2">
              <Watts>41</Watts>
            </TPX>
          </Extensions>
        </Trackpoint>
        <Trackpoint>
          <Time>2026-05-12T11:47:02Z</Time>
          <DistanceMeters>730.1</DistanceMeters>
          <Cadence>17</Cadence>
          <SensorState>Present</SensorState>
          <HeartRateBpm>
            <Value>172</Value>
          </HeartRateBpm>
          <Extensions>
            <TPX xmlns="https://www.garmin.com/xmlschemas/ActivityExtension/v2">
              <Watts>37</Watts>
            </TPX>
          </Extensions>
        </Trackpoint>
        <Trackpoint>
          <Time>2026-05-12T11:47:05Z</Time>
          <DistanceMeters>737</DistanceMeters>
          <Cadence>17</Cadence>
          <SensorState>Present</SensorState>
          <HeartRateBpm>
            <Value>172</Value>
          </HeartRateBpm>
          <Extensions>
            <TPX xmlns="https://www.garmin.com/xmlschemas/ActivityExtension/v2">
              <Watts>37</Watts>
            </TPX>
          </Extensions>
        </Trackpoint>
        <Trackpoint>
          <Time>2026-05-12T11:47:08Z</Time>
          <DistanceMeters>744.1</DistanceMeters>
          <Cadence>18</Cadence>
          <SensorState>Present</SensorState>
          <HeartRateBpm>
            <Value>164</Value>
          </HeartRateBpm>
          <Extensions>
            <TPX xmlns="https://www.garmin.com/xmlschemas/ActivityExtension/v2">
              <Watts>36</Watts>
            </TPX>
          </Extensions>
        </Trackpoint>
        <Trackpoint>
          <Time>2026-05-12T11:47:12Z</Time>
          <DistanceMeters>753.6</DistanceMeters>
          <Cadence>17</Cadence>
          <SensorState>Present</SensorState>
          <HeartRateBpm>
            <Value>155</Value>
          </HeartRateBpm>
          <Extensions>
            <TPX xmlns="https://www.garmin.com/xmlschemas/ActivityExtension/v2">
              <Watts>36</Watts>
            </TPX>
          </Extensions>
        </Trackpoint>
        <Trackpoint>
          <Time>2026-05-12T11:47:16Z</Time>
          <DistanceMeters>763.2</DistanceMeters>
          <Cadence>17</Cadence>
          <SensorState>Present</SensorState>
          <HeartRateBpm>
            <Value>149</Value>
          </HeartRateBpm>
          <Extensions>
            <TPX xmlns="https://www.garmin.com/xmlschemas/ActivityExtension/v2">
              <Watts>37</Watts>
            </TPX>
          </Extensions>
        </Trackpoint>
        <Trackpoint>
          <Time>2026-05-12T11:47:19Z</Time>
          <DistanceMeters>770.1</DistanceMeters>
          <Cadence>17</Cadence>
          <SensorState>Present</SensorState>
          <HeartRateBpm>
            <Value>158</Value>
          </HeartRateBpm>
          <Extensions>
            <TPX xmlns="https://www.garmin.com/xmlschemas/ActivityExtension/v2">
              <Watts>37</Watts>
            </TPX>
          </Extensions>
        </Trackpoint>
        <Trackpoint>
          <Time>2026-05-12T11:47:22Z</Time>
          <DistanceMeters>777.2</DistanceMeters>
          <Cadence>17</Cadence>
          <SensorState>Present</SensorState>
          <HeartRateBpm>
            <Value>164</Value>
          </HeartRateBpm>
          <Extensions>
            <TPX xmlns="https://www.garmin.com/xmlschemas/ActivityExtension/v2">
              <Watts>36</Watts>
            </TPX>
          </Extensions>
        </Trackpoint>
        <Trackpoint>
          <Time>2026-05-12T11:47:26Z</Time>
          <DistanceMeters>786.5</DistanceMeters>
          <Cadence>17</Cadence>
          <SensorState>Present</SensorState>
          <HeartRateBpm>
            <Value>151</Value>
          </HeartRateBpm>
          <Extensions>
            <TPX xmlns="https://www.garmin.com/xmlschemas/ActivityExtension/v2">
              <Watts>36</Watts>
            </TPX>
          </Extensions>
        </Trackpoint>
        <Trackpoint>
          <Time>2026-05-12T11:47:30Z</Time>
          <DistanceMeters>795.8</DistanceMeters>
          <Cadence>17</Cadence>
          <SensorState>Present</SensorState>
          <HeartRateBpm>
            <Value>126</Value>
          </HeartRateBpm>
          <Extensions>
            <TPX xmlns="https://www.garmin.com/xmlschemas/ActivityExtension/v2">
              <Watts>34</Watts>
            </TPX>
          </Extensions>
        </Trackpoint>
        <Trackpoint>
          <Time>2026-05-12T11:47:33Z</Time>
          <DistanceMeters>802.5</DistanceMeters>
          <Cadence>17</Cadence>
          <SensorState>Present</SensorState>
          <HeartRateBpm>
            <Value>119</Value>
          </HeartRateBpm>
          <Extensions>
            <TPX xmlns="https://www.garmin.com/xmlschemas/ActivityExtension/v2">
              <Watts>34</Watts>
            </TPX>
          </Extensions>
        </Trackpoint>
        <Trackpoint>
          <Time>2026-05-12T11:47:37Z</Time>
          <DistanceMeters>811.6</DistanceMeters>
          <Cadence>16</Cadence>
          <SensorState>Present</SensorState>
          <HeartRateBpm>
            <Value>110</Value>
          </HeartRateBpm>
          <Extensions>
            <TPX xmlns="https://www.garmin.com/xmlschemas/ActivityExtension/v2">
              <Watts>33</Watts>
            </TPX>
          </Extensions>
        </Trackpoint>
        <Trackpoint>
          <Time>2026-05-12T11:47:41Z</Time>
          <DistanceMeters>820.6</DistanceMeters>
          <Cadence>16</Cadence>
          <SensorState>Present</SensorState>
          <HeartRateBpm>
            <Value>109</Value>
          </HeartRateBpm>
          <Extensions>
            <TPX xmlns="https://www.garmin.com/xmlschemas/ActivityExtension/v2">
              <Watts>32</Watts>
            </TPX>
          </Extensions>
        </Trackpoint>
        <Trackpoint>
          <Time>2026-05-12T11:47:44Z</Time>
          <DistanceMeters>827.6</DistanceMeters>
          <Cadence>17</Cadence>
          <SensorState>Present</SensorState>
          <HeartRateBpm>
            <Value>108</Value>
          </HeartRateBpm>
          <Extensions>
            <TPX xmlns="https://www.garmin.com/xmlschemas/ActivityExtension/v2">
              <Watts>32</Watts>
            </TPX>
          </Extensions>
        </Trackpoint>
        <Trackpoint>
          <Time>2026-05-12T11:47:48Z</Time>
          <DistanceMeters>836.9</DistanceMeters>
          <Cadence>17</Cadence>
          <SensorState>Present</SensorState>
          <HeartRateBpm>
            <Value>107</Value>
          </HeartRateBpm>
          <Extensions>
            <TPX xmlns="https://www.garmin.com/xmlschemas/ActivityExtension/v2">
              <Watts>34</Watts>
            </TPX>
          </Extensions>
        </Trackpoint>
        <Trackpoint>
          <Time>2026-05-12T11:47:51Z</Time>
          <DistanceMeters>843.5</DistanceMeters>
          <Cadence>17</Cadence>
          <SensorState>Present</SensorState>
          <HeartRateBpm>
            <Value>105</Value>
          </HeartRateBpm>
          <Extensions>
            <TPX xmlns="https://www.garmin.com/xmlschemas/ActivityExtension/v2">
              <Watts>34</Watts>
            </TPX>
          </Extensions>
        </Trackpoint>
        <Trackpoint>
          <Time>2026-05-12T11:47:54Z</Time>
          <DistanceMeters>850.4</DistanceMeters>
          <Cadence>17</Cadence>
          <SensorState>Present</SensorState>
          <HeartRateBpm>
            <Value>104</Value>
          </HeartRateBpm>
          <Extensions>
            <TPX xmlns="https://www.garmin.com/xmlschemas/ActivityExtension/v2">
              <Watts>31</Watts>
            </TPX>
          </Extensions>
        </Trackpoint>
        <Trackpoint>
          <Time>2026-05-12T11:47:58Z</Time>
          <DistanceMeters>859.3</DistanceMeters>
          <Cadence>18</Cadence>
          <SensorState>Present</SensorState>
          <HeartRateBpm>
            <Value>104</Value>
          </HeartRateBpm>
          <Extensions>
            <TPX xmlns="https://www.garmin.com/xmlschemas/ActivityExtension/v2">
              <Watts>32</Watts>
            </TPX>
          </Extensions>
        </Trackpoint>
        <Trackpoint>
          <Time>2026-05-12T11:48:01Z</Time>
          <DistanceMeters>866</DistanceMeters>
          <Cadence>18</Cadence>
          <SensorState>Present</SensorState>
          <HeartRateBpm>
            <Value>104</Value>
          </HeartRateBpm>
          <Extensions>
            <TPX xmlns="https://www.garmin.com/xmlschemas/ActivityExtension/v2">
              <Watts>32</Watts>
            </TPX>
          </Extensions>
        </Trackpoint>
        <Trackpoint>
          <Time>2026-05-12T11:48:05Z</Time>
          <DistanceMeters>875</DistanceMeters>
          <Cadence>17</Cadence>
          <SensorState>Present</SensorState>
          <HeartRateBpm>
            <Value>104</Value>
          </HeartRateBpm>
          <Extensions>
            <TPX xmlns="https://www.garmin.com/xmlschemas/ActivityExtension/v2">
              <Watts>31</Watts>
            </TPX>
          </Extensions>
        </Trackpoint>
        <Trackpoint>
          <Time>2026-05-12T11:48:08Z</Time>
          <DistanceMeters>881.7</DistanceMeters>
          <Cadence>17</Cadence>
          <SensorState>Present</SensorState>
          <HeartRateBpm>
            <Value>104</Value>
          </HeartRateBpm>
          <Extensions>
            <TPX xmlns="https://www.garmin.com/xmlschemas/ActivityExtension/v2">
              <Watts>32</Watts>
            </TPX>
          </Extensions>
        </Trackpoint>
        <Trackpoint>
          <Time>2026-05-12T11:48:12Z</Time>
          <DistanceMeters>890.5</DistanceMeters>
          <Cadence>16</Cadence>
          <SensorState>Present</SensorState>
          <HeartRateBpm>
            <Value>106</Value>
          </HeartRateBpm>
          <Extensions>
            <TPX xmlns="https://www.garmin.com/xmlschemas/ActivityExtension/v2">
              <Watts>31</Watts>
            </TPX>
          </Extensions>
        </Trackpoint>
        <Trackpoint>
          <Time>2026-05-12T11:48:15Z</Time>
          <DistanceMeters>897.3</DistanceMeters>
          <Cadence>17</Cadence>
          <SensorState>Present</SensorState>
          <HeartRateBpm>
            <Value>106</Value>
          </HeartRateBpm>
          <Extensions>
            <TPX xmlns="https://www.garmin.com/xmlschemas/ActivityExtension/v2">
              <Watts>30</Watts>
            </TPX>
          </Extensions>
        </Trackpoint>
        <Trackpoint>
          <Time>2026-05-12T11:48:19Z</Time>
          <DistanceMeters>906.3</DistanceMeters>
          <Cadence>18</Cadence>
          <SensorState>Present</SensorState>
          <HeartRateBpm>
            <Value>105</Value>
          </HeartRateBpm>
          <Extensions>
            <TPX xmlns="https://www.garmin.com/xmlschemas/ActivityExtension/v2">
              <Watts>32</Watts>
            </TPX>
          </Extensions>
        </Trackpoint>
        <Trackpoint>
          <Time>2026-05-12T11:48:23Z</Time>
          <DistanceMeters>915.4</DistanceMeters>
          <Cadence>15</Cadence>
          <SensorState>Present</SensorState>
          <HeartRateBpm>
            <Value>105</Value>
          </HeartRateBpm>
          <Extensions>
            <TPX xmlns="https://www.garmin.com/xmlschemas/ActivityExtension/v2">
              <Watts>31</Watts>
            </TPX>
          </Extensions>
        </Trackpoint>
        <Trackpoint>
          <Time>2026-05-12T11:48:26Z</Time>
          <DistanceMeters>922.2</DistanceMeters>
          <Cadence>18</Cadence>
          <SensorState>Present</SensorState>
          <HeartRateBpm>
            <Value>105</Value>
          </HeartRateBpm>
          <Extensions>
            <TPX xmlns="https://www.garmin.com/xmlschemas/ActivityExtension/v2">
              <Watts>33</Watts>
            </TPX>
          </Extensions>
        </Trackpoint>
        <Trackpoint>
          <Time>2026-05-12T11:48:30Z</Time>
          <DistanceMeters>931.4</DistanceMeters>
          <Cadence>17</Cadence>
          <SensorState>Present</SensorState>
          <HeartRateBpm>
            <Value>104</Value>
          </HeartRateBpm>
          <Extensions>
            <TPX xmlns="https://www.garmin.com/xmlschemas/ActivityExtension/v2">
              <Watts>33</Watts>
            </TPX>
          </Extensions>
        </Trackpoint>
        <Trackpoint>
          <Time>2026-05-12T11:48:33Z</Time>
          <DistanceMeters>938.2</DistanceMeters>
          <Cadence>17</Cadence>
          <SensorState>Present</SensorState>
          <HeartRateBpm>
            <Value>104</Value>
          </HeartRateBpm>
          <Extensions>
            <TPX xmlns="https://www.garmin.com/xmlschemas/ActivityExtension/v2">
              <Watts>33</Watts>
            </TPX>
          </Extensions>
        </Trackpoint>
        <Trackpoint>
          <Time>2026-05-12T11:48:36Z</Time>
          <DistanceMeters>945.2</DistanceMeters>
          <Cadence>19</Cadence>
          <SensorState>Present</SensorState>
          <HeartRateBpm>
            <Value>105</Value>
          </HeartRateBpm>
          <Extensions>
            <TPX xmlns="https://www.garmin.com/xmlschemas/ActivityExtension/v2">
              <Watts>34</Watts>
            </TPX>
          </Extensions>
        </Trackpoint>
        <Trackpoint>
          <Time>2026-05-12T11:48:40Z</Time>
          <DistanceMeters>954.2</DistanceMeters>
          <Cadence>18</Cadence>
          <SensorState>Present</SensorState>
          <HeartRateBpm>
            <Value>106</Value>
          </HeartRateBpm>
          <Extensions>
            <TPX xmlns="https://www.garmin.com/xmlschemas/ActivityExtension/v2">
              <Watts>34</Watts>
            </TPX>
          </Extensions>
        </Trackpoint>
        <Trackpoint>
          <Time>2026-05-12T11:48:43Z</Time>
          <DistanceMeters>961</DistanceMeters>
          <Cadence>16</Cadence>
          <SensorState>Present</SensorState>
          <HeartRateBpm>
            <Value>106</Value>
          </HeartRateBpm>
          <Extensions>
            <TPX xmlns="https://www.garmin.com/xmlschemas/ActivityExtension/v2">
              <Watts>32</Watts>
            </TPX>
          </Extensions>
        </Trackpoint>
        <Trackpoint>
          <Time>2026-05-12T11:48:47Z</Time>
          <DistanceMeters>970.1</DistanceMeters>
          <Cadence>17</Cadence>
          <SensorState>Present</SensorState>
          <HeartRateBpm>
            <Value>114</Value>
          </HeartRateBpm>
          <Extensions>
            <TPX xmlns="https://www.garmin.com/xmlschemas/ActivityExtension/v2">
              <Watts>32</Watts>
            </TPX>
          </Extensions>
        </Trackpoint>
        <Trackpoint>
          <Time>2026-05-12T11:48:50Z</Time>
          <DistanceMeters>977.2</DistanceMeters>
          <Cadence>17</Cadence>
          <SensorState>Present</SensorState>
          <HeartRateBpm>
            <Value>109</Value>
          </HeartRateBpm>
          <Extensions>
            <TPX xmlns="https://www.garmin.com/xmlschemas/ActivityExtension/v2">
              <Watts>34</Watts>
            </TPX>
          </Extensions>
        </Trackpoint>
        <Trackpoint>
          <Time>2026-05-12T11:48:54Z</Time>
          <DistanceMeters>986.3</DistanceMeters>
          <Cadence>17</Cadence>
          <SensorState>Present</SensorState>
          <HeartRateBpm>
            <Value>107</Value>
          </HeartRateBpm>
          <Extensions>
            <TPX xmlns="https://www.garmin.com/xmlschemas/ActivityExtension/v2">
              <Watts>36</Watts>
            </TPX>
          </Extensions>
        </Trackpoint>
        <Trackpoint>
          <Time>2026-05-12T11:48:58Z</Time>
          <DistanceMeters>995.4</DistanceMeters>
          <Cadence>16</Cadence>
          <SensorState>Present</SensorState>
          <HeartRateBpm>
            <Value>105</Value>
          </HeartRateBpm>
          <Extensions>
            <TPX xmlns="https://www.garmin.com/xmlschemas/ActivityExtension/v2">
              <Watts>33</Watts>
            </TPX>
          </Extensions>
        </Trackpoint>
      </Track>
    </Lap>
  <Creator xsi:type="Device_t">
    <Name>Concept2</Name>
    <ProductID>5</ProductID>
    <Version>
      <VersionMajor>1</VersionMajor>
      <VersionMinor>0</VersionMinor>
      <BuildMajor>1</BuildMajor>
      <BuildMinor>0</BuildMinor>
    </Version>
  </Creator>
</Activity>
</Activities>
<Author xsi:type="Application_t">
  <Name></Name>
  <Build>
    <Version>
      <VersionMajor>1</VersionMajor>
      <VersionMinor>0</VersionMinor>
      <BuildMajor>1</BuildMajor>
      <BuildMinor>0</BuildMinor>
    </Version>
  </Build>
  <LangID>en</LangID>
</Author>
</TrainingCenterDatabase>
