<?xml version="1.0" encoding="utf-8"?><TrainingCenterDatabase
xsi:schemaLocation="https://www.garmin.com/xmlschemas/TrainingCenterDatabase/v2 https://www.garmin.com/xmlschemas/TrainingCenterDatabasev2.xsd"
xmlns:ns5="https://www.garmin.com/xmlschemas/ActivityGoals/v1"
xmlns:ns3="https://www.garmin.com/xmlschemas/ActivityExtension/v2"
xmlns:ns2="https://www.garmin.com/xmlschemas/UserProfile/v2"
xmlns="https://www.garmin.com/xmlschemas/TrainingCenterDatabase/v2"
xmlns:xsi="https://www.w3.org/2001/XMLSchema-instance" xmlns:ns4="https://www.garmin.com/xmlschemas/ProfileExtension/v1">
<Activities>
<Activity Sport="Other">
  <Id>2026-09-25T09:26:18Z</Id>
    <Lap StartTime="2026-09-25T09:26:18Z ">
      <TotalTimeSeconds>642</TotalTimeSeconds>
      <DistanceMeters>2000</DistanceMeters>
      <MaximumSpeed>3.42</MaximumSpeed>
      <Calories>107</Calories>
      <Intensity>Active</Intensity>
      <TriggerMethod>Manual</TriggerMethod>
      <Track>
        <Trackpoint>
          <Time>2026-09-25T09:26:19Z</Time>
          <DistanceMeters>2</DistanceMeters>
          <Cadence>0</Cadence>
          <SensorState>Present</SensorState>
          <Extensions>
            <TPX xmlns="https://www.garmin.com/xmlschemas/ActivityExtension/v2">
              <Watts>20</Watts>
            </TPX>
          </Extensions>
        </Trackpoint>
        <Trackpoint>
          <Time>2026-09-25T09:26:23Z</Time>
          <DistanceMeters>10.1</DistanceMeters>
          <Cadence>14</Cadence>
          <SensorState>Present</SensorState>
          <Extensions>
            <TPX xmlns="https://www.garmin.com/xmlschemas/ActivityExtension/v2">
              <Watts>23</Watts>
            </TPX>
          </Extensions>
        </Trackpoint>
        <Trackpoint>
          <Time>2026-09-25T09:26:26Z</Time>
          <DistanceMeters>19.1</DistanceMeters>
          <Cadence>14</Cadence>
          <SensorState>Present</SensorState>
          <Extensions>
            <TPX xmlns="https://www.garmin.com/xmlschemas/ActivityExtension/v2">
              <Watts>23</Watts>
            </TPX>
          </Extensions>
        </Trackpoint>
        <Trackpoint>
          <Time>2026-09-25T09:26:31Z</Time>
          <DistanceMeters>30.5</DistanceMeters>
          <Cadence>15</Cadence>
          <SensorState>Present</SensorState>
          <Extensions>
            <TPX xmlns="https://www.garmin.com/xmlschemas/ActivityExtension/v2">
              <Watts>54</Watts>
            </TPX>
          </Extensions>
        </Trackpoint>
        <Trackpoint>
          <Time>2026-09-25T09:26:35Z</Time>
          <DistanceMeters>41.4</DistanceMeters>
          <Cadence>15</Cadence>
          <SensorState>Present</SensorState>
          <Extensions>
            <TPX xmlns="https://www.garmin.com/xmlschemas/ActivityExtension/v2">
              <Watts>57</Watts>
            </TPX>
          </Extensions>
        </Trackpoint>
        <Trackpoint>
          <Time>2026-09-25T09:26:39Z</Time>
          <DistanceMeters>52.3</DistanceMeters>
          <Cadence>15</Cadence>
          <SensorState>Present</SensorState>
          <Extensions>
            <TPX xmlns="https://www.garmin.com/xmlschemas/ActivityExtension/v2">
              <Watts>57</Watts>
            </TPX>
          </Extensions>
        </Trackpoint>
        <Trackpoint>
          <Time>2026-09-25T09:26:42Z</Time>
          <DistanceMeters>63.1</DistanceMeters>
          <Cadence>17</Cadence>
          <SensorState>Present</SensorState>
          <Extensions>
            <TPX xmlns="https://www.garmin.com/xmlschemas/ActivityExtension/v2">
              <Watts>64</Watts>
            </TPX>
          </Extensions>
        </Trackpoint>
        <Trackpoint>
          <Time>2026-09-25T09:26:46Z</Time>
          <DistanceMeters>73.8</DistanceMeters>
          <Cadence>16</Cadence>
          <SensorState>Present</SensorState>
          <Extensions>
            <TPX xmlns="https://www.garmin.com/xmlschemas/ActivityExtension/v2">
              <Watts>65</Watts>
            </TPX>
          </Extensions>
        </Trackpoint>
        <Trackpoint>
          <Time>2026-09-25T09:26:50Z</Time>
          <DistanceMeters>84.9</DistanceMeters>
          <Cadence>16</Cadence>
          <SensorState>Present</SensorState>
          <Extensions>
            <TPX xmlns="https://www.garmin.com/xmlschemas/ActivityExtension/v2">
              <Watts>72</Watts>
            </TPX>
          </Extensions>
        </Trackpoint>
        <Trackpoint>
          <Time>2026-09-25T09:26:53Z</Time>
          <DistanceMeters>95.2</DistanceMeters>
          <Cadence>16</Cadence>
          <SensorState>Present</SensorState>
          <Extensions>
            <TPX xmlns="https://www.garmin.com/xmlschemas/ActivityExtension/v2">
              <Watts>72</Watts>
            </TPX>
          </Extensions>
        </Trackpoint>
        <Trackpoint>
          <Time>2026-09-25T09:26:57Z</Time>
          <DistanceMeters>106.2</DistanceMeters>
          <Cadence>17</Cadence>
          <SensorState>Present</SensorState>
          <Extensions>
            <TPX xmlns="https://www.garmin.com/xmlschemas/ActivityExtension/v2">
              <Watts>69</Watts>
            </TPX>
          </Extensions>
        </Trackpoint>
        <Trackpoint>
          <Time>2026-09-25T09:27:00Z</Time>
          <DistanceMeters>115.7</DistanceMeters>
          <Cadence>17</Cadence>
          <SensorState>Present</SensorState>
          <Extensions>
            <TPX xmlns="https://www.garmin.com/xmlschemas/ActivityExtension/v2">
              <Watts>69</Watts>
            </TPX>
          </Extensions>
        </Trackpoint>
        <Trackpoint>
          <Time>2026-09-25T09:27:04Z</Time>
          <DistanceMeters>126.6</DistanceMeters>
          <Cadence>16</Cadence>
          <SensorState>Present</SensorState>
          <Extensions>
            <TPX xmlns="https://www.garmin.com/xmlschemas/ActivityExtension/v2">
              <Watts>68</Watts>
            </TPX>
          </Extensions>
        </Trackpoint>
        <Trackpoint>
          <Time>2026-09-25T09:27:08Z</Time>
          <DistanceMeters>136.9</DistanceMeters>
          <Cadence>17</Cadence>
          <SensorState>Present</SensorState>
          <Extensions>
            <TPX xmlns="https://www.garmin.com/xmlschemas/ActivityExtension/v2">
              <Watts>70</Watts>
            </TPX>
          </Extensions>
        </Trackpoint>
        <Trackpoint>
          <Time>2026-09-25T09:27:11Z</Time>
          <DistanceMeters>147</DistanceMeters>
          <Cadence>17</Cadence>
          <SensorState>Present</SensorState>
          <Extensions>
            <TPX xmlns="https://www.garmin.com/xmlschemas/ActivityExtension/v2">
              <Watts>70</Watts>
            </TPX>
          </Extensions>
        </Trackpoint>
        <Trackpoint>
          <Time>2026-09-25T09:27:15Z</Time>
          <DistanceMeters>157.4</DistanceMeters>
          <Cadence>17</Cadence>
          <SensorState>Present</SensorState>
          <Extensions>
            <TPX xmlns="https://www.garmin.com/xmlschemas/ActivityExtension/v2">
              <Watts>69</Watts>
            </TPX>
          </Extensions>
        </Trackpoint>
        <Trackpoint>
          <Time>2026-09-25T09:27:18Z</Time>
          <DistanceMeters>168.8</DistanceMeters>
          <Cadence>16</Cadence>
          <SensorState>Present</SensorState>
          <Extensions>
            <TPX xmlns="https://www.garmin.com/xmlschemas/ActivityExtension/v2">
              <Watts>76</Watts>
            </TPX>
          </Extensions>
        </Trackpoint>
        <Trackpoint>
          <Time>2026-09-25T09:27:22Z</Time>
          <DistanceMeters>179.5</DistanceMeters>
          <Cadence>16</Cadence>
          <SensorState>Present</SensorState>
          <Extensions>
            <TPX xmlns="https://www.garmin.com/xmlschemas/ActivityExtension/v2">
              <Watts>76</Watts>
            </TPX>
          </Extensions>
        </Trackpoint>
        <Trackpoint>
          <Time>2026-09-25T09:27:26Z</Time>
          <DistanceMeters>191.6</DistanceMeters>
          <Cadence>17</Cadence>
          <SensorState>Present</SensorState>
          <Extensions>
            <TPX xmlns="https://www.garmin.com/xmlschemas/ActivityExtension/v2">
              <Watts>93</Watts>
            </TPX>
          </Extensions>
        </Trackpoint>
        <Trackpoint>
          <Time>2026-09-25T09:27:29Z</Time>
          <DistanceMeters>203.8</DistanceMeters>
          <Cadence>16</Cadence>
          <SensorState>Present</SensorState>
          <Extensions>
            <TPX xmlns="https://www.garmin.com/xmlschemas/ActivityExtension/v2">
              <Watts>95</Watts>
            </TPX>
          </Extensions>
        </Trackpoint>
        <Trackpoint>
          <Time>2026-09-25T09:27:33Z</Time>
          <DistanceMeters>214.9</DistanceMeters>
          <Cadence>17</Cadence>
          <SensorState>Present</SensorState>
          <Extensions>
            <TPX xmlns="https://www.garmin.com/xmlschemas/ActivityExtension/v2">
              <Watts>90</Watts>
            </TPX>
          </Extensions>
        </Trackpoint>
        <Trackpoint>
          <Time>2026-09-25T09:27:36Z</Time>
          <DistanceMeters>225.1</DistanceMeters>
          <Cadence>18</Cadence>
          <SensorState>Present</SensorState>
          <Extensions>
            <TPX xmlns="https://www.garmin.com/xmlschemas/ActivityExtension/v2">
              <Watts>86</Watts>
            </TPX>
          </Extensions>
        </Trackpoint>
        <Trackpoint>
          <Time>2026-09-25T09:27:40Z</Time>
          <DistanceMeters>235.8</DistanceMeters>
          <Cadence>17</Cadence>
          <SensorState>Present</SensorState>
          <Extensions>
            <TPX xmlns="https://www.garmin.com/xmlschemas/ActivityExtension/v2">
              <Watts>80</Watts>
            </TPX>
          </Extensions>
        </Trackpoint>
        <Trackpoint>
          <Time>2026-09-25T09:27:43Z</Time>
          <DistanceMeters>246.6</DistanceMeters>
          <Cadence>17</Cadence>
          <SensorState>Present</SensorState>
          <Extensions>
            <TPX xmlns="https://www.garmin.com/xmlschemas/ActivityExtension/v2">
              <Watts>79</Watts>
            </TPX>
          </Extensions>
        </Trackpoint>
        <Trackpoint>
          <Time>2026-09-25T09:27:46Z</Time>
          <DistanceMeters>256.4</DistanceMeters>
          <Cadence>17</Cadence>
          <SensorState>Present</SensorState>
          <Extensions>
            <TPX xmlns="https://www.garmin.com/xmlschemas/ActivityExtension/v2">
              <Watts>79</Watts>
            </TPX>
          </Extensions>
        </Trackpoint>
        <Trackpoint>
          <Time>2026-09-25T09:27:50Z</Time>
          <DistanceMeters>267.1</DistanceMeters>
          <Cadence>17</Cadence>
          <SensorState>Present</SensorState>
          <Extensions>
            <TPX xmlns="https://www.garmin.com/xmlschemas/ActivityExtension/v2">
              <Watts>78</Watts>
            </TPX>
          </Extensions>
        </Trackpoint>
        <Trackpoint>
          <Time>2026-09-25T09:27:53Z</Time>
          <DistanceMeters>277.9</DistanceMeters>
          <Cadence>18</Cadence>
          <SensorState>Present</SensorState>
          <Extensions>
            <TPX xmlns="https://www.garmin.com/xmlschemas/ActivityExtension/v2">
              <Watts>81</Watts>
            </TPX>
          </Extensions>
        </Trackpoint>
        <Trackpoint>
          <Time>2026-09-25T09:27:57Z</Time>
          <DistanceMeters>287.9</DistanceMeters>
          <Cadence>18</Cadence>
          <SensorState>Present</SensorState>
          <Extensions>
            <TPX xmlns="https://www.garmin.com/xmlschemas/ActivityExtension/v2">
              <Watts>81</Watts>
            </TPX>
          </Extensions>
        </Trackpoint>
        <Trackpoint>
          <Time>2026-09-25T09:28:00Z</Time>
          <DistanceMeters>298</DistanceMeters>
          <Cadence>18</Cadence>
          <SensorState>Present</SensorState>
          <Extensions>
            <TPX xmlns="https://www.garmin.com/xmlschemas/ActivityExtension/v2">
              <Watts>83</Watts>
            </TPX>
          </Extensions>
        </Trackpoint>
        <Trackpoint>
          <Time>2026-09-25T09:28:03Z</Time>
          <DistanceMeters>308.7</DistanceMeters>
          <Cadence>18</Cadence>
          <SensorState>Present</SensorState>
          <Extensions>
            <TPX xmlns="https://www.garmin.com/xmlschemas/ActivityExtension/v2">
              <Watts>80</Watts>
            </TPX>
          </Extensions>
        </Trackpoint>
        <Trackpoint>
          <Time>2026-09-25T09:28:07Z</Time>
          <DistanceMeters>318.5</DistanceMeters>
          <Cadence>18</Cadence>
          <SensorState>Present</SensorState>
          <Extensions>
            <TPX xmlns="https://www.garmin.com/xmlschemas/ActivityExtension/v2">
              <Watts>75</Watts>
            </TPX>
          </Extensions>
        </Trackpoint>
        <Trackpoint>
          <Time>2026-09-25T09:28:10Z</Time>
          <DistanceMeters>328.4</DistanceMeters>
          <Cadence>18</Cadence>
          <SensorState>Present</SensorState>
          <Extensions>
            <TPX xmlns="https://www.garmin.com/xmlschemas/ActivityExtension/v2">
              <Watts>75</Watts>
            </TPX>
          </Extensions>
        </Trackpoint>
        <Trackpoint>
          <Time>2026-09-25T09:28:13Z</Time>
          <DistanceMeters>339</DistanceMeters>
          <Cadence>18</Cadence>
          <SensorState>Present</SensorState>
          <Extensions>
            <TPX xmlns="https://www.garmin.com/xmlschemas/ActivityExtension/v2">
              <Watts>79</Watts>
            </TPX>
          </Extensions>
        </Trackpoint>
        <Trackpoint>
          <Time>2026-09-25T09:28:17Z</Time>
          <DistanceMeters>350.3</DistanceMeters>
          <Cadence>16</Cadence>
          <SensorState>Present</SensorState>
          <Extensions>
            <TPX xmlns="https://www.garmin.com/xmlschemas/ActivityExtension/v2">
              <Watts>75</Watts>
            </TPX>
          </Extensions>
        </Trackpoint>
        <Trackpoint>
          <Time>2026-09-25T09:28:20Z</Time>
          <DistanceMeters>360.2</DistanceMeters>
          <Cadence>16</Cadence>
          <SensorState>Present</SensorState>
          <Extensions>
            <TPX xmlns="https://www.garmin.com/xmlschemas/ActivityExtension/v2">
              <Watts>75</Watts>
            </TPX>
          </Extensions>
        </Trackpoint>
        <Trackpoint>
          <Time>2026-09-25T09:28:24Z</Time>
          <DistanceMeters>371.8</DistanceMeters>
          <Cadence>16</Cadence>
          <SensorState>Present</SensorState>
          <Extensions>
            <TPX xmlns="https://www.garmin.com/xmlschemas/ActivityExtension/v2">
              <Watts>81</Watts>
            </TPX>
          </Extensions>
        </Trackpoint>
        <Trackpoint>
          <Time>2026-09-25T09:28:27Z</Time>
          <DistanceMeters>382.4</DistanceMeters>
          <Cadence>16</Cadence>
          <SensorState>Present</SensorState>
          <Extensions>
            <TPX xmlns="https://www.garmin.com/xmlschemas/ActivityExtension/v2">
              <Watts>81</Watts>
            </TPX>
          </Extensions>
        </Trackpoint>
        <Trackpoint>
          <Time>2026-09-25T09:28:31Z</Time>
          <DistanceMeters>395.3</DistanceMeters>
          <Cadence>15</Cadence>
          <SensorState>Present</SensorState>
          <Extensions>
            <TPX xmlns="https://www.garmin.com/xmlschemas/ActivityExtension/v2">
              <Watts>93</Watts>
            </TPX>
          </Extensions>
        </Trackpoint>
        <Trackpoint>
          <Time>2026-09-25T09:28:35Z</Time>
          <DistanceMeters>406.9</DistanceMeters>
          <Cadence>17</Cadence>
          <SensorState>Present</SensorState>
          <Extensions>
            <TPX xmlns="https://www.garmin.com/xmlschemas/ActivityExtension/v2">
              <Watts>99</Watts>
            </TPX>
          </Extensions>
        </Trackpoint>
        <Trackpoint>
          <Time>2026-09-25T09:28:38Z</Time>
          <DistanceMeters>418.2</DistanceMeters>
          <Cadence>17</Cadence>
          <SensorState>Present</SensorState>
          <Extensions>
            <TPX xmlns="https://www.garmin.com/xmlschemas/ActivityExtension/v2">
              <Watts>99</Watts>
            </TPX>
          </Extensions>
        </Trackpoint>
        <Trackpoint>
          <Time>2026-09-25T09:28:42Z</Time>
          <DistanceMeters>430.3</DistanceMeters>
          <Cadence>17</Cadence>
          <SensorState>Present</SensorState>
          <Extensions>
            <TPX xmlns="https://www.garmin.com/xmlschemas/ActivityExtension/v2">
              <Watts>91</Watts>
            </TPX>
          </Extensions>
        </Trackpoint>
        <Trackpoint>
          <Time>2026-09-25T09:28:46Z</Time>
          <DistanceMeters>442.2</DistanceMeters>
          <Cadence>16</Cadence>
          <SensorState>Present</SensorState>
          <Extensions>
            <TPX xmlns="https://www.garmin.com/xmlschemas/ActivityExtension/v2">
              <Watts>88</Watts>
            </TPX>
          </Extensions>
        </Trackpoint>
        <Trackpoint>
          <Time>2026-09-25T09:28:49Z</Time>
          <DistanceMeters>453.2</DistanceMeters>
          <Cadence>17</Cadence>
          <SensorState>Present</SensorState>
          <Extensions>
            <TPX xmlns="https://www.garmin.com/xmlschemas/ActivityExtension/v2">
              <Watts>89</Watts>
            </TPX>
          </Extensions>
        </Trackpoint>
        <Trackpoint>
          <Time>2026-09-25T09:28:53Z</Time>
          <DistanceMeters>464.3</DistanceMeters>
          <Cadence>17</Cadence>
          <SensorState>Present</SensorState>
          <Extensions>
            <TPX xmlns="https://www.garmin.com/xmlschemas/ActivityExtension/v2">
              <Watts>89</Watts>
            </TPX>
          </Extensions>
        </Trackpoint>
        <Trackpoint>
          <Time>2026-09-25T09:28:57Z</Time>
          <DistanceMeters>476</DistanceMeters>
          <Cadence>16</Cadence>
          <SensorState>Present</SensorState>
          <Extensions>
            <TPX xmlns="https://www.garmin.com/xmlschemas/ActivityExtension/v2">
              <Watts>83</Watts>
            </TPX>
          </Extensions>
        </Trackpoint>
        <Trackpoint>
          <Time>2026-09-25T09:29:00Z</Time>
          <DistanceMeters>486.9</DistanceMeters>
          <Cadence>16</Cadence>
          <SensorState>Present</SensorState>
          <Extensions>
            <TPX xmlns="https://www.garmin.com/xmlschemas/ActivityExtension/v2">
              <Watts>83</Watts>
            </TPX>
          </Extensions>
        </Trackpoint>
        <Trackpoint>
          <Time>2026-09-25T09:29:04Z</Time>
          <DistanceMeters>498.8</DistanceMeters>
          <Cadence>17</Cadence>
          <SensorState>Present</SensorState>
          <Extensions>
            <TPX xmlns="https://www.garmin.com/xmlschemas/ActivityExtension/v2">
              <Watts>87</Watts>
            </TPX>
          </Extensions>
        </Trackpoint>
        <Trackpoint>
          <Time>2026-09-25T09:29:07Z</Time>
          <DistanceMeters>509.8</DistanceMeters>
          <Cadence>17</Cadence>
          <SensorState>Present</SensorState>
          <Extensions>
            <TPX xmlns="https://www.garmin.com/xmlschemas/ActivityExtension/v2">
              <Watts>87</Watts>
            </TPX>
          </Extensions>
        </Trackpoint>
        <Trackpoint>
          <Time>2026-09-25T09:29:11Z</Time>
          <DistanceMeters>521.7</DistanceMeters>
          <Cadence>16</Cadence>
          <SensorState>Present</SensorState>
          <Extensions>
            <TPX xmlns="https://www.garmin.com/xmlschemas/ActivityExtension/v2">
              <Watts>88</Watts>
            </TPX>
          </Extensions>
        </Trackpoint>
        <Trackpoint>
          <Time>2026-09-25T09:29:15Z</Time>
          <DistanceMeters>532.8</DistanceMeters>
          <Cadence>16</Cadence>
          <SensorState>Present</SensorState>
          <Extensions>
            <TPX xmlns="https://www.garmin.com/xmlschemas/ActivityExtension/v2">
              <Watts>88</Watts>
            </TPX>
          </Extensions>
        </Trackpoint>
        <Trackpoint>
          <Time>2026-09-25T09:29:19Z</Time>
          <DistanceMeters>545.5</DistanceMeters>
          <Cadence>16</Cadence>
          <SensorState>Present</SensorState>
          <Extensions>
            <TPX xmlns="https://www.garmin.com/xmlschemas/ActivityExtension/v2">
              <Watts>86</Watts>
            </TPX>
          </Extensions>
        </Trackpoint>
        <Trackpoint>
          <Time>2026-09-25T09:29:22Z</Time>
          <DistanceMeters>557.3</DistanceMeters>
          <Cadence>16</Cadence>
          <SensorState>Present</SensorState>
          <Extensions>
            <TPX xmlns="https://www.garmin.com/xmlschemas/ActivityExtension/v2">
              <Watts>88</Watts>
            </TPX>
          </Extensions>
        </Trackpoint>
        <Trackpoint>
          <Time>2026-09-25T09:29:26Z</Time>
          <DistanceMeters>568.1</DistanceMeters>
          <Cadence>16</Cadence>
          <SensorState>Present</SensorState>
          <Extensions>
            <TPX xmlns="https://www.garmin.com/xmlschemas/ActivityExtension/v2">
              <Watts>88</Watts>
            </TPX>
          </Extensions>
        </Trackpoint>
        <Trackpoint>
          <Time>2026-09-25T09:29:30Z</Time>
          <DistanceMeters>579.9</DistanceMeters>
          <Cadence>16</Cadence>
          <SensorState>Present</SensorState>
          <Extensions>
            <TPX xmlns="https://www.garmin.com/xmlschemas/ActivityExtension/v2">
              <Watts>84</Watts>
            </TPX>
          </Extensions>
        </Trackpoint>
        <Trackpoint>
          <Time>2026-09-25T09:29:33Z</Time>
          <DistanceMeters>591.6</DistanceMeters>
          <Cadence>16</Cadence>
          <SensorState>Present</SensorState>
          <Extensions>
            <TPX xmlns="https://www.garmin.com/xmlschemas/ActivityExtension/v2">
              <Watts>85</Watts>
            </TPX>
          </Extensions>
        </Trackpoint>
        <Trackpoint>
          <Time>2026-09-25T09:29:37Z</Time>
          <DistanceMeters>602.8</DistanceMeters>
          <Cadence>17</Cadence>
          <SensorState>Present</SensorState>
          <Extensions>
            <TPX xmlns="https://www.garmin.com/xmlschemas/ActivityExtension/v2">
              <Watts>89</Watts>
            </TPX>
          </Extensions>
        </Trackpoint>
        <Trackpoint>
          <Time>2026-09-25T09:29:40Z</Time>
          <DistanceMeters>613.9</DistanceMeters>
          <Cadence>17</Cadence>
          <SensorState>Present</SensorState>
          <Extensions>
            <TPX xmlns="https://www.garmin.com/xmlschemas/ActivityExtension/v2">
              <Watts>89</Watts>
            </TPX>
          </Extensions>
        </Trackpoint>
        <Trackpoint>
          <Time>2026-09-25T09:29:44Z</Time>
          <DistanceMeters>624.2</DistanceMeters>
          <Cadence>18</Cadence>
          <SensorState>Present</SensorState>
          <Extensions>
            <TPX xmlns="https://www.garmin.com/xmlschemas/ActivityExtension/v2">
              <Watts>89</Watts>
            </TPX>
          </Extensions>
        </Trackpoint>
        <Trackpoint>
          <Time>2026-09-25T09:29:47Z</Time>
          <DistanceMeters>635.2</DistanceMeters>
          <Cadence>17</Cadence>
          <SensorState>Present</SensorState>
          <Extensions>
            <TPX xmlns="https://www.garmin.com/xmlschemas/ActivityExtension/v2">
              <Watts>85</Watts>
            </TPX>
          </Extensions>
        </Trackpoint>
        <Trackpoint>
          <Time>2026-09-25T09:29:50Z</Time>
          <DistanceMeters>645.4</DistanceMeters>
          <Cadence>17</Cadence>
          <SensorState>Present</SensorState>
          <Extensions>
            <TPX xmlns="https://www.garmin.com/xmlschemas/ActivityExtension/v2">
              <Watts>85</Watts>
            </TPX>
          </Extensions>
        </Trackpoint>
        <Trackpoint>
          <Time>2026-09-25T09:29:54Z</Time>
          <DistanceMeters>656.7</DistanceMeters>
          <Cadence>18</Cadence>
          <SensorState>Present</SensorState>
          <Extensions>
            <TPX xmlns="https://www.garmin.com/xmlschemas/ActivityExtension/v2">
              <Watts>90</Watts>
            </TPX>
          </Extensions>
        </Trackpoint>
        <Trackpoint>
          <Time>2026-09-25T09:29:57Z</Time>
          <DistanceMeters>667.8</DistanceMeters>
          <Cadence>17</Cadence>
          <SensorState>Present</SensorState>
          <Extensions>
            <TPX xmlns="https://www.garmin.com/xmlschemas/ActivityExtension/v2">
              <Watts>91</Watts>
            </TPX>
          </Extensions>
        </Trackpoint>
        <Trackpoint>
          <Time>2026-09-25T09:30:01Z</Time>
          <DistanceMeters>678.9</DistanceMeters>
          <Cadence>17</Cadence>
          <SensorState>Present</SensorState>
          <Extensions>
            <TPX xmlns="https://www.garmin.com/xmlschemas/ActivityExtension/v2">
              <Watts>86</Watts>
            </TPX>
          </Extensions>
        </Trackpoint>
        <Trackpoint>
          <Time>2026-09-25T09:30:04Z</Time>
          <DistanceMeters>689.2</DistanceMeters>
          <Cadence>18</Cadence>
          <SensorState>Present</SensorState>
          <Extensions>
            <TPX xmlns="https://www.garmin.com/xmlschemas/ActivityExtension/v2">
              <Watts>90</Watts>
            </TPX>
          </Extensions>
        </Trackpoint>
        <Trackpoint>
          <Time>2026-09-25T09:30:08Z</Time>
          <DistanceMeters>700.5</DistanceMeters>
          <Cadence>17</Cadence>
          <SensorState>Present</SensorState>
          <Extensions>
            <TPX xmlns="https://www.garmin.com/xmlschemas/ActivityExtension/v2">
              <Watts>92</Watts>
            </TPX>
          </Extensions>
        </Trackpoint>
        <Trackpoint>
          <Time>2026-09-25T09:30:11Z</Time>
          <DistanceMeters>712.4</DistanceMeters>
          <Cadence>16</Cadence>
          <SensorState>Present</SensorState>
          <Extensions>
            <TPX xmlns="https://www.garmin.com/xmlschemas/ActivityExtension/v2">
              <Watts>88</Watts>
            </TPX>
          </Extensions>
        </Trackpoint>
        <Trackpoint>
          <Time>2026-09-25T09:30:15Z</Time>
          <DistanceMeters>723.6</DistanceMeters>
          <Cadence>17</Cadence>
          <SensorState>Present</SensorState>
          <Extensions>
            <TPX xmlns="https://www.garmin.com/xmlschemas/ActivityExtension/v2">
              <Watts>92</Watts>
            </TPX>
          </Extensions>
        </Trackpoint>
        <Trackpoint>
          <Time>2026-09-25T09:30:18Z</Time>
          <DistanceMeters>734.7</DistanceMeters>
          <Cadence>17</Cadence>
          <SensorState>Present</SensorState>
          <Extensions>
            <TPX xmlns="https://www.garmin.com/xmlschemas/ActivityExtension/v2">
              <Watts>90</Watts>
            </TPX>
          </Extensions>
        </Trackpoint>
        <Trackpoint>
          <Time>2026-09-25T09:30:22Z</Time>
          <DistanceMeters>745.1</DistanceMeters>
          <Cadence>17</Cadence>
          <SensorState>Present</SensorState>
          <Extensions>
            <TPX xmlns="https://www.garmin.com/xmlschemas/ActivityExtension/v2">
              <Watts>90</Watts>
            </TPX>
          </Extensions>
        </Trackpoint>
        <Trackpoint>
          <Time>2026-09-25T09:30:25Z</Time>
          <DistanceMeters>756.6</DistanceMeters>
          <Cadence>18</Cadence>
          <SensorState>Present</SensorState>
          <Extensions>
            <TPX xmlns="https://www.garmin.com/xmlschemas/ActivityExtension/v2">
              <Watts>94</Watts>
            </TPX>
          </Extensions>
        </Trackpoint>
        <Trackpoint>
          <Time>2026-09-25T09:30:28Z</Time>
          <DistanceMeters>765.6</DistanceMeters>
          <Cadence>18</Cadence>
          <SensorState>Present</SensorState>
          <Extensions>
            <TPX xmlns="https://www.garmin.com/xmlschemas/ActivityExtension/v2">
              <Watts>94</Watts>
            </TPX>
          </Extensions>
        </Trackpoint>
        <Trackpoint>
          <Time>2026-09-25T09:30:31Z</Time>
          <DistanceMeters>777.3</DistanceMeters>
          <Cadence>18</Cadence>
          <SensorState>Present</SensorState>
          <Extensions>
            <TPX xmlns="https://www.garmin.com/xmlschemas/ActivityExtension/v2">
              <Watts>102</Watts>
            </TPX>
          </Extensions>
        </Trackpoint>
        <Trackpoint>
          <Time>2026-09-25T09:30:35Z</Time>
          <DistanceMeters>788.3</DistanceMeters>
          <Cadence>18</Cadence>
          <SensorState>Present</SensorState>
          <Extensions>
            <TPX xmlns="https://www.garmin.com/xmlschemas/ActivityExtension/v2">
              <Watts>102</Watts>
            </TPX>
          </Extensions>
        </Trackpoint>
        <Trackpoint>
          <Time>2026-09-25T09:30:38Z</Time>
          <DistanceMeters>801</DistanceMeters>
          <Cadence>16</Cadence>
          <SensorState>Present</SensorState>
          <Extensions>
            <TPX xmlns="https://www.garmin.com/xmlschemas/ActivityExtension/v2">
              <Watts>108</Watts>
            </TPX>
          </Extensions>
        </Trackpoint>
        <Trackpoint>
          <Time>2026-09-25T09:30:42Z</Time>
          <DistanceMeters>811.8</DistanceMeters>
          <Cadence>16</Cadence>
          <SensorState>Present</SensorState>
          <Extensions>
            <TPX xmlns="https://www.garmin.com/xmlschemas/ActivityExtension/v2">
              <Watts>108</Watts>
            </TPX>
          </Extensions>
        </Trackpoint>
        <Trackpoint>
          <Time>2026-09-25T09:30:45Z</Time>
          <DistanceMeters>822.7</DistanceMeters>
          <Cadence>18</Cadence>
          <SensorState>Present</SensorState>
          <Extensions>
            <TPX xmlns="https://www.garmin.com/xmlschemas/ActivityExtension/v2">
              <Watts>103</Watts>
            </TPX>
          </Extensions>
        </Trackpoint>
        <Trackpoint>
          <Time>2026-09-25T09:30:48Z</Time>
          <DistanceMeters>834</DistanceMeters>
          <Cadence>20</Cadence>
          <SensorState>Present</SensorState>
          <Extensions>
            <TPX xmlns="https://www.garmin.com/xmlschemas/ActivityExtension/v2">
              <Watts>112</Watts>
            </TPX>
          </Extensions>
        </Trackpoint>
        <Trackpoint>
          <Time>2026-09-25T09:30:51Z</Time>
          <DistanceMeters>844.9</DistanceMeters>
          <Cadence>18</Cadence>
          <SensorState>Present</SensorState>
          <Extensions>
            <TPX xmlns="https://www.garmin.com/xmlschemas/ActivityExtension/v2">
              <Watts>109</Watts>
            </TPX>
          </Extensions>
        </Trackpoint>
        <Trackpoint>
          <Time>2026-09-25T09:30:55Z</Time>
          <DistanceMeters>855.9</DistanceMeters>
          <Cadence>19</Cadence>
          <SensorState>Present</SensorState>
          <Extensions>
            <TPX xmlns="https://www.garmin.com/xmlschemas/ActivityExtension/v2">
              <Watts>106</Watts>
            </TPX>
          </Extensions>
        </Trackpoint>
        <Trackpoint>
          <Time>2026-09-25T09:30:58Z</Time>
          <DistanceMeters>866.8</DistanceMeters>
          <Cadence>19</Cadence>
          <SensorState>Present</SensorState>
          <Extensions>
            <TPX xmlns="https://www.garmin.com/xmlschemas/ActivityExtension/v2">
              <Watts>106</Watts>
            </TPX>
          </Extensions>
        </Trackpoint>
        <Trackpoint>
          <Time>2026-09-25T09:31:01Z</Time>
          <DistanceMeters>878.3</DistanceMeters>
          <Cadence>17</Cadence>
          <SensorState>Present</SensorState>
          <Extensions>
            <TPX xmlns="https://www.garmin.com/xmlschemas/ActivityExtension/v2">
              <Watts>99</Watts>
            </TPX>
          </Extensions>
        </Trackpoint>
        <Trackpoint>
          <Time>2026-09-25T09:31:05Z</Time>
          <DistanceMeters>889.9</DistanceMeters>
          <Cadence>17</Cadence>
          <SensorState>Present</SensorState>
          <Extensions>
            <TPX xmlns="https://www.garmin.com/xmlschemas/ActivityExtension/v2">
              <Watts>99</Watts>
            </TPX>
          </Extensions>
        </Trackpoint>
        <Trackpoint>
          <Time>2026-09-25T09:31:08Z</Time>
          <DistanceMeters>900.8</DistanceMeters>
          <Cadence>19</Cadence>
          <SensorState>Present</SensorState>
          <Extensions>
            <TPX xmlns="https://www.garmin.com/xmlschemas/ActivityExtension/v2">
              <Watts>107</Watts>
            </TPX>
          </Extensions>
        </Trackpoint>
        <Trackpoint>
          <Time>2026-09-25T09:31:12Z</Time>
          <DistanceMeters>912.5</DistanceMeters>
          <Cadence>19</Cadence>
          <SensorState>Present</SensorState>
          <Extensions>
            <TPX xmlns="https://www.garmin.com/xmlschemas/ActivityExtension/v2">
              <Watts>107</Watts>
            </TPX>
          </Extensions>
        </Trackpoint>
        <Trackpoint>
          <Time>2026-09-25T09:31:16Z</Time>
          <DistanceMeters>925.7</DistanceMeters>
          <Cadence>16</Cadence>
          <SensorState>Present</SensorState>
          <Extensions>
            <TPX xmlns="https://www.garmin.com/xmlschemas/ActivityExtension/v2">
              <Watts>97</Watts>
            </TPX>
          </Extensions>
        </Trackpoint>
        <Trackpoint>
          <Time>2026-09-25T09:31:19Z</Time>
          <DistanceMeters>937.2</DistanceMeters>
          <Cadence>17</Cadence>
          <SensorState>Present</SensorState>
          <Extensions>
            <TPX xmlns="https://www.garmin.com/xmlschemas/ActivityExtension/v2">
              <Watts>98</Watts>
            </TPX>
          </Extensions>
        </Trackpoint>
        <Trackpoint>
          <Time>2026-09-25T09:31:23Z</Time>
          <DistanceMeters>948.6</DistanceMeters>
          <Cadence>17</Cadence>
          <SensorState>Present</SensorState>
          <Extensions>
            <TPX xmlns="https://www.garmin.com/xmlschemas/ActivityExtension/v2">
              <Watts>99</Watts>
            </TPX>
          </Extensions>
        </Trackpoint>
        <Trackpoint>
          <Time>2026-09-25T09:31:27Z</Time>
          <DistanceMeters>962.9</DistanceMeters>
          <Cadence>14</Cadence>
          <SensorState>Present</SensorState>
          <Extensions>
            <TPX xmlns="https://www.garmin.com/xmlschemas/ActivityExtension/v2">
              <Watts>89</Watts>
            </TPX>
          </Extensions>
        </Trackpoint>
        <Trackpoint>
          <Time>2026-09-25T09:31:31Z</Time>
          <DistanceMeters>975.2</DistanceMeters>
          <Cadence>14</Cadence>
          <SensorState>Present</SensorState>
          <Extensions>
            <TPX xmlns="https://www.garmin.com/xmlschemas/ActivityExtension/v2">
              <Watts>89</Watts>
            </TPX>
          </Extensions>
        </Trackpoint>
        <Trackpoint>
          <Time>2026-09-25T09:31:35Z</Time>
          <DistanceMeters>986.8</DistanceMeters>
          <Cadence>16</Cadence>
          <SensorState>Present</SensorState>
          <Extensions>
            <TPX xmlns="https://www.garmin.com/xmlschemas/ActivityExtension/v2">
              <Watts>81</Watts>
            </TPX>
          </Extensions>
        </Trackpoint>
        <Trackpoint>
          <Time>2026-09-25T09:31:38Z</Time>
          <DistanceMeters>998</DistanceMeters>
          <Cadence>17</Cadence>
          <SensorState>Present</SensorState>
          <Extensions>
            <TPX xmlns="https://www.garmin.com/xmlschemas/ActivityExtension/v2">
              <Watts>92</Watts>
            </TPX>
          </Extensions>
        </Trackpoint>
        <Trackpoint>
          <Time>2026-09-25T09:31:41Z</Time>
          <DistanceMeters>1008.2</DistanceMeters>
          <Cadence>20</Cadence>
          <SensorState>Present</SensorState>
          <Extensions>
            <TPX xmlns="https://www.garmin.com/xmlschemas/ActivityExtension/v2">
              <Watts>108</Watts>
            </TPX>
          </Extensions>
        </Trackpoint>
        <Trackpoint>
          <Time>2026-09-25T09:31:45Z</Time>
          <DistanceMeters>1021.1</DistanceMeters>
          <Cadence>20</Cadence>
          <SensorState>Present</SensorState>
          <Extensions>
            <TPX xmlns="https://www.garmin.com/xmlschemas/ActivityExtension/v2">
              <Watts>108</Watts>
            </TPX>
          </Extensions>
        </Trackpoint>
        <Trackpoint>
          <Time>2026-09-25T09:31:49Z</Time>
          <DistanceMeters>1031.9</DistanceMeters>
          <Cadence>15</Cadence>
          <SensorState>Present</SensorState>
          <Extensions>
            <TPX xmlns="https://www.garmin.com/xmlschemas/ActivityExtension/v2">
              <Watts>92</Watts>
            </TPX>
          </Extensions>
        </Trackpoint>
        <Trackpoint>
          <Time>2026-09-25T09:31:53Z</Time>
          <DistanceMeters>1044.7</DistanceMeters>
          <Cadence>16</Cadence>
          <SensorState>Present</SensorState>
          <Extensions>
            <TPX xmlns="https://www.garmin.com/xmlschemas/ActivityExtension/v2">
              <Watts>89</Watts>
            </TPX>
          </Extensions>
        </Trackpoint>
        <Trackpoint>
          <Time>2026-09-25T09:31:56Z</Time>
          <DistanceMeters>1055.8</DistanceMeters>
          <Cadence>17</Cadence>
          <SensorState>Present</SensorState>
          <Extensions>
            <TPX xmlns="https://www.garmin.com/xmlschemas/ActivityExtension/v2">
              <Watts>89</Watts>
            </TPX>
          </Extensions>
        </Trackpoint>
        <Trackpoint>
          <Time>2026-09-25T09:32:00Z</Time>
          <DistanceMeters>1066.9</DistanceMeters>
          <Cadence>17</Cadence>
          <SensorState>Present</SensorState>
          <Extensions>
            <TPX xmlns="https://www.garmin.com/xmlschemas/ActivityExtension/v2">
              <Watts>89</Watts>
            </TPX>
          </Extensions>
        </Trackpoint>
        <Trackpoint>
          <Time>2026-09-25T09:32:04Z</Time>
          <DistanceMeters>1079.8</DistanceMeters>
          <Cadence>15</Cadence>
          <SensorState>Present</SensorState>
          <Extensions>
            <TPX xmlns="https://www.garmin.com/xmlschemas/ActivityExtension/v2">
              <Watts>93</Watts>
            </TPX>
          </Extensions>
        </Trackpoint>
        <Trackpoint>
          <Time>2026-09-25T09:32:08Z</Time>
          <DistanceMeters>1091.5</DistanceMeters>
          <Cadence>15</Cadence>
          <SensorState>Present</SensorState>
          <Extensions>
            <TPX xmlns="https://www.garmin.com/xmlschemas/ActivityExtension/v2">
              <Watts>93</Watts>
            </TPX>
          </Extensions>
        </Trackpoint>
        <Trackpoint>
          <Time>2026-09-25T09:32:11Z</Time>
          <DistanceMeters>1103.4</DistanceMeters>
          <Cadence>16</Cadence>
          <SensorState>Present</SensorState>
          <Extensions>
            <TPX xmlns="https://www.garmin.com/xmlschemas/ActivityExtension/v2">
              <Watts>86</Watts>
            </TPX>
          </Extensions>
        </Trackpoint>
        <Trackpoint>
          <Time>2026-09-25T09:32:15Z</Time>
          <DistanceMeters>1115.1</DistanceMeters>
          <Cadence>16</Cadence>
          <SensorState>Present</SensorState>
          <Extensions>
            <TPX xmlns="https://www.garmin.com/xmlschemas/ActivityExtension/v2">
              <Watts>88</Watts>
            </TPX>
          </Extensions>
        </Trackpoint>
        <Trackpoint>
          <Time>2026-09-25T09:32:19Z</Time>
          <DistanceMeters>1127.6</DistanceMeters>
          <Cadence>16</Cadence>
          <SensorState>Present</SensorState>
          <Extensions>
            <TPX xmlns="https://www.garmin.com/xmlschemas/ActivityExtension/v2">
              <Watts>86</Watts>
            </TPX>
          </Extensions>
        </Trackpoint>
        <Trackpoint>
          <Time>2026-09-25T09:32:24Z</Time>
          <DistanceMeters>1142.5</DistanceMeters>
          <Cadence>12</Cadence>
          <SensorState>Present</SensorState>
          <Extensions>
            <TPX xmlns="https://www.garmin.com/xmlschemas/ActivityExtension/v2">
              <Watts>72</Watts>
            </TPX>
          </Extensions>
        </Trackpoint>
        <Trackpoint>
          <Time>2026-09-25T09:32:28Z</Time>
          <DistanceMeters>1153.9</DistanceMeters>
          <Cadence>16</Cadence>
          <SensorState>Present</SensorState>
          <Extensions>
            <TPX xmlns="https://www.garmin.com/xmlschemas/ActivityExtension/v2">
              <Watts>79</Watts>
            </TPX>
          </Extensions>
        </Trackpoint>
        <Trackpoint>
          <Time>2026-09-25T09:32:32Z</Time>
          <DistanceMeters>1166.1</DistanceMeters>
          <Cadence>15</Cadence>
          <SensorState>Present</SensorState>
          <Extensions>
            <TPX xmlns="https://www.garmin.com/xmlschemas/ActivityExtension/v2">
              <Watts>79</Watts>
            </TPX>
          </Extensions>
        </Trackpoint>
        <Trackpoint>
          <Time>2026-09-25T09:32:36Z</Time>
          <DistanceMeters>1178.4</DistanceMeters>
          <Cadence>15</Cadence>
          <SensorState>Present</SensorState>
          <Extensions>
            <TPX xmlns="https://www.garmin.com/xmlschemas/ActivityExtension/v2">
              <Watts>80</Watts>
            </TPX>
          </Extensions>
        </Trackpoint>
        <Trackpoint>
          <Time>2026-09-25T09:32:40Z</Time>
          <DistanceMeters>1189.9</DistanceMeters>
          <Cadence>16</Cadence>
          <SensorState>Present</SensorState>
          <Extensions>
            <TPX xmlns="https://www.garmin.com/xmlschemas/ActivityExtension/v2">
              <Watts>79</Watts>
            </TPX>
          </Extensions>
        </Trackpoint>
        <Trackpoint>
          <Time>2026-09-25T09:32:43Z</Time>
          <DistanceMeters>1200.8</DistanceMeters>
          <Cadence>17</Cadence>
          <SensorState>Present</SensorState>
          <Extensions>
            <TPX xmlns="https://www.garmin.com/xmlschemas/ActivityExtension/v2">
              <Watts>83</Watts>
            </TPX>
          </Extensions>
        </Trackpoint>
        <Trackpoint>
          <Time>2026-09-25T09:32:47Z</Time>
          <DistanceMeters>1211.8</DistanceMeters>
          <Cadence>17</Cadence>
          <SensorState>Present</SensorState>
          <Extensions>
            <TPX xmlns="https://www.garmin.com/xmlschemas/ActivityExtension/v2">
              <Watts>83</Watts>
            </TPX>
          </Extensions>
        </Trackpoint>
        <Trackpoint>
          <Time>2026-09-25T09:32:50Z</Time>
          <DistanceMeters>1223.7</DistanceMeters>
          <Cadence>17</Cadence>
          <SensorState>Present</SensorState>
          <Extensions>
            <TPX xmlns="https://www.garmin.com/xmlschemas/ActivityExtension/v2">
              <Watts>87</Watts>
            </TPX>
          </Extensions>
        </Trackpoint>
        <Trackpoint>
          <Time>2026-09-25T09:32:55Z</Time>
          <DistanceMeters>1237.6</DistanceMeters>
          <Cadence>13</Cadence>
          <SensorState>Present</SensorState>
          <Extensions>
            <TPX xmlns="https://www.garmin.com/xmlschemas/ActivityExtension/v2">
              <Watts>84</Watts>
            </TPX>
          </Extensions>
        </Trackpoint>
        <Trackpoint>
          <Time>2026-09-25T09:32:59Z</Time>
          <DistanceMeters>1249.5</DistanceMeters>
          <Cadence>13</Cadence>
          <SensorState>Present</SensorState>
          <Extensions>
            <TPX xmlns="https://www.garmin.com/xmlschemas/ActivityExtension/v2">
              <Watts>84</Watts>
            </TPX>
          </Extensions>
        </Trackpoint>
        <Trackpoint>
          <Time>2026-09-25T09:33:03Z</Time>
          <DistanceMeters>1264.1</DistanceMeters>
          <Cadence>16</Cadence>
          <SensorState>Present</SensorState>
          <Extensions>
            <TPX xmlns="https://www.garmin.com/xmlschemas/ActivityExtension/v2">
              <Watts>89</Watts>
            </TPX>
          </Extensions>
        </Trackpoint>
        <Trackpoint>
          <Time>2026-09-25T09:33:07Z</Time>
          <DistanceMeters>1276</DistanceMeters>
          <Cadence>16</Cadence>
          <SensorState>Present</SensorState>
          <Extensions>
            <TPX xmlns="https://www.garmin.com/xmlschemas/ActivityExtension/v2">
              <Watts>90</Watts>
            </TPX>
          </Extensions>
        </Trackpoint>
        <Trackpoint>
          <Time>2026-09-25T09:33:12Z</Time>
          <DistanceMeters>1289.8</DistanceMeters>
          <Cadence>14</Cadence>
          <SensorState>Present</SensorState>
          <Extensions>
            <TPX xmlns="https://www.garmin.com/xmlschemas/ActivityExtension/v2">
              <Watts>80</Watts>
            </TPX>
          </Extensions>
        </Trackpoint>
        <Trackpoint>
          <Time>2026-09-25T09:33:15Z</Time>
          <DistanceMeters>1301.5</DistanceMeters>
          <Cadence>16</Cadence>
          <SensorState>Present</SensorState>
          <Extensions>
            <TPX xmlns="https://www.garmin.com/xmlschemas/ActivityExtension/v2">
              <Watts>83</Watts>
            </TPX>
          </Extensions>
        </Trackpoint>
        <Trackpoint>
          <Time>2026-09-25T09:33:19Z</Time>
          <DistanceMeters>1313.3</DistanceMeters>
          <Cadence>16</Cadence>
          <SensorState>Present</SensorState>
          <Extensions>
            <TPX xmlns="https://www.garmin.com/xmlschemas/ActivityExtension/v2">
              <Watts>83</Watts>
            </TPX>
          </Extensions>
        </Trackpoint>
        <Trackpoint>
          <Time>2026-09-25T09:33:23Z</Time>
          <DistanceMeters>1325.9</DistanceMeters>
          <Cadence>16</Cadence>
          <SensorState>Present</SensorState>
          <Extensions>
            <TPX xmlns="https://www.garmin.com/xmlschemas/ActivityExtension/v2">
              <Watts>88</Watts>
            </TPX>
          </Extensions>
        </Trackpoint>
        <Trackpoint>
          <Time>2026-09-25T09:33:28Z</Time>
          <DistanceMeters>1339.7</DistanceMeters>
          <Cadence>14</Cadence>
          <SensorState>Present</SensorState>
          <Extensions>
            <TPX xmlns="https://www.garmin.com/xmlschemas/ActivityExtension/v2">
              <Watts>80</Watts>
            </TPX>
          </Extensions>
        </Trackpoint>
        <Trackpoint>
          <Time>2026-09-25T09:33:32Z</Time>
          <DistanceMeters>1352.5</DistanceMeters>
          <Cadence>14</Cadence>
          <SensorState>Present</SensorState>
          <Extensions>
            <TPX xmlns="https://www.garmin.com/xmlschemas/ActivityExtension/v2">
              <Watts>80</Watts>
            </TPX>
          </Extensions>
        </Trackpoint>
        <Trackpoint>
          <Time>2026-09-25T09:33:37Z</Time>
          <DistanceMeters>1367.1</DistanceMeters>
          <Cadence>12</Cadence>
          <SensorState>Present</SensorState>
          <Extensions>
            <TPX xmlns="https://www.garmin.com/xmlschemas/ActivityExtension/v2">
              <Watts>69</Watts>
            </TPX>
          </Extensions>
        </Trackpoint>
        <Trackpoint>
          <Time>2026-09-25T09:33:41Z</Time>
          <DistanceMeters>1379.8</DistanceMeters>
          <Cadence>15</Cadence>
          <SensorState>Present</SensorState>
          <Extensions>
            <TPX xmlns="https://www.garmin.com/xmlschemas/ActivityExtension/v2">
              <Watts>87</Watts>
            </TPX>
          </Extensions>
        </Trackpoint>
        <Trackpoint>
          <Time>2026-09-25T09:33:45Z</Time>
          <DistanceMeters>1393.2</DistanceMeters>
          <Cadence>15</Cadence>
          <SensorState>Present</SensorState>
          <Extensions>
            <TPX xmlns="https://www.garmin.com/xmlschemas/ActivityExtension/v2">
              <Watts>87</Watts>
            </TPX>
          </Extensions>
        </Trackpoint>
        <Trackpoint>
          <Time>2026-09-25T09:33:51Z</Time>
          <DistanceMeters>1408.8</DistanceMeters>
          <Cadence>12</Cadence>
          <SensorState>Present</SensorState>
          <Extensions>
            <TPX xmlns="https://www.garmin.com/xmlschemas/ActivityExtension/v2">
              <Watts>71</Watts>
            </TPX>
          </Extensions>
        </Trackpoint>
        <Trackpoint>
          <Time>2026-09-25T09:33:55Z</Time>
          <DistanceMeters>1421.6</DistanceMeters>
          <Cadence>14</Cadence>
          <SensorState>Present</SensorState>
          <Extensions>
            <TPX xmlns="https://www.garmin.com/xmlschemas/ActivityExtension/v2">
              <Watts>78</Watts>
            </TPX>
          </Extensions>
        </Trackpoint>
        <Trackpoint>
          <Time>2026-09-25T09:33:59Z</Time>
          <DistanceMeters>1433.2</DistanceMeters>
          <Cadence>14</Cadence>
          <SensorState>Present</SensorState>
          <Extensions>
            <TPX xmlns="https://www.garmin.com/xmlschemas/ActivityExtension/v2">
              <Watts>78</Watts>
            </TPX>
          </Extensions>
        </Trackpoint>
        <Trackpoint>
          <Time>2026-09-25T09:34:02Z</Time>
          <DistanceMeters>1444.3</DistanceMeters>
          <Cadence>16</Cadence>
          <SensorState>Present</SensorState>
          <Extensions>
            <TPX xmlns="https://www.garmin.com/xmlschemas/ActivityExtension/v2">
              <Watts>83</Watts>
            </TPX>
          </Extensions>
        </Trackpoint>
        <Trackpoint>
          <Time>2026-09-25T09:34:06Z</Time>
          <DistanceMeters>1457.2</DistanceMeters>
          <Cadence>14</Cadence>
          <SensorState>Present</SensorState>
          <Extensions>
            <TPX xmlns="https://www.garmin.com/xmlschemas/ActivityExtension/v2">
              <Watts>78</Watts>
            </TPX>
          </Extensions>
        </Trackpoint>
        <Trackpoint>
          <Time>2026-09-25T09:34:11Z</Time>
          <DistanceMeters>1470.7</DistanceMeters>
          <Cadence>14</Cadence>
          <SensorState>Present</SensorState>
          <Extensions>
            <TPX xmlns="https://www.garmin.com/xmlschemas/ActivityExtension/v2">
              <Watts>78</Watts>
            </TPX>
          </Extensions>
        </Trackpoint>
        <Trackpoint>
          <Time>2026-09-25T09:34:15Z</Time>
          <DistanceMeters>1483.8</DistanceMeters>
          <Cadence>15</Cadence>
          <SensorState>Present</SensorState>
          <Extensions>
            <TPX xmlns="https://www.garmin.com/xmlschemas/ActivityExtension/v2">
              <Watts>79</Watts>
            </TPX>
          </Extensions>
        </Trackpoint>
        <Trackpoint>
          <Time>2026-09-25T09:34:19Z</Time>
          <DistanceMeters>1495</DistanceMeters>
          <Cadence>17</Cadence>
          <SensorState>Present</SensorState>
          <Extensions>
            <TPX xmlns="https://www.garmin.com/xmlschemas/ActivityExtension/v2">
              <Watts>90</Watts>
            </TPX>
          </Extensions>
        </Trackpoint>
        <Trackpoint>
          <Time>2026-09-25T09:34:22Z</Time>
          <DistanceMeters>1506.2</DistanceMeters>
          <Cadence>17</Cadence>
          <SensorState>Present</SensorState>
          <Extensions>
            <TPX xmlns="https://www.garmin.com/xmlschemas/ActivityExtension/v2">
              <Watts>90</Watts>
            </TPX>
          </Extensions>
        </Trackpoint>
        <Trackpoint>
          <Time>2026-09-25T09:34:26Z</Time>
          <DistanceMeters>1519.9</DistanceMeters>
          <Cadence>15</Cadence>
          <SensorState>Present</SensorState>
          <Extensions>
            <TPX xmlns="https://www.garmin.com/xmlschemas/ActivityExtension/v2">
              <Watts>91</Watts>
            </TPX>
          </Extensions>
        </Trackpoint>
        <Trackpoint>
          <Time>2026-09-25T09:34:30Z</Time>
          <DistanceMeters>1532.8</DistanceMeters>
          <Cadence>15</Cadence>
          <SensorState>Present</SensorState>
          <Extensions>
            <TPX xmlns="https://www.garmin.com/xmlschemas/ActivityExtension/v2">
              <Watts>91</Watts>
            </TPX>
          </Extensions>
        </Trackpoint>
        <Trackpoint>
          <Time>2026-09-25T09:34:35Z</Time>
          <DistanceMeters>1546.5</DistanceMeters>
          <Cadence>14</Cadence>
          <SensorState>Present</SensorState>
          <Extensions>
            <TPX xmlns="https://www.garmin.com/xmlschemas/ActivityExtension/v2">
              <Watts>92</Watts>
            </TPX>
          </Extensions>
        </Trackpoint>
        <Trackpoint>
          <Time>2026-09-25T09:34:39Z</Time>
          <DistanceMeters>1559.6</DistanceMeters>
          <Cadence>14</Cadence>
          <SensorState>Present</SensorState>
          <Extensions>
            <TPX xmlns="https://www.garmin.com/xmlschemas/ActivityExtension/v2">
              <Watts>81</Watts>
            </TPX>
          </Extensions>
        </Trackpoint>
        <Trackpoint>
          <Time>2026-09-25T09:34:43Z</Time>
          <DistanceMeters>1571.8</DistanceMeters>
          <Cadence>15</Cadence>
          <SensorState>Present</SensorState>
          <Extensions>
            <TPX xmlns="https://www.garmin.com/xmlschemas/ActivityExtension/v2">
              <Watts>80</Watts>
            </TPX>
          </Extensions>
        </Trackpoint>
        <Trackpoint>
          <Time>2026-09-25T09:34:47Z</Time>
          <DistanceMeters>1585</DistanceMeters>
          <Cadence>14</Cadence>
          <SensorState>Present</SensorState>
          <Extensions>
            <TPX xmlns="https://www.garmin.com/xmlschemas/ActivityExtension/v2">
              <Watts>83</Watts>
            </TPX>
          </Extensions>
        </Trackpoint>
        <Trackpoint>
          <Time>2026-09-25T09:34:51Z</Time>
          <DistanceMeters>1598.2</DistanceMeters>
          <Cadence>14</Cadence>
          <SensorState>Present</SensorState>
          <Extensions>
            <TPX xmlns="https://www.garmin.com/xmlschemas/ActivityExtension/v2">
              <Watts>82</Watts>
            </TPX>
          </Extensions>
        </Trackpoint>
        <Trackpoint>
          <Time>2026-09-25T09:34:55Z</Time>
          <DistanceMeters>1610.4</DistanceMeters>
          <Cadence>14</Cadence>
          <SensorState>Present</SensorState>
          <Extensions>
            <TPX xmlns="https://www.garmin.com/xmlschemas/ActivityExtension/v2">
              <Watts>82</Watts>
            </TPX>
          </Extensions>
        </Trackpoint>
        <Trackpoint>
          <Time>2026-09-25T09:34:59Z</Time>
          <DistanceMeters>1622.7</DistanceMeters>
          <Cadence>15</Cadence>
          <SensorState>Present</SensorState>
          <Extensions>
            <TPX xmlns="https://www.garmin.com/xmlschemas/ActivityExtension/v2">
              <Watts>80</Watts>
            </TPX>
          </Extensions>
        </Trackpoint>
        <Trackpoint>
          <Time>2026-09-25T09:35:03Z</Time>
          <DistanceMeters>1633.1</DistanceMeters>
          <Cadence>19</Cadence>
          <SensorState>Present</SensorState>
          <Extensions>
            <TPX xmlns="https://www.garmin.com/xmlschemas/ActivityExtension/v2">
              <Watts>88</Watts>
            </TPX>
          </Extensions>
        </Trackpoint>
        <Trackpoint>
          <Time>2026-09-25T09:35:06Z</Time>
          <DistanceMeters>1644.8</DistanceMeters>
          <Cadence>16</Cadence>
          <SensorState>Present</SensorState>
          <Extensions>
            <TPX xmlns="https://www.garmin.com/xmlschemas/ActivityExtension/v2">
              <Watts>87</Watts>
            </TPX>
          </Extensions>
        </Trackpoint>
        <Trackpoint>
          <Time>2026-09-25T09:35:10Z</Time>
          <DistanceMeters>1656.4</DistanceMeters>
          <Cadence>16</Cadence>
          <SensorState>Present</SensorState>
          <Extensions>
            <TPX xmlns="https://www.garmin.com/xmlschemas/ActivityExtension/v2">
              <Watts>87</Watts>
            </TPX>
          </Extensions>
        </Trackpoint>
        <Trackpoint>
          <Time>2026-09-25T09:35:15Z</Time>
          <DistanceMeters>1670</DistanceMeters>
          <Cadence>14</Cadence>
          <SensorState>Present</SensorState>
          <Extensions>
            <TPX xmlns="https://www.garmin.com/xmlschemas/ActivityExtension/v2">
              <Watts>75</Watts>
            </TPX>
          </Extensions>
        </Trackpoint>
        <Trackpoint>
          <Time>2026-09-25T09:35:18Z</Time>
          <DistanceMeters>1681.4</DistanceMeters>
          <Cadence>16</Cadence>
          <SensorState>Present</SensorState>
          <Extensions>
            <TPX xmlns="https://www.garmin.com/xmlschemas/ActivityExtension/v2">
              <Watts>80</Watts>
            </TPX>
          </Extensions>
        </Trackpoint>
        <Trackpoint>
          <Time>2026-09-25T09:35:22Z</Time>
          <DistanceMeters>1692.4</DistanceMeters>
          <Cadence>17</Cadence>
          <SensorState>Present</SensorState>
          <Extensions>
            <TPX xmlns="https://www.garmin.com/xmlschemas/ActivityExtension/v2">
              <Watts>85</Watts>
            </TPX>
          </Extensions>
        </Trackpoint>
        <Trackpoint>
          <Time>2026-09-25T09:35:26Z</Time>
          <DistanceMeters>1704.2</DistanceMeters>
          <Cadence>16</Cadence>
          <SensorState>Present</SensorState>
          <Extensions>
            <TPX xmlns="https://www.garmin.com/xmlschemas/ActivityExtension/v2">
              <Watts>85</Watts>
            </TPX>
          </Extensions>
        </Trackpoint>
        <Trackpoint>
          <Time>2026-09-25T09:35:29Z</Time>
          <DistanceMeters>1715</DistanceMeters>
          <Cadence>17</Cadence>
          <SensorState>Present</SensorState>
          <Extensions>
            <TPX xmlns="https://www.garmin.com/xmlschemas/ActivityExtension/v2">
              <Watts>84</Watts>
            </TPX>
          </Extensions>
        </Trackpoint>
        <Trackpoint>
          <Time>2026-09-25T09:35:33Z</Time>
          <DistanceMeters>1727.4</DistanceMeters>
          <Cadence>16</Cadence>
          <SensorState>Present</SensorState>
          <Extensions>
            <TPX xmlns="https://www.garmin.com/xmlschemas/ActivityExtension/v2">
              <Watts>82</Watts>
            </TPX>
          </Extensions>
        </Trackpoint>
        <Trackpoint>
          <Time>2026-09-25T09:35:37Z</Time>
          <DistanceMeters>1738.9</DistanceMeters>
          <Cadence>16</Cadence>
          <SensorState>Present</SensorState>
          <Extensions>
            <TPX xmlns="https://www.garmin.com/xmlschemas/ActivityExtension/v2">
              <Watts>82</Watts>
            </TPX>
          </Extensions>
        </Trackpoint>
        <Trackpoint>
          <Time>2026-09-25T09:35:41Z</Time>
          <DistanceMeters>1751.4</DistanceMeters>
          <Cadence>15</Cadence>
          <SensorState>Present</SensorState>
          <Extensions>
            <TPX xmlns="https://www.garmin.com/xmlschemas/ActivityExtension/v2">
              <Watts>84</Watts>
            </TPX>
          </Extensions>
        </Trackpoint>
        <Trackpoint>
          <Time>2026-09-25T09:35:45Z</Time>
          <DistanceMeters>1763.8</DistanceMeters>
          <Cadence>15</Cadence>
          <SensorState>Present</SensorState>
          <Extensions>
            <TPX xmlns="https://www.garmin.com/xmlschemas/ActivityExtension/v2">
              <Watts>84</Watts>
            </TPX>
          </Extensions>
        </Trackpoint>
        <Trackpoint>
          <Time>2026-09-25T09:35:49Z</Time>
          <DistanceMeters>1776.2</DistanceMeters>
          <Cadence>15</Cadence>
          <SensorState>Present</SensorState>
          <Extensions>
            <TPX xmlns="https://www.garmin.com/xmlschemas/ActivityExtension/v2">
              <Watts>82</Watts>
            </TPX>
          </Extensions>
        </Trackpoint>
        <Trackpoint>
          <Time>2026-09-25T09:35:53Z</Time>
          <DistanceMeters>1788.4</DistanceMeters>
          <Cadence>15</Cadence>
          <SensorState>Present</SensorState>
          <Extensions>
            <TPX xmlns="https://www.garmin.com/xmlschemas/ActivityExtension/v2">
              <Watts>85</Watts>
            </TPX>
          </Extensions>
        </Trackpoint>
        <Trackpoint>
          <Time>2026-09-25T09:35:57Z</Time>
          <DistanceMeters>1801.5</DistanceMeters>
          <Cadence>15</Cadence>
          <SensorState>Present</SensorState>
          <Extensions>
            <TPX xmlns="https://www.garmin.com/xmlschemas/ActivityExtension/v2">
              <Watts>96</Watts>
            </TPX>
          </Extensions>
        </Trackpoint>
        <Trackpoint>
          <Time>2026-09-25T09:36:00Z</Time>
          <DistanceMeters>1812.7</DistanceMeters>
          <Cadence>15</Cadence>
          <SensorState>Present</SensorState>
          <Extensions>
            <TPX xmlns="https://www.garmin.com/xmlschemas/ActivityExtension/v2">
              <Watts>96</Watts>
            </TPX>
          </Extensions>
        </Trackpoint>
        <Trackpoint>
          <Time>2026-09-25T09:36:04Z</Time>
          <DistanceMeters>1825.6</DistanceMeters>
          <Cadence>17</Cadence>
          <SensorState>Present</SensorState>
          <Extensions>
            <TPX xmlns="https://www.garmin.com/xmlschemas/ActivityExtension/v2">
              <Watts>95</Watts>
            </TPX>
          </Extensions>
        </Trackpoint>
        <Trackpoint>
          <Time>2026-09-25T09:36:08Z</Time>
          <DistanceMeters>1837.9</DistanceMeters>
          <Cadence>17</Cadence>
          <SensorState>Present</SensorState>
          <Extensions>
            <TPX xmlns="https://www.garmin.com/xmlschemas/ActivityExtension/v2">
              <Watts>98</Watts>
            </TPX>
          </Extensions>
        </Trackpoint>
        <Trackpoint>
          <Time>2026-09-25T09:36:12Z</Time>
          <DistanceMeters>1850.6</DistanceMeters>
          <Cadence>17</Cadence>
          <SensorState>Present</SensorState>
          <Extensions>
            <TPX xmlns="https://www.garmin.com/xmlschemas/ActivityExtension/v2">
              <Watts>98</Watts>
            </TPX>
          </Extensions>
        </Trackpoint>
        <Trackpoint>
          <Time>2026-09-25T09:36:16Z</Time>
          <DistanceMeters>1864.5</DistanceMeters>
          <Cadence>15</Cadence>
          <SensorState>Present</SensorState>
          <Extensions>
            <TPX xmlns="https://www.garmin.com/xmlschemas/ActivityExtension/v2">
              <Watts>89</Watts>
            </TPX>
          </Extensions>
        </Trackpoint>
        <Trackpoint>
          <Time>2026-09-25T09:36:20Z</Time>
          <DistanceMeters>1876.8</DistanceMeters>
          <Cadence>13</Cadence>
          <SensorState>Present</SensorState>
          <Extensions>
            <TPX xmlns="https://www.garmin.com/xmlschemas/ActivityExtension/v2">
              <Watts>83</Watts>
            </TPX>
          </Extensions>
        </Trackpoint>
        <Trackpoint>
          <Time>2026-09-25T09:36:24Z</Time>
          <DistanceMeters>1890.5</DistanceMeters>
          <Cadence>16</Cadence>
          <SensorState>Present</SensorState>
          <Extensions>
            <TPX xmlns="https://www.garmin.com/xmlschemas/ActivityExtension/v2">
              <Watts>97</Watts>
            </TPX>
          </Extensions>
        </Trackpoint>
        <Trackpoint>
          <Time>2026-09-25T09:36:28Z</Time>
          <DistanceMeters>1903.2</DistanceMeters>
          <Cadence>15</Cadence>
          <SensorState>Present</SensorState>
          <Extensions>
            <TPX xmlns="https://www.garmin.com/xmlschemas/ActivityExtension/v2">
              <Watts>89</Watts>
            </TPX>
          </Extensions>
        </Trackpoint>
        <Trackpoint>
          <Time>2026-09-25T09:36:32Z</Time>
          <DistanceMeters>1915.1</DistanceMeters>
          <Cadence>15</Cadence>
          <SensorState>Present</SensorState>
          <Extensions>
            <TPX xmlns="https://www.garmin.com/xmlschemas/ActivityExtension/v2">
              <Watts>89</Watts>
            </TPX>
          </Extensions>
        </Trackpoint>
        <Trackpoint>
          <Time>2026-09-25T09:36:37Z</Time>
          <DistanceMeters>1929</DistanceMeters>
          <Cadence>14</Cadence>
          <SensorState>Present</SensorState>
          <Extensions>
            <TPX xmlns="https://www.garmin.com/xmlschemas/ActivityExtension/v2">
              <Watts>82</Watts>
            </TPX>
          </Extensions>
        </Trackpoint>
        <Trackpoint>
          <Time>2026-09-25T09:36:40Z</Time>
          <DistanceMeters>1940.7</DistanceMeters>
          <Cadence>16</Cadence>
          <SensorState>Present</SensorState>
          <Extensions>
            <TPX xmlns="https://www.garmin.com/xmlschemas/ActivityExtension/v2">
              <Watts>84</Watts>
            </TPX>
          </Extensions>
        </Trackpoint>
        <Trackpoint>
          <Time>2026-09-25T09:36:45Z</Time>
          <DistanceMeters>1953.9</DistanceMeters>
          <Cadence>14</Cadence>
          <SensorState>Present</SensorState>
          <Extensions>
            <TPX xmlns="https://www.garmin.com/xmlschemas/ActivityExtension/v2">
              <Watts>82</Watts>
            </TPX>
          </Extensions>
        </Trackpoint>
        <Trackpoint>
          <Time>2026-09-25T09:36:49Z</Time>
          <DistanceMeters>1966.7</DistanceMeters>
          <Cadence>14</Cadence>
          <SensorState>Present</SensorState>
          <Extensions>
            <TPX xmlns="https://www.garmin.com/xmlschemas/ActivityExtension/v2">
              <Watts>82</Watts>
            </TPX>
          </Extensions>
        </Trackpoint>
        <Trackpoint>
          <Time>2026-09-25T09:36:54Z</Time>
          <DistanceMeters>1981.8</DistanceMeters>
          <Cadence>14</Cadence>
          <SensorState>Present</SensorState>
          <Extensions>
            <TPX xmlns="https://www.garmin.com/xmlschemas/ActivityExtension/v2">
              <Watts>78</Watts>
            </TPX>
          </Extensions>
        </Trackpoint>
        <Trackpoint>
          <Time>2026-09-25T09:36:58Z</Time>
          <DistanceMeters>1996.1</DistanceMeters>
          <Cadence>14</Cadence>
          <SensorState>Present</SensorState>
          <Extensions>
            <TPX xmlns="https://www.garmin.com/xmlschemas/ActivityExtension/v2">
              <Watts>88</Watts>
            </TPX>
          </Extensions>
        </Trackpoint>
      </Track>
    </Lap>
  <Creator xsi:type="Device_t">
    <Name>Concept2</Name>
    <ProductID>5</ProductID>
    <Version>
      <VersionMajor>1</VersionMajor>
      <VersionMinor>0</VersionMinor>
      <BuildMajor>1</BuildMajor>
      <BuildMinor>0</BuildMinor>
    </Version>
  </Creator>
</Activity>
</Activities>
<Author xsi:type="Application_t">
  <Name></Name>
  <Build>
    <Version>
      <VersionMajor>1</VersionMajor>
      <VersionMinor>0</VersionMinor>
      <BuildMajor>1</BuildMajor>
      <BuildMinor>0</BuildMinor>
    </Version>
  </Build>
  <LangID>en</LangID>
</Author>
</TrainingCenterDatabase>
